{"type": "FeatureCollection", "columns": {"area_m2": "Float", "count": "Long<0, 4294967295>", "label": "Integer", "seed_distance_m": "Float", "system:index": "String"}, "features": [{"type": "Feature", "geometry": {"geodesic": false, "type": "Polygon", "coordinates": [[[86.93923872011452, 27.89470611146231], [86.93923892175935, 27.894345014230247], [86.93903570754377, 27.89434492449753], [86.93903590986234, 27.893983827247503], [86.93944233694602, 27.89398400639852], [86.93944243743157, 27.893803457764523], [86.93964565063204, 27.89380354688638], [86.93964555048787, 27.89398409552038], [86.94005197758052, 27.893984272874768], [86.94005207705098, 27.89380372424077], [86.93984886384152, 27.893803635711798], [86.93984896364434, 27.8936230870778], [86.94066181513472, 27.893623439379088], [86.94066191359008, 27.893442890736107], [86.9418811888224, 27.893443410195903], [86.94188128525656, 27.893262861543942], [86.9420844974599, 27.89326294707254], [86.94208440136713, 27.893443495733486], [86.94228761390285, 27.893443580956657], [86.94228751814244, 27.89362412960862], [86.94188109238827, 27.89362395884787], [86.94188070664269, 27.894346153410808], [86.94167749240916, 27.89434606757678], [86.94167739563365, 27.89452661621078], [86.94188061019958, 27.894526702044804], [86.94188051375644, 27.894707250660836], [86.94167729885814, 27.89470716482681], [86.94167720208264, 27.894887713451823], [86.9418804173223, 27.89488779928585], [86.94188032087916, 27.89506834790188], [86.94228675203222, 27.895068518671614], [86.94228665626282, 27.895249067278662], [86.94248987217621, 27.895249152214372], [86.94248977674819, 27.89542970082142], [86.94269299300294, 27.89542978546069], [86.94269280281162, 27.895790882656815], [86.94289601974012, 27.895790966999638], [86.94289583021356, 27.896152064186786], [86.943302265427, 27.89615223196513], [86.94330217133745, 27.89633278055421], [86.94350538928103, 27.896332863989734], [86.9435051080275, 27.896874509721048], [86.9437083269772, 27.89687459286911], [86.94370814014559, 27.897235690002358], [86.94350492051316, 27.897235606854295], [86.94350463924167, 27.89777725251374], [86.94330141860314, 27.897777169069236], [86.94330123041507, 27.89813826614858], [86.94350445172734, 27.89813834959309], [86.94350426420402, 27.898499446663454], [86.943910708194, 27.898499612663137], [86.94391061510159, 27.898680161189336], [86.94411383743792, 27.898680243735527], [86.94411346642474, 27.89940243779541], [86.94370701906608, 27.899402272388617], [86.94370711249985, 27.899221723880384], [86.94330066581493, 27.899221557278832], [86.94330075992244, 27.8990410087706], [86.94269109091914, 27.8990407566135], [86.94269099580552, 27.89922130512173], [86.9420813257961, 27.899221050269684], [86.94208122967636, 27.899401598768936], [86.94167478233567, 27.89940142737038], [86.94167468553321, 27.899581975860645], [86.94126823751878, 27.899581803258346], [86.94126833499499, 27.89940125476808], [86.94086188766327, 27.89940108097102], [86.94086178951335, 27.899581629461288], [86.9404553415079, 27.89958145446049], [86.94045524268424, 27.899762002950755], [86.93943912100426, 27.899761560207082], [86.93943902049176, 27.899942108688368], [86.93903257114782, 27.899941929492435], [86.93903246996159, 27.900122477964736], [86.93882924495725, 27.900122387917612], [86.93882894037446, 27.90066403329858], [86.93903216638492, 27.900664123354687], [86.93903206519869, 27.900844671800037], [86.93984497062392, 27.900845029015112], [86.93984487078517, 27.901025577460462], [86.94004809747834, 27.901025666016384], [86.94004799797194, 27.901206214461734], [86.94045445204102, 27.90120639067526], [86.94045405670145, 27.90192858442073], [86.94065728508346, 27.901928672078338], [86.94065708808292, 27.902289768924124], [86.94025062996245, 27.902289593303486], [86.94025053077945, 27.90247014172189], [86.94004730139133, 27.90247005346241], [86.94004740089771, 27.90228950504401], [86.93862479751648, 27.90228887884639], [86.93862489938543, 27.90210833043697], [86.93801521325126, 27.902108057573706], [86.9380153161353, 27.901927509155303], [86.93720240264321, 27.90192714114248], [86.93720250687473, 27.901746592724077], [86.93659282277973, 27.90174631356362], [86.93659292802634, 27.901565765145218], [86.93598324494644, 27.9015654832988], [86.93598335120817, 27.901384934871416], [86.93557689650129, 27.901384745479604], [86.93557700343673, 27.90120419705222], [86.93476409538842, 27.901203814666353], [86.93476420366235, 27.901023266238965], [86.93395129697949, 27.901022879056097], [86.93395140660988, 27.900842330628713], [86.93232559599298, 27.900841541889925], [86.93232570831833, 27.90066099346254], [86.93130957840079, 27.90066049077429], [86.93130969241496, 27.900479942337924], [86.9302935642132, 27.900479432157724], [86.93029379560126, 27.90011833529397], [86.93009057063284, 27.90011823235602], [86.93009068666824, 27.899937683919653], [86.92988746204118, 27.89993758068526], [86.92988757840894, 27.89975703223991], [86.92968435412325, 27.899756928709074], [86.92968447082339, 27.899576380263724], [86.92948124687906, 27.89957627642746], [86.92948136392056, 27.899395727973126], [86.92805879867281, 27.899394992782913], [86.92805867927773, 27.899575541228266], [86.92765223139804, 27.899575328471272], [86.92765211132922, 27.89975587690764], [86.9272456627758, 27.89975566295589], [86.92724542127272, 27.900116759819642], [86.92704219633126, 27.900116652390118], [86.92704207523836, 27.9002972008175], [86.92683884995554, 27.90029709308255], [86.926838607096, 27.900658189919355], [86.9248063475933, 27.900657096130665], [86.92480622279037, 27.900837644531098], [86.92318041256871, 27.90083674791363], [86.92318028506185, 27.90101729630508], [86.92135124562276, 27.90101626467981], [86.92135111507959, 27.901196813053296], [86.92013175348322, 27.901196111810417], [86.92013162090986, 27.901376660183907], [86.91809934830971, 27.901375467463755], [86.91809921236766, 27.901556015819274], [86.91769275718468, 27.90155577367839], [86.91769262056889, 27.901736322015942], [86.91728616472116, 27.901736078680297], [86.91728602742265, 27.90191662701785], [86.91687957091015, 27.901916382478465], [86.91687970887342, 27.90173583414091], [86.91667648094955, 27.90173571142206], [86.91667634264493, 27.901916259750628], [86.91626988614142, 27.901916013414613], [86.91626974715408, 27.902096561743182], [86.91586328997684, 27.902096314203423], [86.91586315031576, 27.90227686252301], [86.91505023462278, 27.902276363841246], [86.91505009361424, 27.902456912160833], [86.91484686436085, 27.902456786738053], [86.91484700570179, 27.902276238427447], [86.91464377678079, 27.902276112708225], [86.91464434349197, 27.90155391940293], [86.91444111592743, 27.901553793396243], [86.91444139994778, 27.901192696712155], [86.91423817305696, 27.901192570400042], [86.91423845775104, 27.90083147370697], [86.91362877909984, 27.900831092982983], [86.91362892246197, 27.900650544627464], [86.91322247071055, 27.900650289308295], [86.91322218264779, 27.901011386001368], [86.91342540919723, 27.901011513813668], [86.91342512179922, 27.901372610488774], [86.91322189457604, 27.901372482676475], [86.9132216065043, 27.901733579333616], [86.91281515071046, 27.901733322801718], [86.91281529542007, 27.90155277448213], [86.91261206786452, 27.901552645771517], [86.91261221291548, 27.901372097442948], [86.9124089856923, 27.901371968426908], [86.91240956722568, 27.900649775076694], [86.91200311549223, 27.90064951616426], [86.91200326154032, 27.900468967817726], [86.91220648707467, 27.900469097426654], [86.91220677849714, 27.900108000715615], [86.91180032879387, 27.900107741210295], [86.91180062156381, 27.89974664448129], [86.91200384574171, 27.899746774386664], [86.9120039917898, 27.899566226013178], [86.91241043947186, 27.899566484916626], [86.91241029410648, 27.89974703329011], [86.91261351828437, 27.899747162288186], [86.91261337325136, 27.89992771066167], [86.91281659777061, 27.899927839363304], [86.91281688717187, 27.899566742616333], [86.91261366331737, 27.8995666139147], [86.91261424344938, 27.89884442037584], [86.91302068844547, 27.898844677464695], [86.91302126584661, 27.898122483844986], [86.91322448700616, 27.89812261193576], [86.91322434298826, 27.898303160354164], [86.9142404504479, 27.898303796334435], [86.91424073510605, 27.89794269948865], [86.91444395592424, 27.897942825782795], [86.91444409791197, 27.89776227735541], [86.9148505388836, 27.897762529045387], [86.91485068019757, 27.89758198060902], [86.91505390034203, 27.897582106004847], [86.91505404131465, 27.897401557559498], [86.91586692058992, 27.897402056142447], [86.91586706020608, 27.897221507688112], [86.91688315764054, 27.89722212416596], [86.91688329556787, 27.897041575711626], [86.91769617219312, 27.897042063496826], [86.91769630877297, 27.896861515024526], [86.91850918405973, 27.89686199801272], [86.91850931929211, 27.89668144954042], [86.9195254117499, 27.896682046524823], [86.91952554529345, 27.89650149804354], [86.92033841793017, 27.896501970233988], [86.92033855012625, 27.89632142174372], [86.92074498577986, 27.89632165604231], [86.92074511729322, 27.896141107534078], [86.92115155228207, 27.89614134063791], [86.92115168312169, 27.895960792129678], [86.92135490027476, 27.895960908227945], [86.92135516128926, 27.895599811193513], [86.92155837776858, 27.895599926995338], [86.9215582476027, 27.895780475512552], [86.92216789806477, 27.895780821103425], [86.92216802722454, 27.89560027258621], [86.92277767668949, 27.895600615482138], [86.92277780483417, 27.89542006695594], [86.92379388560487, 27.895420632454393], [86.92379401206071, 27.89524008391921], [86.92399722788427, 27.895240196118788], [86.9239971017698, 27.895420744653972], [86.92440353409066, 27.895420968154813], [86.92440378498112, 27.895059871075464], [86.92460700046333, 27.89505998237673], [86.9246071255717, 27.89487943382358], [86.92481034072152, 27.894879544819418], [86.92481021595451, 27.895060093372564], [86.92541986242807, 27.89506042458141], [86.92541973867615, 27.895240973125578], [86.92562295449972, 27.895241082935637], [86.9256232013388, 27.894879985829338], [86.92663927714182, 27.894880530343148], [86.92663915541111, 27.895061078905282], [86.92907774149397, 27.89506235518672], [86.92907785918226, 27.89488180662459], [86.92989071988936, 27.894882222463718], [86.92989083623017, 27.894701673883617], [86.93009405107456, 27.89470177709106], [86.93009393507512, 27.89488232567116], [86.93090679580916, 27.894882735518525], [86.93090691046115, 27.894702186938428], [86.93212619957245, 27.89470279271734], [86.93212631219423, 27.894522244128257], [86.93314238479925, 27.894522740698978], [86.93314227385731, 27.89470328928806], [86.93395513330677, 27.894703681160138], [86.93395524290123, 27.894523132562075], [86.93476810101221, 27.894523519637147], [86.93476820925919, 27.8943429710301], [86.93517463764543, 27.89434316276651], [86.93517496033824, 27.89380151691842], [86.93456532079071, 27.893801228873624], [86.93456542937008, 27.89362068024861], [86.93415900367879, 27.893620486724547], [86.9341591129319, 27.893439938099533], [86.93476875044924, 27.89344022794096], [86.93476864221122, 27.893620776565974], [86.93537828075266, 27.893621063712455], [86.93537817352974, 27.89380161233747], [86.93558138671226, 27.89380170745109], [86.9355814936028, 27.893621158826075], [86.93578470645294, 27.893621253643254], [86.93578449334561, 27.893982350893282], [86.93598770686948, 27.893982445414018], [86.93598749443588, 27.89434354264608], [86.93639392284008, 27.89434373078923], [86.93639402838315, 27.8941631821732], [86.93659724224838, 27.89416327579562], [86.93659703183599, 27.8945243730187], [86.93639381729702, 27.89452427939628], [86.93639371175395, 27.894704828003327], [86.93700335638597, 27.89470510797227], [86.93700325184902, 27.894885656579316], [86.93883218883525, 27.894886480316465], [86.9388322903359, 27.894705931700436], [86.93923872011452, 27.89470611146231]], [[86.93923872011452, 27.89470611146231], [86.93944193500383, 27.894706200889594], [86.93944183451828, 27.894886749496642], [86.93923861928761, 27.894886660069353], [86.93923872011452, 27.89470611146231]], [[86.9132230468181, 27.89992809586825], [86.913223190845, 27.899747547494766], [86.91342641503188, 27.89974767529808], [86.91342627134635, 27.899928223671566], [86.9132230468181, 27.89992809586825]], [[86.93801562478745, 27.90138586387315], [86.9380157276715, 27.90120531543678], [86.93821895469706, 27.901205406687648], [86.93821885214538, 27.901385955124017], [86.93801562478745, 27.90138586387315]], [[86.93821905723975, 27.90102485825128], [86.93821915978243, 27.90084430980593], [86.93842238613425, 27.900844400751367], [86.93842228392394, 27.901024949196717], [86.93821905723975, 27.90102485825128]], [[86.9402549928552, 27.894345458366306], [86.94025519112236, 27.893984361107293], [86.94045840466421, 27.893984449034395], [86.94045850346092, 27.893803900400396], [86.94066171667039, 27.893803988022068], [86.94066161821503, 27.893984536665048], [86.94086483176585, 27.893984623990278], [86.94086492988883, 27.893804075356282], [86.94106814309829, 27.89380416237608], [86.94106794752608, 27.89416525965306], [86.94086473364287, 27.894165172624277], [86.94086463551092, 27.894345721258272], [86.9402549928552, 27.894345458366306]], [[86.94127116140928, 27.8941653463854], [86.94127125885852, 27.893984797751404], [86.94147447240934, 27.893984884178316], [86.94147437530145, 27.894165432821296], [86.94127116140928, 27.8941653463854]], [[86.93984666783794, 27.897775704617693], [86.94004988846748, 27.897775793155645], [86.94004978897907, 27.89795634169083], [86.93984656800816, 27.897956253143892], [86.93984666783794, 27.897775704617693]], [[86.93984666783794, 27.897775704617693], [86.93964344721736, 27.89777561577431], [86.93964354737952, 27.897595067239127], [86.93984676766772, 27.89759515607353], [86.93984666783794, 27.897775704617693]]]}, "id": "+4716+731", "properties": {"area_m2": 1835901.0726419683, "count": 4579, "label": 1, "seed_distance_m": 0, "site_id": "imja-tsho", "recordId": "imja-tsho-lake", "kind": "lake", "status": "candidate", "observation_date": "2024-11-17", "scene_id": "COPERNICUS/S2_SR_HARMONIZED/20241117T045101_20241117T045056_T45RVL", "source": "Sentinel-2 spectral water baseline", "resolution_m": 20, "method": "NDWI > 0.05; MNDWI > 0.1; B8 < 2500; SCL rejects cloud, shadow, snow, invalid. Largest connected component >= 0.05 km2 within 1200 m of seed.", "limitations": "Candidate, not reviewed shoreline. Seasonal ice, terrain shadow and turbid water can cause omission or commission."}}]}