{"type": "FeatureCollection", "columns": {"area_m2": "Float", "count": "Long<0, 4294967295>", "label": "Integer", "seed_distance_m": "Float", "system:index": "String"}, "features": [{"type": "Feature", "geometry": {"geodesic": false, "type": "Polygon", "coordinates": [[[86.91180032879387, 27.900107741210295], [86.91180047517436, 27.899927192845794], [86.91200369969361, 27.899927322751168], [86.91200384574171, 27.899746774386664], [86.91281674247125, 27.89974729098982], [86.91281688717187, 27.899566742616333], [86.91261366331737, 27.8995666139147], [86.91261409841638, 27.899024968767293], [86.91281732125579, 27.89902509745994], [86.91281746594743, 27.89884454906849], [86.91322391094351, 27.898844805564455], [86.91322419897932, 27.89848370876358], [86.91302097714603, 27.89848358066382], [86.91302112150531, 27.898303032254404], [86.91322434298826, 27.898303160354164], [86.91322448700616, 27.89812261193576], [86.91383415046685, 27.898122994420444], [86.91383429346068, 27.89794244600204], [86.91424073510605, 27.89794269948865], [86.91424087742614, 27.897762151061265], [86.91464731839778, 27.897762403353113], [86.91464746004414, 27.897581854916744], [86.91505390034203, 27.897582106004847], [86.91505404131465, 27.897401557559498], [86.91586692058992, 27.897402056142447], [86.91586706020608, 27.897221507688112], [86.91647671866316, 27.897221878476728], [86.91647685727321, 27.897041330022397], [86.9172897338805, 27.897041820206095], [86.91728987113409, 27.896861271733794], [86.9178995275969, 27.89686163622522], [86.9178996638354, 27.89668108775292], [86.91932219325834, 27.89668192773161], [86.91932232713427, 27.896501379241343], [86.920135199771, 27.896501852635534], [86.92013533229945, 27.896321304145268], [86.92074498577986, 27.89632165604231], [86.92074511729322, 27.896141107534078], [86.92135476976752, 27.896141456736178], [86.92135490027476, 27.895960908227945], [86.92176133458989, 27.895961139526165], [86.92176146442338, 27.89578059100895], [86.92277754854481, 27.895781164008337], [86.92277767668949, 27.895600615482138], [86.92379375914904, 27.895601180989576], [86.92379388560487, 27.895420632454393], [86.92460675025558, 27.89542107946506], [86.92460687536395, 27.895240530920894], [86.92562295449972, 27.895241082935637], [86.92562307791925, 27.895060534382488], [86.92846809495754, 27.895062040165516], [86.92846821365194, 27.8948814915944], [86.9307035806234, 27.89488263350584], [86.93070369560776, 27.894702084925743], [86.93273584414158, 27.894703091559883], [86.93273595575725, 27.8945225429708], [86.93476810101221, 27.894523519637147], [86.93476820925919, 27.8943429710301], [86.93497142344782, 27.894343067051018], [86.93497131555118, 27.89452361564908], [86.93558095915012, 27.894523901915214], [86.93558085225959, 27.89470445051328], [86.93740978614663, 27.894705293124034], [86.93740968228342, 27.894885841722097], [86.9378161127268, 27.894886025679103], [86.93781621590729, 27.894705477072055], [86.93842586056624, 27.894705750752788], [86.93842575839186, 27.894886299359836], [86.93862897361356, 27.89488638998188], [86.93862887178054, 27.89506693858893], [86.93903530289765, 27.89506711894369], [86.93903520173836, 27.895247667550738], [86.93923841764277, 27.89524775727447], [86.93923831681587, 27.89542830587253], [86.9390351005701, 27.89542821613982], [86.93903499941082, 27.8956087647289], [86.93883178283266, 27.89560867469974], [86.93883147832176, 27.896150320440036], [86.93903469590602, 27.896150410478178], [86.93903459473775, 27.896330959049294], [86.93923781266336, 27.896331048782006], [86.93923730848391, 27.897233791574703], [86.93903408887844, 27.897233701833006], [86.9390337853467, 27.897775347447535], [86.93883056472613, 27.897775257409396], [86.93883026017927, 27.898316902987993], [86.93862703854361, 27.898316812644424], [86.9386267329727, 27.898858458169123], [86.93842351033092, 27.89885836752911], [86.93842330594622, 27.89921946451863], [86.93822008262173, 27.89921937357319], [86.93821956994421, 27.900122115970625], [86.93801634493987, 27.900122024719757], [86.9380162420648, 27.900302573192057], [86.93821946740152, 27.90030266443394], [86.93821885214538, 27.901385955124017], [86.93801562478745, 27.90138586387315], [86.93801552190341, 27.901566412300532], [86.93618647264573, 27.901565577550038], [86.9361865785571, 27.901385029122654], [86.93537366915234, 27.901384650330048], [86.93537377642016, 27.901204101902664], [86.93476409538842, 27.901203814666353], [86.93476420366235, 27.901023266238965], [86.93374807031326, 27.90102278151702], [86.93374818027604, 27.900842233080656], [86.93212236966811, 27.90084144195235], [86.93212248233482, 27.900660893524964], [86.93130957840079, 27.90066049077429], [86.93130969241496, 27.900479942337924], [86.93110646677282, 27.90047984090016], [86.93110658111937, 27.900299292463792], [86.93090335580959, 27.900299190729587], [86.93090347048853, 27.90011864229322], [86.9307002455291, 27.900118540262568], [86.93070036054938, 27.899937991817218], [86.92968423742312, 27.899937477154424], [86.92968412071399, 27.900118025590793], [86.92927767079513, 27.900117817621823], [86.92927755341228, 27.90029836605819], [86.92907432812048, 27.900298261620055], [86.92907421040523, 27.90047881004744], [86.92846453351473, 27.90047849495437], [86.92846465224505, 27.900297946526987], [86.92785497637863, 27.900297628729987], [86.92785509612406, 27.900117080311585], [86.92765187117361, 27.900116973780378], [86.92765175109581, 27.90029752220776], [86.92744852580401, 27.900297415371124], [86.92744840538484, 27.900477963789527], [86.92724517976964, 27.90047785666543], [86.92724505900912, 27.900658405074847], [86.9248063475933, 27.900657096130665], [86.92480622279037, 27.900837644531098], [86.92358686511065, 27.900836973866873], [86.9235867382865, 27.901017522258325], [86.92155447221712, 27.9010163804996], [86.9215543420153, 27.90119692888207], [86.92033498040996, 27.901196229435822], [86.92033484817794, 27.901376777800326], [86.91830257555985, 27.901375588080548], [86.91830243995915, 27.901556136436067], [86.91769275718468, 27.90155577367839], [86.91769262056889, 27.901736322015942], [86.91728616472116, 27.901736078680297], [86.91728602742265, 27.90191662701785], [86.91667634264493, 27.901916259750628], [86.9166762043403, 27.90209680808818], [86.91626974715408, 27.902096561743182], [86.91626960817572, 27.90227711007175], [86.91565992139476, 27.90227673830397], [86.9156597814013, 27.90245728662356], [86.91484686436085, 27.902456786738053], [86.91484700570179, 27.902276238427447], [86.91464377678079, 27.902276112708225], [86.91464406013638, 27.90191501606905], [86.91484728838364, 27.90191514177929], [86.91484742972456, 27.901734593459704], [86.91464420181866, 27.901734467740482], [86.91464434349197, 27.90155391940293], [86.91444111592743, 27.901553793396243], [86.91444125794209, 27.90137324505869], [86.91423803070992, 27.901373118746577], [86.91423845775104, 27.90083147370697], [86.91362877909984, 27.900831092982983], [86.91362892246197, 27.900650544627464], [86.91301924483484, 27.900650161199554], [86.9130191004666, 27.900830709555073], [86.91322232667468, 27.900830837663815], [86.91322218264779, 27.901011386001368], [86.91342540919723, 27.901011513813668], [86.91342526549374, 27.90119206215122], [86.91322203861192, 27.90119193433892], [86.9132216065043, 27.901733579333616], [86.91261192281354, 27.901733194091104], [86.91261221291548, 27.901372097442948], [86.9124089856923, 27.901371968426908], [86.91240927645899, 27.901010871769767], [86.91261250300843, 27.901011000776823], [86.91261264805043, 27.900830452430288], [86.91220619563425, 27.900830194119727], [86.91220634135895, 27.900649645773193], [86.91200311549223, 27.90064951616426], [86.91200326154032, 27.900468967817726], [86.91220648707467, 27.900469097426654], [86.91220677849714, 27.900108000715615], [86.91180032879387, 27.900107741210295]], [[86.91992945684281, 27.899932155202304], [86.91992958973059, 27.89975160680187], [86.92013281396238, 27.899751724714733], [86.92013268140697, 27.89993227311517], [86.91992945684281, 27.899932155202304]]]}, "id": "+4681+725", "properties": {"area_m2": 1539606.756279708, "count": 3840, "label": 1, "seed_distance_m": 0, "site_id": "imja-tsho", "recordId": "imja-tsho-lake", "kind": "lake", "status": "candidate", "observation_date": "2019-10-15", "scene_id": "COPERNICUS/S2_SR_HARMONIZED/20191015T044751_20191015T045321_T45RVL", "source": "Sentinel-2 spectral water baseline", "resolution_m": 20, "method": "NDWI > 0.05; MNDWI > 0.1; B8 < 2500; SCL rejects cloud, shadow, snow, invalid. Largest connected component >= 0.05 km2 within 1200 m of seed.", "limitations": "Candidate, not reviewed shoreline. Seasonal ice, terrain shadow and turbid water can cause omission or commission."}}]}