{"type": "FeatureCollection", "columns": {"area_m2": "Float", "count": "Long<0, 4294967295>", "label": "Integer", "seed_distance_m": "Float", "system:index": "String"}, "features": [{"type": "Feature", "geometry": {"geodesic": false, "type": "MultiPolygon", "coordinates": [[[[86.93923932504003, 27.89362281970324], [86.93923942586693, 27.89344227106026], [86.93944263839369, 27.893442360478563], [86.93944253790814, 27.893622909121543], [86.93923932504003, 27.89362281970324]]], [[[86.93903601102163, 27.893803278613508], [86.93903590986234, 27.893983827247503], [86.93964555048787, 27.89398409552038], [86.93964565063204, 27.89380354688638], [86.93984886384152, 27.893803635711798], [86.9398487640297, 27.893984184354778], [86.94005197758052, 27.893984272874768], [86.94005177863063, 27.894345370133777], [86.93984856441506, 27.894345281604807], [86.93984866422687, 27.894164732979792], [86.93964545034368, 27.894164644154376], [86.93964535019948, 27.89434519277939], [86.9386292791216, 27.89434474414277], [86.93862938095462, 27.89416419552674], [86.93842616708041, 27.89416410489571], [86.93842606490603, 27.894344653520726], [86.93822285069943, 27.894344562593254], [86.93822264567693, 27.894705659825316], [86.9380194307966, 27.8947055686014], [86.93801932794848, 27.894886117199462], [86.93822254317017, 27.894886208432364], [86.93822244065443, 27.895066757030428], [86.93862887178054, 27.89506693858893], [86.93862897361356, 27.89488638998188], [86.93923861928761, 27.894886660069353], [86.93923872011452, 27.89470611146231], [86.93944193500383, 27.894706200889594], [86.93944183451828, 27.894886749496642], [86.93984826497963, 27.894886927461883], [86.93984816515884, 27.89506747606893], [86.94086424301001, 27.89506791573138], [86.94086414487805, 27.895248464329445], [86.94106736079145, 27.895248551367214], [86.94106726299187, 27.895429099974262], [86.94147369549239, 27.895429273142497], [86.94147350124967, 27.895790370329642], [86.94167671817816, 27.895790456469097], [86.94167662139367, 27.89597100505818], [86.94187983865454, 27.895971090901188], [86.9418796457593, 27.896332188061383], [86.9420828636939, 27.896332273607946], [86.94208257536164, 27.896873919321294], [86.94228579431135, 27.89687400456243], [86.94228550697622, 27.897415650239843], [86.94208228701142, 27.897415564998706], [86.94208219089168, 27.89759611354287], [86.94228541118886, 27.897596198792993], [86.94228502806637, 27.898318392942706], [86.94208180641274, 27.898318307692588], [86.94208161417328, 27.898679404736], [86.94187839185489, 27.898679319189437], [86.94187829539379, 27.898859867706655], [86.94167507273406, 27.89885978185466], [86.9416749759316, 27.899040330362894], [86.94147175293948, 27.899040244214458], [86.94147165580465, 27.89922079272269], [86.9408619858132, 27.899220532471773], [86.94086208396313, 27.89903998397252], [86.94025241499575, 27.899039721026654], [86.94025251415181, 27.898859172527406], [86.94045573680256, 27.89885926047247], [86.94045613208823, 27.898137066403606], [86.94025291078495, 27.89813697845854], [86.94025300994099, 27.89795642993234], [86.93944012609329, 27.897956075160685], [86.9394400255808, 27.898136623686884], [86.9392368042865, 27.898136534250614], [86.93923650176086, 27.89867817979328], [86.93943972407025, 27.898678269238534], [86.93943912100426, 27.899761560207082], [86.93964234533486, 27.89976164935589], [86.93964204480348, 27.90030329478178], [86.93984527014918, 27.900303383625157], [86.93984517031042, 27.90048393209746], [86.93964194462336, 27.900483843245095], [86.93964184444324, 27.90066439169943], [86.93984507047166, 27.900664480551793], [86.93984437154644, 27.901928319651283], [86.93943791478242, 27.901928141632144], [86.93943781425196, 27.90210869005953], [86.93923458553758, 27.902108600605295], [86.93923468640041, 27.901928052177908], [86.93821854450833, 27.901927600406168], [86.93821864706001, 27.90174705198777], [86.93801541901935, 27.90174696072792], [86.9380153161353, 27.901927509155303], [86.93740563101623, 27.90192723359709], [86.93740573491537, 27.901746685169705], [86.9367960508114, 27.901746406916544], [86.93679615571665, 27.901565858498145], [86.93598324494644, 27.9015654832988], [86.93598335120817, 27.901384934871416], [86.93557689650129, 27.901384745479604], [86.93557700343673, 27.90120419705222], [86.934967322396, 27.901203910714223], [86.93496743033757, 27.901023362277854], [86.93435775032093, 27.90102307324491], [86.93435785927758, 27.900842524817527], [86.93273204864272, 27.900841740875745], [86.93273227193694, 27.900480644003007], [86.93252904628581, 27.900480544667303], [86.93252927025378, 27.900119447785585], [86.93232604528536, 27.900119348144454], [86.93232615760174, 27.899938799699104], [86.9321229329657, 27.899938699761528], [86.93212304562341, 27.899758151307193], [86.93171659702509, 27.89975795054271], [86.93171671035654, 27.89957740207939], [86.9284651271574, 27.899575752781516], [86.92846500842707, 27.899756301226866], [86.92805855987365, 27.89975608966463], [86.92805844046958, 27.899936638101], [86.9278552158605, 27.89993653187522], [86.92785497637863, 27.900297628729987], [86.92765175109581, 27.90029752220776], [86.92765163100903, 27.900478070626164], [86.92622905167569, 27.90047731651743], [86.92622892923531, 27.90065786492685], [86.92439989570714, 27.900656873770682], [86.92439977022147, 27.900837422171115], [86.92216428121388, 27.900836177788854], [86.92216415202715, 27.90101672617132], [86.92074156582171, 27.901015915405846], [86.92074143427241, 27.901196463779332], [86.91952207269402, 27.901195757146564], [86.91952193911453, 27.901376305511064], [86.9189122573372, 27.90137594814328], [86.91891239192279, 27.90119539978776], [86.91870916500504, 27.90119528006928], [86.91870903007808, 27.9013758284248], [86.9178961210506, 27.90137534654153], [86.91789598477617, 27.90155589489705], [86.91748952960218, 27.901555652154297], [86.91748939264502, 27.90173620050083], [86.91687970887342, 27.90173583414091], [86.91687957091015, 27.901916382478465], [86.91647311438868, 27.901916136735334], [86.91647297575169, 27.902096685063903], [86.91606651856546, 27.902096438126016], [86.91606637924575, 27.902276986445603], [86.91464377678079, 27.902276112708225], [86.91464434349197, 27.90155391940293], [86.91444111592743, 27.901553793396243], [86.91444139994778, 27.901192696712155], [86.91423817305696, 27.901192570400042], [86.91423845775104, 27.90083147370697], [86.91403523153397, 27.90083134709841], [86.91403537421338, 27.900650798751876], [86.91301924483484, 27.900650161199554], [86.9130191004666, 27.900830709555073], [86.91322232667468, 27.900830837663815], [86.91322175054017, 27.901553031005044], [86.91301852297563, 27.901552902896302], [86.91301837860738, 27.90173345121589], [86.91281515071046, 27.901733322801718], [86.91281529542007, 27.90155277448213], [86.91261206786452, 27.901552645771517], [86.91261221291548, 27.901372097442948], [86.9124089856923, 27.901371968426908], [86.91240956722568, 27.900649775076694], [86.91200311549223, 27.90064951616426], [86.91200326154032, 27.900468967817726], [86.91220648707467, 27.900469097426654], [86.91220677849714, 27.900108000715615], [86.91180032879387, 27.900107741210295], [86.91180062156381, 27.89974664448129], [86.91200384574171, 27.899746774386664], [86.9120039917898, 27.899566226013178], [86.91241043947186, 27.899566484916626], [86.91241029410648, 27.89974703329011], [86.91261351828437, 27.899747162288186], [86.91261424344938, 27.89884442037584], [86.91302068844547, 27.898844677464695], [86.91302126584661, 27.898122483844986], [86.91322448700616, 27.89812261193576], [86.91322463101508, 27.89794206351736], [86.91403751427887, 27.89794257289806], [86.91403765694032, 27.89776202446169], [86.91444409791197, 27.89776227735541], [86.91444423989968, 27.897581728919043], [86.91485068019757, 27.89758198060902], [86.91485082150257, 27.89740143216367], [86.91525726113571, 27.897401682658884], [86.91525740176697, 27.89722113420455], [86.91586706020608, 27.897221507688112], [86.91586719983123, 27.897040959233777], [86.91688329556787, 27.897041575711626], [86.91688343350418, 27.89686102724831], [86.91769630877297, 27.896861515024526], [86.91769644535283, 27.896680966552225], [86.91830610080953, 27.896681329238035], [86.91830623637429, 27.896500780756753], [86.91972876345262, 27.89650161654031], [86.91972889665482, 27.896321068050042], [86.92033855012625, 27.89632142174372], [86.92033868232232, 27.89614087324447], [86.92074511729322, 27.896141107534078], [86.92074524881556, 27.89596055903483], [86.92135490027476, 27.895960908227945], [86.92135503078201, 27.89578035971073], [86.92196468124408, 27.895780706208903], [86.92196481073623, 27.895600157691685], [86.92257446020118, 27.895600501485927], [86.92257458867823, 27.895419952959728], [86.92318423713705, 27.89542029405004], [86.92318436460799, 27.895239745514857], [86.92359079624613, 27.895239971414203], [86.92359066944893, 27.895420519949386], [86.92379388560487, 27.895420632454393], [86.92379401206071, 27.89524008391921], [86.92460687536395, 27.895240530920894], [86.92460700046333, 27.89505998237673], [86.92541986242807, 27.89506042458141], [86.92541998618897, 27.894879876028263], [86.9256232013388, 27.894879985829338], [86.92562332475833, 27.894699437267207], [86.92582653957578, 27.89469954677184], [86.9258264164976, 27.89488009533397], [86.927452137804, 27.894880960564304], [86.92745201742076, 27.895061509126435], [86.92826487944839, 27.89506193455059], [86.92826499848414, 27.894881385988455], [86.92948428953581, 27.894882015141533], [86.92948440654138, 27.894701466561433], [86.93111012530554, 27.894702288645682], [86.93111023961616, 27.894521740065585], [86.93354881385025, 27.8945229372324], [86.93354892410946, 27.89434238862535], [86.93395535248672, 27.894342583964008], [86.93395524290123, 27.894523132562075], [86.93415845743122, 27.894523229777754], [86.93415856667535, 27.894342681179687], [86.93517463764543, 27.89434316276651], [86.93517474520971, 27.894162614159463], [86.93537795907494, 27.894162709578513], [86.93537806629786, 27.893982160962484], [86.93558127982173, 27.893982256076104], [86.9355811729312, 27.894162804692137], [86.93578438679643, 27.894162899509315], [86.93578449334561, 27.893982350893282], [86.93598770686948, 27.893982445414018], [86.93598749443588, 27.89434354264608], [86.93619070864247, 27.894343636861386], [86.93619081451791, 27.894163088254338], [86.93639402838315, 27.8941631821732], [86.93639371175395, 27.894704828003327], [86.9372065712663, 27.89470520069637], [86.93720646707071, 27.89488574930342], [86.93740968228342, 27.894885841722097], [86.93740957842918, 27.895066390320164], [86.93781600953731, 27.895066574277166], [86.9378161127268, 27.894886025679103], [86.9376128975051, 27.894885933853313], [86.93761300102696, 27.894705385246265], [86.93781621590729, 27.894705477072055], [86.93781662863825, 27.893983282598946], [86.93761341510539, 27.89398319078214], [86.93761351862724, 27.893802642148145], [86.93781673181874, 27.89380273397393], [86.93781683499923, 27.893622185339936], [86.93802004785836, 27.893622276860295], [86.93801973933196, 27.894163922753304], [86.93822295320618, 27.89416401397722], [86.93822305571294, 27.893983465352207], [86.9384262692458, 27.893983556270697], [86.93842637142018, 27.893803007645683], [86.93903601102163, 27.893803278613508]], [[86.93903246996159, 27.900122477964736], [86.93903257114782, 27.899941929492435], [86.93923579581978, 27.899942019234132], [86.93923569496593, 27.900122567706433], [86.93903246996159, 27.900122477964736]], [[86.94106589380665, 27.89795677990699], [86.94106618721439, 27.897415134283477], [86.94126940717919, 27.8974152210248], [86.94126950463742, 27.89723467247165], [86.94167594388429, 27.897234845055983], [86.9416758470908, 27.897415393609133], [86.94187906704663, 27.897415479452143], [86.94187877768131, 27.897957125084638], [86.9416755567104, 27.897957039232647], [86.94167545991692, 27.89813758776783], [86.94126901730138, 27.898137415174514], [86.94126911477757, 27.897956866648315], [86.94106589380665, 27.89795677990699]]], [[[86.93923932504003, 27.89362281970324], [86.9392392242221, 27.893803368337238], [86.93903601102163, 27.893803278613508], [86.9390361121809, 27.89362272997951], [86.93923932504003, 27.89362281970324]]], [[[86.93964535019948, 27.89434519277939], [86.93984856441506, 27.894345281604807], [86.93984846460324, 27.89452583022982], [86.93964525004631, 27.894525741404404], [86.93964535019948, 27.89434519277939]]]]}, "id": "+4703+730", "properties": {"area_m2": 1707199.4960996532, "count": 4258, "label": 1, "seed_distance_m": 0, "site_id": "imja-tsho", "recordId": "imja-tsho-lake", "kind": "lake", "status": "candidate", "observation_date": "2022-11-23", "scene_id": "COPERNICUS/S2_SR_HARMONIZED/20221123T045119_20221123T045117_T45RVL", "source": "Sentinel-2 spectral water baseline", "resolution_m": 20, "method": "NDWI > 0.05; MNDWI > 0.1; B8 < 2500; SCL rejects cloud, shadow, snow, invalid. Largest connected component >= 0.05 km2 within 1200 m of seed.", "limitations": "Candidate, not reviewed shoreline. Seasonal ice, terrain shadow and turbid water can cause omission or commission."}}]}