{"type": "FeatureCollection", "columns": {"area_m2": "Float", "count": "Long<0, 4294967295>", "label": "Integer", "seed_distance_m": "Float", "system:index": "String"}, "features": [{"type": "Feature", "geometry": {"geodesic": false, "type": "Polygon", "coordinates": [[[86.91383415046685, 27.898122994420444], [86.91383429346068, 27.89794244600204], [86.91403751427887, 27.89794257289806], [86.91403765694032, 27.89776202446169], [86.91464731839778, 27.897762403353113], [86.91464746004414, 27.897581854916744], [86.91505390034203, 27.897582106004847], [86.91505404131465, 27.897401557559498], [86.91566370076886, 27.89740193195036], [86.91566384072638, 27.897221383496024], [86.91607027969478, 27.897221631583758], [86.91607041897856, 27.897041083129423], [86.91688329556787, 27.897041575711626], [86.91688343350418, 27.89686102724831], [86.9178995275969, 27.89686163622522], [86.9178996638354, 27.89668108775292], [86.91911897476679, 27.89668180863297], [86.91911910898406, 27.896501260142703], [86.920135199771, 27.896501852635534], [86.92013533229945, 27.896321304145268], [86.92054176795305, 27.896321539036748], [86.92054189980777, 27.896140990537496], [86.92115155228207, 27.89614134063791], [86.92115168312169, 27.895960792129678], [86.92135490027476, 27.895960908227945], [86.92135503078201, 27.89578035971073], [86.92257433171514, 27.895781050003144], [86.92257446020118, 27.895600501485927], [86.92277767668949, 27.895600615482138], [86.92277780483417, 27.89542006695594], [86.92440353409066, 27.895420968154813], [86.9244036595314, 27.895240419619633], [86.92460687536395, 27.895240530920894], [86.92460700046333, 27.89505998237673], [86.92481021595451, 27.895060093372564], [86.92481009118751, 27.895240641925714], [86.92521652284361, 27.895240863028054], [86.92521664693689, 27.895060314474907], [86.92582629341942, 27.89506064388712], [86.9258264164976, 27.89488009533397], [86.927452137804, 27.894880960564304], [86.92745201742076, 27.895061509126435], [86.92826487944839, 27.89506193455059], [86.92826499848414, 27.894881385988455], [86.92968750471259, 27.894882118950846], [86.92968762138577, 27.89470157037075], [86.93009405107456, 27.89470177709106], [86.93009393507512, 27.89488232567116], [86.93050036543765, 27.894882531196714], [86.93050048076336, 27.894701982616617], [86.93192298471907, 27.894702692501284], [86.93192309768222, 27.894522143912205], [86.93293917027825, 27.894522641983112], [86.93293894772064, 27.894883739161276], [86.93314216291537, 27.894883837877142], [86.93314171914763, 27.895606032188553], [86.93293850259643, 27.895605933463703], [86.93293839131313, 27.89578648203482], [86.93273517442957, 27.895786383013526], [86.93273528605422, 27.89560583445139], [86.932532069512, 27.895605735133653], [86.93253184559794, 27.895966832248934], [86.93273506281389, 27.895966931566672], [86.93273461631526, 27.896689125761302], [86.93253139775183, 27.896689026434583], [86.93253106185378, 27.897230672022165], [86.9327342814323, 27.897230771348884], [86.93273416979866, 27.897411319875083], [86.93314060963841, 27.89741151763021], [86.93314072058934, 27.89723096910401], [86.93334394017684, 27.897231067532417], [86.93334416140495, 27.896869970471034], [86.93354738031871, 27.896870068594012], [86.9335474905959, 27.896689520058832], [86.93375070916831, 27.896689617885364], [86.93375037934287, 27.89723126348193], [86.93354715975536, 27.897231165655395], [86.93354638777016, 27.898495005230995], [86.93374960972022, 27.898495103057527], [86.93374905995128, 27.89939784547293], [86.93354583632136, 27.899397747637412], [86.93354517455045, 27.9004810383724], [86.93374840020158, 27.90048113620792], [86.93374829023881, 27.90066168465327], [86.9339515162313, 27.900661782192344], [86.93395129697949, 27.901022879056097], [86.93374807031326, 27.90102278151702], [86.93374818027604, 27.900842233080656], [86.93212236966811, 27.90084144195235], [86.93212248233482, 27.900660893524964], [86.93090312644276, 27.90066028759334], [86.93090324113066, 27.900479739165956], [86.92907421040523, 27.90047881004744], [86.92907432812048, 27.900298261620055], [86.92887110282867, 27.900298156894458], [86.92887098477208, 27.900478705321845], [86.92744840538484, 27.900477963789527], [86.92744828497466, 27.90065851220793], [86.9248063475933, 27.900657096130665], [86.92480622279037, 27.900837644531098], [86.92338363883968, 27.900836861038474], [86.92338351167417, 27.901017409429926], [86.92155447221712, 27.9010163804996], [86.9215543420153, 27.90119692888207], [86.92013175348322, 27.901196111810417], [86.92013162090986, 27.901376660183907], [86.91809934830971, 27.901375467463755], [86.91809921236766, 27.901556015819274], [86.91769275718468, 27.90155577367839], [86.91769262056889, 27.901736322015942], [86.91728616472116, 27.901736078680297], [86.91728602742265, 27.90191662701785], [86.91667634264493, 27.901916259750628], [86.9166762043403, 27.90209680808818], [86.91626974715408, 27.902096561743182], [86.91626960817572, 27.90227711007175], [86.91505023462278, 27.902276363841246], [86.91505009361424, 27.902456912160833], [86.91484686436085, 27.902456786738053], [86.91484700570179, 27.902276238427447], [86.91464377678079, 27.902276112708225], [86.91464406013638, 27.90191501606905], [86.91484728838364, 27.90191514177929], [86.91484742972456, 27.901734593459704], [86.91464420181866, 27.901734467740482], [86.91464434349197, 27.90155391940293], [86.91444111592743, 27.901553793396243], [86.91444125794209, 27.90137324505869], [86.91423803070992, 27.901373118746577], [86.91423845775104, 27.90083147370697], [86.91362877909984, 27.900831092982983], [86.91362892246197, 27.900650544627464], [86.91301924483484, 27.900650161199554], [86.9130191004666, 27.900830709555073], [86.91322232667468, 27.900830837663815], [86.9132216065043, 27.901733579333616], [86.91261192281354, 27.901733194091104], [86.91261235795747, 27.901191549114376], [86.91240913107565, 27.901191420098336], [86.91240927645899, 27.901010871769767], [86.91261250300843, 27.901011000776823], [86.91261264805043, 27.900830452430288], [86.91240942184234, 27.90083032342323], [86.91240956722568, 27.900649775076694], [86.91200311549223, 27.90064951616426], [86.91200326154032, 27.900468967817726], [86.91220648707467, 27.900469097426654], [86.91220677849714, 27.900108000715615], [86.9120035536455, 27.90010787111567], [86.91200384574171, 27.899746774386664], [86.91261351828437, 27.899747162288186], [86.91261424344938, 27.89884442037584], [86.91322391094351, 27.898844805564455], [86.91322419897932, 27.89848370876358], [86.91302097714603, 27.89848358066382], [86.91302112150531, 27.898303032254404], [86.91322434298826, 27.898303160354164], [86.91322448700616, 27.89812261193576], [86.91383415046685, 27.898122994420444]], [[86.91383415046685, 27.898122994420444], [86.91424059277698, 27.898123247916033], [86.9142404504479, 27.898303796334435], [86.91383400746405, 27.898303542838846], [86.91383415046685, 27.898122994420444]], [[86.93212541115706, 27.895966632706163], [86.93212552379681, 27.895786084153013], [86.9323287406714, 27.895786184072623], [86.932328628373, 27.895966732634754], [86.93212541115706, 27.895966632706163]], [[86.93293683323917, 27.898314161437543], [86.93293694454043, 27.898133612938295], [86.93314016580779, 27.898133711672127], [86.93314005484788, 27.898314260171375], [86.93293683323917, 27.898314161437543]], [[86.93334272331896, 27.899217101024167], [86.93334294457401, 27.898856004070584], [86.93354616719782, 27.898856102202544], [86.9335459466165, 27.89921719916511], [86.93334272331896, 27.899217101024167]]]}, "id": "+4671+724", "properties": {"area_m2": 1169940.6030234008, "count": 2918, "label": 1, "seed_distance_m": 0, "site_id": "imja-tsho", "recordId": "imja-tsho-lake", "kind": "lake", "status": "candidate", "observation_date": "2018-11-09", "scene_id": "COPERNICUS/S2_SR_HARMONIZED/20181109T045011_20181109T045010_T45RVL", "source": "Sentinel-2 spectral water baseline", "resolution_m": 20, "method": "NDWI > 0.05; MNDWI > 0.1; B8 < 2500; SCL rejects cloud, shadow, snow, invalid. Largest connected component >= 0.05 km2 within 1200 m of seed.", "limitations": "Candidate, not reviewed shoreline. Seasonal ice, terrain shadow and turbid water can cause omission or commission."}}]}