{"type": "FeatureCollection", "columns": {"area_m2": "Float", "count": "Long<0, 4294967295>", "label": "Integer", "seed_distance_m": "Float", "system:index": "String"}, "features": [{"type": "Feature", "geometry": {"geodesic": false, "type": "MultiPolygon", "coordinates": [[[[86.91362920916828, 27.900289447916425], [86.9134259839663, 27.900289320409556], [86.91342612765183, 27.90010877204505], [86.91362935252143, 27.900108899551924], [86.91362920916828, 27.900289447916425]]], [[[86.91363035594858, 27.898845060865657], [86.91363078597212, 27.898303415646385], [86.91383400746405, 27.898303542838846], [86.91383415046685, 27.898122994420444], [86.91403737161743, 27.898123121316463], [86.91403751427887, 27.89794257289806], [86.91444395592424, 27.897942825782795], [86.91444409791197, 27.89776227735541], [86.9148505388836, 27.897762529045387], [86.91485068019757, 27.89758198060902], [86.91525712049547, 27.897582231104234], [86.91525726113571, 27.897401682658884], [86.916070140411, 27.897402180038092], [86.91607027969478, 27.897221631583758], [86.91688315764054, 27.89722212416596], [86.91688329556787, 27.897041575711626], [86.91769617219312, 27.897042063496826], [86.91769630877297, 27.896861515024526], [86.91830596523579, 27.89686187771932], [86.91830610080953, 27.896681329238035], [86.91972863024145, 27.896682165030576], [86.91972876345262, 27.89650161654031], [86.92033841793017, 27.896501970233988], [86.92033855012625, 27.89632142174372], [86.92054176795305, 27.896321539036748], [86.92054189980777, 27.896140990537496], [86.92033868232232, 27.89614087324447], [86.9203388145184, 27.895960324736237], [86.92054203166249, 27.895960442038245], [86.92054216351721, 27.89577989352103], [86.9207453803379, 27.895780010517612], [86.92074511729322, 27.896141107534078], [86.92115155228207, 27.89614134063791], [86.92115168312169, 27.895960792129678], [86.92094846596862, 27.895960675725984], [86.9209485971496, 27.89578012721775], [86.9211518139703, 27.895780243612464], [86.92115194480992, 27.895599695095246], [86.92196481073623, 27.895600157691685], [86.92196494022838, 27.895419609165486], [86.92216815637534, 27.89541972406001], [86.92216828553511, 27.89523917552483], [86.9223715013407, 27.89523929012291], [86.9223716301591, 27.895058741587725], [86.92379413851656, 27.895059535375044], [86.9237942649724, 27.89487898683088], [86.92399748012222, 27.894879099021473], [86.92399722788427, 27.895240196118788], [86.92379401206071, 27.89524008391921], [86.92379375914904, 27.895601180989576], [86.92399697564633, 27.895601293189152], [86.9239971017698, 27.895420744653972], [86.92440353409066, 27.895420968154813], [86.92440378498112, 27.895059871075464], [86.92420056948994, 27.895059759468776], [86.92420082104518, 27.89469866237146], [86.92481046548853, 27.894698996266268], [86.92481059025555, 27.894518447704137], [86.9252170192167, 27.894518668806477], [86.925217143301, 27.89433812023536], [86.92643642818123, 27.894338776337896], [86.92643630611815, 27.894519324909012], [86.92623309163308, 27.894519216302694], [86.92623284681521, 27.89488031343594], [86.9260296316564, 27.894880204533177], [86.9260295089106, 27.895060753086327], [86.92745201742076, 27.895061509126435], [86.92745189703753, 27.895242057679585], [86.92826476041263, 27.89524248311272], [86.92826487944839, 27.89506193455059], [86.92867131046668, 27.895062145475016], [86.92867142882871, 27.894881596903904], [86.92928107435904, 27.89488191102679], [86.92928095700313, 27.895062459597906], [86.9296873880394, 27.895062667521962], [86.92968750471259, 27.894882118950846], [86.93090679580916, 27.894882735518525], [86.93090691046115, 27.894702186938428], [86.93111012530554, 27.894702288645682], [86.93111023961616, 27.894521740065585], [86.93151666864918, 27.894521942581783], [86.93151644137542, 27.894883039759947], [86.93232930213641, 27.894883441217047], [86.93232941442582, 27.894702892627965], [86.93212619957245, 27.89470279271734], [86.932126424825, 27.89434169553019], [86.93232963900465, 27.89434179544082], [86.93232952671524, 27.894522344038883], [86.93293917027825, 27.894522641983112], [86.93293905899495, 27.894703190572194], [86.93415834816913, 27.894703778375817], [86.93415845743122, 27.894523229777754], [86.93476810101221, 27.894523519637147], [86.93476820925919, 27.8943429710301], [86.93517463764543, 27.89434316276651], [86.93517474520971, 27.894162614159463], [86.93578438679643, 27.894162899509315], [86.93578428023827, 27.894343448125344], [86.93639392284008, 27.89434373078923], [86.93639381729702, 27.89452427939628], [86.93659703183599, 27.8945243730187], [86.9365969266253, 27.894704921625745], [86.93680014150563, 27.89470501495172], [86.93680003663631, 27.894885563549785], [86.9376128975051, 27.894885933853313], [86.93761269046139, 27.895247031049443], [86.93781590635682, 27.89524712287523], [86.93781580316735, 27.89542767146431], [86.93801901939516, 27.895427762993656], [86.93801891654704, 27.895608311582738], [86.9382221331162, 27.895608402806655], [86.93822182556897, 27.89615004854695], [86.93801860798472, 27.89614995731405], [86.93801829941341, 27.896691603000445], [86.93822151801277, 27.896691694242328], [86.93822110792286, 27.897413888427977], [86.93801788797603, 27.897413797195075], [86.93801778510995, 27.89759434573026], [86.93781456483075, 27.89759425419193], [86.93781435843383, 27.89795535124433], [86.93761113748089, 27.897955259409557], [86.9376112410207, 27.897774710883358], [86.93740802040014, 27.89777461874316], [86.93740781264677, 27.898135715786577], [86.93700137007612, 27.898135530616845], [86.9370012655212, 27.89831607912508], [86.93679804390351, 27.898315986086565], [86.93679772922367, 27.898857631593298], [86.93659450659088, 27.89885753825834], [86.93659440136223, 27.899038086748607], [86.93639117838808, 27.899037993108223], [86.93639128395809, 27.898857444617956], [86.9355783934359, 27.898857067065023], [86.93557828651842, 27.89903761555529], [86.93537506355325, 27.89903752041472], [86.93537484903557, 27.899398617377287], [86.93517162539666, 27.89939852194027], [86.93517151780543, 27.89957907041257], [86.9353747417857, 27.899579165849588], [86.93537463452685, 27.89975971432189], [86.9355778588395, 27.89975980946246], [86.93557775191303, 27.89994035792578], [86.93598420122103, 27.899940547308606], [86.93598430747376, 27.899759998845287], [86.9361875317864, 27.899760093087544], [86.93618763769777, 27.899579544615243], [86.9365940856583, 27.899579732201442], [86.9365942961246, 27.899218635238874], [86.93700074274663, 27.89921882162133], [86.93700063819172, 27.899399370102614], [86.9374070854875, 27.89939955529031], [86.93740698159732, 27.899580103771594], [86.93761020558658, 27.899580195911792], [86.93761010203777, 27.899760744393074], [86.93740687771614, 27.899760652243895], [86.9374066699448, 27.900121749188493], [86.93720344494047, 27.90012165674287], [86.93720334071791, 27.900302205197203], [86.9370001153812, 27.900302112455133], [86.9370000108173, 27.900482660909468], [86.93639033381001, 27.90048238086866], [86.93639022823102, 27.900662929322994], [86.93618700222954, 27.900662835377183], [86.93618689630918, 27.900843383822533], [86.93598366996635, 27.900843289571295], [86.93598356371362, 27.90102383800766], [86.9355771103632, 27.90102364861585], [86.93557700343673, 27.90120419705222], [86.93476409538842, 27.901203814666353], [86.93476420366235, 27.901023266238965], [86.9341545236547, 27.901022976298727], [86.93415474223278, 27.900661879434974], [86.9339515162313, 27.900661782192344], [86.9339516258617, 27.90048123374699], [86.93273227193694, 27.900480644003007], [86.93273216029432, 27.900661192439376], [86.93252893430183, 27.900661093103672], [86.93252882231785, 27.900841641531056], [86.93232559599298, 27.900841541889925], [86.93232570831833, 27.90066099346254], [86.9315128043843, 27.900660591906625], [86.93151291805711, 27.90048004347924], [86.9302935642132, 27.900479432157724], [86.93029367990724, 27.90029888373034], [86.92826142695326, 27.90029784089409], [86.92826130789055, 27.900478389321478], [86.92724517976964, 27.90047785666543], [86.92724530052118, 27.900297308247026], [86.92704207523836, 27.9002972008175], [86.92704195414547, 27.900477749235904], [86.92643227729089, 27.900477425141716], [86.92643215518288, 27.900657973551134], [86.92460312164573, 27.900656985098895], [86.92460299650143, 27.90083753349933], [86.92277396002679, 27.900836520765626], [86.92277383184617, 27.901017069148097], [86.92216415202715, 27.90101672617132], [86.92216428121388, 27.900836177788854], [86.92114814989498, 27.900835600172126], [86.92114801901941, 27.901016148554593], [86.92094479242505, 27.901016032132933], [86.92094466120814, 27.90119658050642], [86.91972529962077, 27.90119587567028], [86.91972516638263, 27.901376424034783], [86.9178961210506, 27.90137534654153], [86.91789598477617, 27.90155589489705], [86.91748952960218, 27.901555652154297], [86.91748939264502, 27.90173620050083], [86.91708293679729, 27.901735956554333], [86.91708279916641, 27.901916504891886], [86.91667634264493, 27.901916259750628], [86.9166762043403, 27.90209680808818], [86.91606651856546, 27.902096438126016], [86.91606637924575, 27.902276986445603], [86.91525346354378, 27.90227648896758], [86.91525360421097, 27.902095940647996], [86.91505037563134, 27.90209581552166], [86.91505023462278, 27.902276363841246], [86.91464377678079, 27.902276112708225], [86.91464406013638, 27.90191501606905], [86.91484728838364, 27.90191514177929], [86.9148475710655, 27.90155404512215], [86.91464434349197, 27.90155391940293], [86.91464462684756, 27.901192822727822], [86.91444139994778, 27.901192696712155], [86.91444154196243, 27.9010121483746], [86.914238315404, 27.90101202206249], [86.91423860009809, 27.90065092536043], [86.91362892246197, 27.900650544627464], [86.91362920916828, 27.900289447916425], [86.91383243437025, 27.90028957511787], [86.91383257738204, 27.900109026753366], [86.91403580225165, 27.900109153658367], [86.91403608760149, 27.899748056911395], [86.91383286341461, 27.899747930006395], [86.9138330064264, 27.89956738163291], [86.91281688717187, 27.899566742616333], [86.91281703186351, 27.899386194233863], [86.91302025537665, 27.89938632263905], [86.91302039973593, 27.899205774256583], [86.91322362290771, 27.89920590235634], [86.91322376692561, 27.899025353964888], [86.91342698976501, 27.89902548175922], [86.91342713345054, 27.89884493336777], [86.91363035594858, 27.898845060865657]], [[86.91363035594858, 27.898845060865657], [86.91403680096263, 27.89884531496312], [86.91403651562177, 27.899206411755006], [86.91363006926025, 27.899206157657545], [86.91363035594858, 27.898845060865657]], [[86.92196481073623, 27.895600157691685], [86.92216802722454, 27.89560027258621], [86.92216789806477, 27.895780821103425], [86.92196468124408, 27.895780706208903], [86.92196481073623, 27.895600157691685]], [[86.92338732616342, 27.89560095568312], [86.92338745329299, 27.89542040715692], [86.92359066944893, 27.895420519949386], [86.92359054266072, 27.89560106848457], [86.92338732616342, 27.89560095568312]], [[86.92501330701107, 27.895240752625106], [86.9250134314457, 27.89506020408094], [86.92521664693689, 27.895060314474907], [86.92521677103015, 27.894879765921758], [86.9256232013388, 27.894879985829338], [86.92562295449972, 27.895241082935637], [86.92501330701107, 27.895240752625106]], [[86.92663574643936, 27.900116436632754], [86.92663598996364, 27.899755339777982], [86.92683921424036, 27.899755447800395], [86.92683933566563, 27.899574899364026], [86.927042559592, 27.899575007089997], [86.92704219633126, 27.900116652390118], [86.92663574643936, 27.900116436632754]], [[86.9278560540156, 27.898672692721828], [86.92785617374307, 27.898492144258512], [86.92846583949448, 27.898492462019576], [86.92846572077312, 27.898673010491876], [86.9278560540156, 27.898672692721828]], [[86.92785725128124, 27.89686720781916], [86.9278574907182, 27.896506110775743], [86.92806070892229, 27.89650621699254], [86.92806082829941, 27.896325668466343], [86.92907691765801, 27.896326195040796], [86.92907679996074, 27.896506743566995], [86.92928001817383, 27.896506847987165], [86.92927966609712, 27.897048493547796], [86.92907644687791, 27.89704838913661], [86.92907632917166, 27.897228937644844], [86.92826345093845, 27.89722851697278], [86.92826356999217, 27.89704796846455], [86.92806035077297, 27.89704786254419], [86.92806047015907, 27.89686731403596], [86.92785725128124, 27.89686720781916]], [[86.92887240137036, 27.898312123896783], [86.92887251941798, 27.898131575406516], [86.92907574065838, 27.89813168013211], [86.92907562296111, 27.898312228613396], [86.92887240137036, 27.898312123896783]], [[86.93395305088617, 27.898134103598103], [86.93395316049862, 27.89795355508987], [86.93435960236856, 27.897953749251734], [86.93435949342987, 27.898134297759967], [86.93395305088617, 27.898134103598103]], [[86.93436123628729, 27.895245521062296], [86.93436156304048, 27.894703875295054], [86.93456477790285, 27.894703971917846], [86.93456466932348, 27.894884520506928], [86.9347678845272, 27.894884616824292], [86.93476777628919, 27.895065165422356], [86.9345645607441, 27.89506506909601], [86.93456445216475, 27.89524561768509], [86.93436123628729, 27.895245521062296]], [[86.93618943800246, 27.896510219867483], [86.93618975567368, 27.895968574181087], [86.93639297291658, 27.89596866810893], [86.93639307846863, 27.895788119537816], [86.93700272916426, 27.89578839951574], [86.93700262462731, 27.89596894809584], [86.93720584187022, 27.895969040819946], [86.93720573766565, 27.896149589391058], [86.93740895524093, 27.89614968181872], [86.93740874750551, 27.896510778951967], [86.9372055292565, 27.896510686515324], [86.93720542505193, 27.896691235077455], [86.93639255069942, 27.89669086234848], [86.93639265625147, 27.89651031379533], [86.93618943800246, 27.896510219867483]], [[86.93659387519202, 27.89994082913706], [86.93659398042965, 27.899760280673743], [86.93679720475127, 27.899760374017685], [86.93679709984602, 27.899940922481], [86.93659387519202, 27.89994082913706]]]]}, "id": "+4685+726", "properties": {"area_m2": 1373216.9845302566, "count": 3425, "label": 1, "seed_distance_m": 0, "site_id": "imja-tsho", "recordId": "imja-tsho-lake", "kind": "lake", "status": "candidate", "observation_date": "2025-11-22", "scene_id": "COPERNICUS/S2_SR_HARMONIZED/20251122T045131_20251122T045408_T45RVL", "source": "Sentinel-2 spectral water baseline", "resolution_m": 20, "method": "NDWI > 0.05; MNDWI > 0.1; B8 < 2500; SCL rejects cloud, shadow, snow, invalid. Largest connected component >= 0.05 km2 within 1200 m of seed.", "limitations": "Candidate, not reviewed shoreline. Seasonal ice, terrain shadow and turbid water can cause omission or commission."}}]}