{"type": "FeatureCollection", "columns": {"area_m2": "Float", "count": "Long<0, 4294967295>", "label": "Integer", "seed_distance_m": "Float", "system:index": "String"}, "features": [{"type": "Feature", "geometry": {"geodesic": false, "type": "MultiPolygon", "coordinates": [[[[86.91810301823308, 27.896500660166907], [86.91769658193269, 27.89650041807094], [86.91769671851254, 27.896319869589657], [86.91810315413022, 27.89632011167664], [86.91810301823308, 27.896500660166907]]], [[[86.9282654746092, 27.894159191677048], [86.92826559363598, 27.893978643087966], [86.9288752340998, 27.893978958998503], [86.92887511608814, 27.894159507596566], [86.9282654746092, 27.894159191677048]]], [[[86.91383415046685, 27.898122994420444], [86.91383429346068, 27.89794244600204], [86.91403751427887, 27.89794257289806], [86.91403765694032, 27.89776202446169], [86.91464731839778, 27.897762403353113], [86.91464746004414, 27.897581854916744], [86.91505390034203, 27.897582106004847], [86.91505404131465, 27.897401557559498], [86.91525726113571, 27.897401682658884], [86.91525740176697, 27.89722113420455], [86.91607027969478, 27.897221631583758], [86.91607041897856, 27.897041083129423], [86.91708651472418, 27.89704169810708], [86.91708665231913, 27.896861149643765], [86.9178995275969, 27.89686163622522], [86.9178996638354, 27.89668108775292], [86.91810288232696, 27.896681208648193], [86.91810301823308, 27.896500660166907], [86.91830623637429, 27.896500780756753], [86.91830610080953, 27.896681329238035], [86.91850931929211, 27.89668144954042], [86.9185094545245, 27.896500901059134], [86.91871267267469, 27.896501021056093], [86.91871253778366, 27.896681569537375], [86.91891575627523, 27.896681689228902], [86.91891589083387, 27.89650114074762], [86.920135199771, 27.896501852635534], [86.92013533229945, 27.896321304145268], [86.92033855012625, 27.89632142174372], [86.92033868232232, 27.89614087324447], [86.92054189980777, 27.896140990537496], [86.92054203166249, 27.895960442038245], [86.92074524881556, 27.89596055903483], [86.9207453803379, 27.895780010517612], [86.9209485971496, 27.89578012721775], [86.92094846596862, 27.895960675725984], [86.92115168312169, 27.895960792129678], [86.9211518139703, 27.895780243612464], [86.92135503078201, 27.89578035971073], [86.92135516128926, 27.895599811193513], [86.92176159425689, 27.895600042491733], [86.92176146442338, 27.89578059100895], [86.92196468124408, 27.895780706208903], [86.92196481073623, 27.895600157691685], [86.92237124371286, 27.89560038718429], [86.92237137253127, 27.895419838658093], [86.92298102098111, 27.8954201806557], [86.92298114879341, 27.89523963212052], [86.92359079624613, 27.895239971414203], [86.92359092303435, 27.895059422879022], [86.92420056948994, 27.895059759468776], [86.92420069527205, 27.894879210924607], [86.92481034072152, 27.894879544819418], [86.92481046548853, 27.894698996266268], [86.92501368030598, 27.89469910696566], [86.92501355587135, 27.89487965552779], [86.92521677103015, 27.894879765921758], [86.92521689512343, 27.894699217368608], [86.92562332475833, 27.894699437267207], [86.92562344817786, 27.894518888705075], [86.92623309163308, 27.894519216302694], [86.92623321403752, 27.894338667731578], [86.92663964233392, 27.894338884638785], [86.92663976406463, 27.894158336058688], [86.9282654746092, 27.894159191677048], [86.92826535558244, 27.894339740266126], [86.92806214142075, 27.894339634354758], [86.92806202205263, 27.894520182934855], [86.92785880755856, 27.894520076736022], [86.92785868784907, 27.894700625307138], [86.9272490433608, 27.894700304887056], [86.9272491640764, 27.894519756315944], [86.92643630611815, 27.894519324909012], [86.92643618404608, 27.894699873480125], [86.92623296922864, 27.89469976487381], [86.92623284681521, 27.89488031343594], [86.92663927714182, 27.894880530343148], [86.92663915541111, 27.895061078905282], [86.92826487944839, 27.89506193455059], [86.92826499848414, 27.894881385988455], [86.92846821365194, 27.8948814915944], [86.92846833235532, 27.894700943023285], [86.92928119170595, 27.894701362455674], [86.92928107435904, 27.89488191102679], [86.92968750471259, 27.894882118950846], [86.92968762138577, 27.89470157037075], [86.92989083623017, 27.894701673883617], [86.929890952562, 27.89452112530352], [86.9307038106011, 27.89452153633666], [86.93070392558546, 27.89434098774758], [86.93090713975612, 27.894341089760264], [86.93090702510413, 27.894521638349346], [86.93111023961616, 27.894521740065585], [86.93111012530554, 27.894702288645682], [86.93171976986568, 27.89470259198879], [86.93171988316121, 27.894522043399707], [86.93192309768222, 27.894522143912205], [86.93192321064535, 27.89434159531414], [86.932126424825, 27.89434169553019], [86.93212631219423, 27.894522244128257], [86.93476810101221, 27.894523519637147], [86.9347683174972, 27.89416242242305], [86.9343618897847, 27.894162229482895], [86.93436178087296, 27.894342778089943], [86.93415856667535, 27.894342681179687], [86.93415867592846, 27.89416213257264], [86.93395546208119, 27.89416203535696], [86.93395557166666, 27.89398148674093], [86.93354914463688, 27.893981291411254], [86.93354936515532, 27.893620194179192], [86.93476864221122, 27.893620776565974], [86.93476853397323, 27.89380132519099], [86.93517496033824, 27.89380151691842], [86.93517485277398, 27.893982065543433], [86.93537806629786, 27.893982160962484], [86.93537795907494, 27.894162709578513], [86.93619081451791, 27.894163088254338], [86.93619092040234, 27.893982539629324], [86.93639413392621, 27.893982633548188], [86.93639402838315, 27.8941631821732], [86.93659724224838, 27.89416327579562], [86.93659745266076, 27.89380217854559], [86.93680066585226, 27.893802271871568], [86.93680045611362, 27.89416336911261], [86.93700366997885, 27.89416346213316], [86.93700325184902, 27.894885656579316], [86.93680003663631, 27.894885563549785], [86.93679993176698, 27.895066112147852], [86.93659671621292, 27.895066018821876], [86.93659640058085, 27.895607664580137], [86.93679961714103, 27.895607757915094], [86.93679972201934, 27.895427209326016], [86.93700293824715, 27.895427302355547], [86.9370028337102, 27.895607850935644], [86.93720605027038, 27.89560794366873], [86.93720594607478, 27.89578849224883], [86.93761237987788, 27.895788676807705], [86.93761196576351, 27.89651087108318], [86.93822162052851, 27.896511145680197], [86.93822151801277, 27.896691694242328], [86.93842473660314, 27.896691785169804], [86.93842463441977, 27.896872333731935], [86.93761175869285, 27.89687196818948], [86.93761165516202, 27.89705251674263], [86.93740843589791, 27.89705242460243], [86.93740812428132, 27.89759407021696], [86.93720490400212, 27.897593977780318], [86.93720479978856, 27.897774526306517], [86.9367983585654, 27.897774340534916], [86.93679856833998, 27.897413243482518], [86.93659534840214, 27.89741315014756], [86.9365954536218, 27.897232601612377], [86.93578257523586, 27.897232225281154], [86.93578246866872, 27.897412773816338], [86.93557924873986, 27.897412678981194], [86.93557903491387, 27.897773776033592], [86.93537581431127, 27.897773680902002], [86.93537549256168, 27.898315326435686], [86.93557871417937, 27.898315421567276], [86.93557850035339, 27.898676518574756], [86.93578172264482, 27.8986766134099], [86.93578150948359, 27.899037710390434], [86.93557828651842, 27.89903761555529], [86.93557817960094, 27.899218164036576], [86.93496850969034, 27.899217877725526], [86.93496840175776, 27.899398426197827], [86.93476517812783, 27.89939833015894], [86.9347650698539, 27.899578878631242], [86.93415539794005, 27.89957858871795], [86.93415528865101, 27.899759137181267], [86.93395206434735, 27.899759039938637], [86.93395184510453, 27.90012013685629], [86.93374862012713, 27.900120039317216], [86.93374851016435, 27.90030058776257], [86.93232593296003, 27.900299896589804], [86.93232582064367, 27.900480445026172], [86.93212259499253, 27.900480345088596], [86.93212248233482, 27.900660893524964], [86.93130957840079, 27.90066049077429], [86.93130969241496, 27.900479942337924], [86.92988711293789, 27.900479225985382], [86.92988722930566, 27.900298677558], [86.92968400400487, 27.90029857402716], [86.92968388730473, 27.900479122454545], [86.9292774360384, 27.900478914485575], [86.92927755341228, 27.90029836605819], [86.92887110282867, 27.900298156894458], [86.92887098477208, 27.900478705321845], [86.92704195414547, 27.900477749235904], [86.92704183305256, 27.90065829764532], [86.92460312164573, 27.900656985098895], [86.92460299650143, 27.90083753349933], [86.92318041256871, 27.90083674791363], [86.92318028506185, 27.90101729630508], [86.92135124562276, 27.90101626467981], [86.92135111507959, 27.901196813053296], [86.92013175348322, 27.901196111810417], [86.92013162090986, 27.901376660183907], [86.91809934830971, 27.901375467463755], [86.91809921236766, 27.901556015819274], [86.91748952960218, 27.901555652154297], [86.91748939264502, 27.90173620050083], [86.91708293679729, 27.901735956554333], [86.91708279916641, 27.901916504891886], [86.91667634264493, 27.901916259750628], [86.9166762043403, 27.90209680808818], [86.91606651856546, 27.902096438126016], [86.91606637924575, 27.902276986445603], [86.91464377678079, 27.902276112708225], [86.91464406013638, 27.90191501606905], [86.91484728838364, 27.90191514177929], [86.91484742972456, 27.901734593459704], [86.91464420181866, 27.901734467740482], [86.91464448517425, 27.901373371074357], [86.91423803070992, 27.901373118746577], [86.91423845775104, 27.90083147370697], [86.91362877909984, 27.900831092982983], [86.91362892246197, 27.900650544627464], [86.91301924483484, 27.900650161199554], [86.9130191004666, 27.900830709555073], [86.91322232667468, 27.900830837663815], [86.9132216065043, 27.901733579333616], [86.91281515071046, 27.901733322801718], [86.91281529542007, 27.90155277448213], [86.91261206786452, 27.901552645771517], [86.91261264805043, 27.900830452430288], [86.91240942184234, 27.90083032342323], [86.91240956722568, 27.900649775076694], [86.91200311549223, 27.90064951616426], [86.91200326154032, 27.900468967817726], [86.91220648707467, 27.900469097426654], [86.91220677849714, 27.900108000715615], [86.9120035536455, 27.90010787111567], [86.9120039917898, 27.899566226013178], [86.91241043947186, 27.899566484916626], [86.91241029410648, 27.89974703329011], [86.91261351828437, 27.899747162288186], [86.91261424344938, 27.89884442037584], [86.91322391094351, 27.898844805564455], [86.91322419897932, 27.89848370876358], [86.91302097714603, 27.89848358066382], [86.91302126584661, 27.898122483844986], [86.91383415046685, 27.898122994420444]], [[86.91383415046685, 27.898122994420444], [86.91424059277698, 27.898123247916033], [86.9142404504479, 27.898303796334435], [86.91383400746405, 27.898303542838846], [86.91383415046685, 27.898122994420444]], [[86.9239971017698, 27.895420744653972], [86.92399722788427, 27.895240196118788], [86.92420044370783, 27.895240308021922], [86.92420031792572, 27.895420856557106], [86.9239971017698, 27.895420744653972]], [[86.93029715025189, 27.894882428582157], [86.93029726591897, 27.89470188000206], [86.93070369560776, 27.894702084925743], [86.9307035806234, 27.89488263350584], [86.93029715025189, 27.894882428582157]], [[86.93171659702509, 27.89975795054271], [86.93171682368799, 27.89939685362506], [86.93192004730894, 27.89939695415552], [86.93191982132873, 27.899758051073174], [86.93171659702509, 27.89975795054271]], [[86.93436047381523, 27.896509361015188], [86.93436090951612, 27.895787166784626], [86.93456412640867, 27.89578726340742], [86.93456423499703, 27.895606714836305], [86.93537710121977, 27.895607098327098], [86.93537699397889, 27.8957876469072], [86.93558021087145, 27.895787742029803], [86.93558010397193, 27.89596829060092], [86.93578332120585, 27.89596838542708], [86.93578300151341, 27.89651003110449], [86.9355797832644, 27.89650993627833], [86.93557967636488, 27.89669048483148], [86.93456358346691, 27.89669000619113], [86.93456369205526, 27.896509457637983], [86.93436047381523, 27.896509361015188]], [[86.93619028511377, 27.895065831271612], [86.93619039099819, 27.89488528268253], [86.9363936062109, 27.894885376601394], [86.93639350065885, 27.895065925199457], [86.93619028511377, 27.895065831271612]]]]}, "id": "+4680+729", "properties": {"area_m2": 1379631.984531767, "count": 3441, "label": 1, "seed_distance_m": 0, "site_id": "imja-tsho", "recordId": "imja-tsho-lake", "kind": "lake", "status": "candidate", "observation_date": "2017-11-19", "scene_id": "COPERNICUS/S2_SR_HARMONIZED/20171119T045049_20171119T045853_T45RVL", "source": "Sentinel-2 spectral water baseline", "resolution_m": 20, "method": "NDWI > 0.05; MNDWI > 0.1; B8 < 2500; SCL rejects cloud, shadow, snow, invalid. Largest connected component >= 0.05 km2 within 1200 m of seed.", "limitations": "Candidate, not reviewed shoreline. Seasonal ice, terrain shadow and turbid water can cause omission or commission."}}]}