{"type": "FeatureCollection", "columns": {"area_m2": "Float", "count": "Long<0, 4294967295>", "label": "Integer", "seed_distance_m": "Float", "system:index": "String"}, "features": [{"type": "Feature", "geometry": {"geodesic": false, "type": "Polygon", "coordinates": [[[86.93374873008092, 27.89993949086288], [86.9335455054359, 27.899939393027363], [86.93354561573105, 27.899758844564047], [86.93313916712374, 27.899758647985713], [86.93313905615486, 27.89993919644903], [86.93293583151882, 27.899939097706216], [86.93293527496758, 27.900841839915003], [86.93252882231785, 27.900841641531056], [86.93252893430183, 27.900661093103672], [86.93130957840079, 27.90066049077429], [86.93130969241496, 27.900479942337924], [86.93009033857106, 27.900479329219774], [86.93009045460644, 27.90029878079239], [86.92846465224505, 27.900297946526987], [86.92846453351473, 27.90047849495437], [86.92643227729089, 27.900477425141716], [86.92643215518288, 27.900657973551134], [86.92460312164573, 27.900656985098895], [86.92460299650143, 27.90083753349933], [86.92297718629774, 27.90083663448336], [86.92297705844952, 27.901017182874813], [86.92114801901941, 27.901016148554593], [86.92114788814386, 27.90119669692808], [86.9199285265475, 27.90119599388857], [86.91992839365074, 27.901376542253075], [86.91809934830971, 27.901375467463755], [86.91809921236766, 27.901556015819274], [86.91748952960218, 27.901555652154297], [86.91748939264502, 27.90173620050083], [86.91708293679729, 27.901735956554333], [86.91708279916641, 27.901916504891886], [86.91667634264493, 27.901916259750628], [86.9166762043403, 27.90209680808818], [86.91606651856546, 27.902096438126016], [86.91606637924575, 27.902276986445603], [86.91464377678079, 27.902276112708225], [86.91464434349197, 27.90155391940293], [86.91444111592743, 27.901553793396243], [86.91444125794209, 27.90137324505869], [86.91423803070992, 27.901373118746577], [86.91423845775104, 27.90083147370697], [86.91362877909984, 27.900831092982983], [86.91362892246197, 27.900650544627464], [86.91301924483484, 27.900650161199554], [86.9130191004666, 27.900830709555073], [86.91322232667468, 27.900830837663815], [86.91322175054017, 27.901553031005044], [86.91301852297563, 27.901552902896302], [86.91301837860738, 27.90173345121589], [86.91281515071046, 27.901733322801718], [86.91281529542007, 27.90155277448213], [86.91261206786452, 27.901552645771517], [86.91261221291548, 27.901372097442948], [86.9124089856923, 27.901371968426908], [86.91240956722568, 27.900649775076694], [86.91200311549223, 27.90064951616426], [86.91200340759741, 27.900288419471188], [86.9122066327904, 27.900288549071135], [86.91220677849714, 27.900108000715615], [86.91180032879387, 27.900107741210295], [86.91180062156381, 27.89974664448129], [86.91200384574171, 27.899746774386664], [86.9120039917898, 27.899566226013178], [86.91220721563532, 27.899566355613125], [86.9122070699196, 27.89974690398661], [86.91261351828437, 27.899747162288186], [86.91261424344938, 27.89884442037584], [86.91322391094351, 27.898844805564455], [86.91322419897932, 27.89848370876358], [86.91302097714603, 27.89848358066382], [86.91302126584661, 27.898122483844986], [86.9136309293073, 27.898122867227983], [86.91363107264249, 27.8979423188006], [86.91403751427887, 27.89794257289806], [86.91403765694032, 27.89776202446169], [86.91464731839778, 27.897762403353113], [86.91464746004414, 27.897581854916744], [86.91505390034203, 27.897582106004847], [86.91505404131465, 27.897401557559498], [86.91566370076886, 27.89740193195036], [86.91566384072638, 27.897221383496024], [86.91607027969478, 27.897221631583758], [86.91607041897856, 27.897041083129423], [86.91708651472418, 27.89704169810708], [86.91708665231913, 27.896861149643765], [86.9178995275969, 27.89686163622522], [86.9178996638354, 27.89668108775292], [86.91911897476679, 27.89668180863297], [86.91911910898406, 27.896501260142703], [86.91993198161181, 27.896501734740635], [86.91993211448163, 27.896321186241384], [86.92074498577986, 27.89632165604231], [86.92074511729322, 27.896141107534078], [86.92115155228207, 27.89614134063791], [86.92115168312169, 27.895960792129678], [86.92135490027476, 27.895960908227945], [86.92135516128926, 27.895599811193513], [86.92155837776858, 27.895599926995338], [86.9215582476027, 27.895780475512552], [86.92196468124408, 27.895780706208903], [86.92196481073623, 27.895600157691685], [86.92257446020118, 27.895600501485927], [86.92257458867823, 27.895419952959728], [86.92440353409066, 27.895420968154813], [86.9244036595314, 27.895240419619633], [86.92460687536395, 27.895240530920894], [86.92460700046333, 27.89505998237673], [86.92582629341942, 27.89506064388712], [86.9258264164976, 27.89488009533397], [86.92663927714182, 27.894880530343148], [86.92663915541111, 27.895061078905282], [86.92704558641145, 27.895061294608748], [86.92704570746841, 27.8948807460556], [86.927452137804, 27.894880960564304], [86.92745201742076, 27.895061509126435], [86.92826487944839, 27.89506193455059], [86.92826499848414, 27.894881385988455], [86.92968750471259, 27.894882118950846], [86.92968762138577, 27.89470157037075], [86.93029726591897, 27.89470188000206], [86.93029715025189, 27.894882428582157], [86.93050036543765, 27.894882531196714], [86.93050048076336, 27.894701982616617], [86.93111012530554, 27.894702288645682], [86.93111023961616, 27.894521740065585], [86.93151666864918, 27.894521942581783], [86.93151655501231, 27.894702491170865], [86.93192298471907, 27.894702692501284], [86.93192309768222, 27.894522143912205], [86.93436167195223, 27.894523326696987], [86.93436178087296, 27.894342778089943], [86.93497142344782, 27.894343067051018], [86.93497153135345, 27.89416251843499], [86.93517474520971, 27.894162614159463], [86.93517485277398, 27.893982065543433], [86.93537806629786, 27.893982160962484], [86.93537828075266, 27.893621063712455], [86.93598791930307, 27.89362134816399], [86.93598781308627, 27.893801896789004], [86.93578459990376, 27.893801802277252], [86.93578449334561, 27.893982350893282], [86.93619092040234, 27.893982539629324], [86.93619113215321, 27.893621442379295], [86.93639434500335, 27.89362153629816], [86.93639423946927, 27.893802084932155], [86.93680066585226, 27.893802271871568], [86.93680056098295, 27.893982820496582], [86.93659734745009, 27.893982727170606], [86.93659703183599, 27.8945243730187], [86.93680024637496, 27.894524466344674], [86.93680014150563, 27.89470501495172], [86.93578406713094, 27.89470454533944], [86.93578396057278, 27.894885093937507], [86.93558074536007, 27.894884999111344], [86.93558063846953, 27.895065547709407], [86.9349709918253, 27.89506526144328], [86.93497109973991, 27.89488471284521], [86.93456466932348, 27.894884520506928], [86.9345645607441, 27.89506506909601], [86.93436134519902, 27.895064972473218], [86.93436123628729, 27.895245521062296], [86.93415802040982, 27.895245424143063], [86.93415780188565, 27.895606521294276], [86.93395458533445, 27.895606424069612], [86.93395392774072, 27.896689715406474], [86.93375070916831, 27.896689617885364], [86.9337505992235, 27.89687016642055], [86.93354738031871, 27.896870068594012], [86.93354727004153, 27.897050617129196], [86.93334405079538, 27.897050519006218], [86.93334394017684, 27.897231067532417], [86.93314072058934, 27.89723096910401], [86.9331397219592, 27.898855905633194], [86.93334294457401, 27.898856004070584], [86.93334283394648, 27.899036552551866], [86.93374927985886, 27.899036748519347], [86.93374938981265, 27.89885620003806], [86.93415583505129, 27.89885639481078], [86.9341555072201, 27.89939804024565], [86.93435873085002, 27.899398137182853], [86.93435840401597, 27.899939782581786], [86.93415517937096, 27.899939685644586], [86.9341550700909, 27.90012023409892], [86.93374862012713, 27.900120039317216], [86.93374873008092, 27.89993949086288]], [[86.93374873008092, 27.89993949086288], [86.93374884004369, 27.899758942399565], [86.93395206434735, 27.899759039938637], [86.93395195472594, 27.899939588401956], [86.93374873008092, 27.89993949086288]], [[86.91383400746405, 27.898303542838846], [86.91383415046685, 27.898122994420444], [86.91403737161743, 27.898123121316463], [86.91403722895598, 27.89830366973486], [86.91383400746405, 27.898303542838846]], [[86.9327342814323, 27.897230771348884], [86.93273439305696, 27.897050222822685], [86.9329376123031, 27.897050321852962], [86.93293750101083, 27.89723087037916], [86.9327342814323, 27.897230771348884]], [[86.93354572602621, 27.899578296100728], [86.9335459466165, 27.89921719916511], [86.93395239320262, 27.89921739453072], [86.93395228358119, 27.899397943012005], [86.93374905995128, 27.89939784547293], [86.93374894999748, 27.89957839393625], [86.93354572602621, 27.899578296100728]], [[86.93537785184304, 27.89434325818556], [86.93537795907494, 27.894162709578513], [86.9355811729312, 27.894162804692137], [86.93558106604065, 27.894343353308166], [86.93537785184304, 27.89434325818556]]]}, "id": "+4688+729", "properties": {"area_m2": 1212841.1573237136, "count": 3025, "label": 1, "seed_distance_m": 0, "site_id": "imja-tsho", "recordId": "imja-tsho-lake", "kind": "lake", "status": "candidate", "observation_date": "2020-11-13", "scene_id": "COPERNICUS/S2_SR_HARMONIZED/20201113T045039_20201113T045530_T45RVL", "source": "Sentinel-2 spectral water baseline", "resolution_m": 20, "method": "NDWI > 0.05; MNDWI > 0.1; B8 < 2500; SCL rejects cloud, shadow, snow, invalid. Largest connected component >= 0.05 km2 within 1200 m of seed.", "limitations": "Candidate, not reviewed shoreline. Seasonal ice, terrain shadow and turbid water can cause omission or commission."}}]}