{"type": "FeatureCollection", "columns": {"area_m2": "Float", "count": "Long<0, 4294967295>", "label": "Integer", "seed_distance_m": "Float", "system:index": "String"}, "features": [{"type": "Feature", "geometry": {"geodesic": false, "type": "MultiPolygon", "coordinates": [[[[86.91281587425851, 27.9008305811409], [86.91322232667468, 27.900830837663815], [86.9132216065043, 27.901733579333616], [86.91261192281354, 27.901733194091104], [86.91261250300843, 27.901011000776823], [86.9128157295489, 27.90101112948744], [86.91281587425851, 27.9008305811409]]], [[[86.93496743033757, 27.901023362277854], [86.93517065701278, 27.90102345802928], [86.9351705494036, 27.901204006456663], [86.934967322396, 27.901203910714223], [86.93496743033757, 27.901023362277854]]], [[[86.93496743033757, 27.901023362277854], [86.93374807031326, 27.90102278151702], [86.93374818027604, 27.900842233080656], [86.93212236966811, 27.90084144195235], [86.93212248233482, 27.900660893524964], [86.9319192563513, 27.90066079328196], [86.9319193693414, 27.900480244854577], [86.93130969241496, 27.900479942337924], [86.93130980642016, 27.900299393901555], [86.92988722930566, 27.900298677558], [86.92988734567342, 27.90011812912163], [86.9284647709754, 27.9001173980996], [86.92846465224505, 27.900297946526987], [86.92805820167044, 27.900297734964752], [86.92805808225738, 27.90047828339214], [86.92744840538484, 27.900477963789527], [86.92744828497466, 27.90065851220793], [86.9248063475933, 27.900657096130665], [86.92480622279037, 27.900837644531098], [86.9237900913906, 27.900837086389846], [86.92378996489883, 27.901017634781297], [86.92155447221712, 27.9010163804996], [86.9215543420153, 27.90119692888207], [86.92013175348322, 27.901196111810417], [86.92013162090986, 27.901376660183907], [86.91830257555985, 27.901375588080548], [86.91830243995915, 27.901556136436067], [86.91769275718468, 27.90155577367839], [86.91769262056889, 27.901736322015942], [86.91728616472116, 27.901736078680297], [86.91728602742265, 27.90191662701785], [86.91667634264493, 27.901916259750628], [86.9166762043403, 27.90209680808818], [86.91626974715408, 27.902096561743182], [86.91626960817572, 27.90227711007175], [86.91505023462278, 27.902276363841246], [86.91505009361424, 27.902456912160833], [86.91484686436085, 27.902456786738053], [86.91484700570179, 27.902276238427447], [86.91464377678079, 27.902276112708225], [86.91464406013638, 27.90191501606905], [86.91484728838364, 27.90191514177929], [86.91484742972456, 27.901734593459704], [86.91464420181866, 27.901734467740482], [86.91464434349197, 27.90155391940293], [86.91444111592743, 27.901553793396243], [86.91444125794209, 27.90137324505869], [86.91423803070992, 27.901373118746577], [86.91423845775104, 27.90083147370697], [86.91342555289175, 27.90083096546713], [86.91342569658626, 27.900650417120595], [86.91281601895913, 27.900650032794367], [86.91281587425851, 27.9008305811409], [86.91220619563425, 27.900830194119727], [86.91220634135895, 27.900649645773193], [86.91200311549223, 27.90064951616426], [86.91200326154032, 27.900468967817726], [86.91220648707467, 27.900469097426654], [86.9122066327904, 27.900288549071135], [86.91200340759741, 27.900288419471188], [86.9120035536455, 27.90010787111567], [86.91180032879387, 27.900107741210295], [86.91180047517436, 27.899927192845794], [86.91200369969361, 27.899927322751168], [86.9120039917898, 27.899566226013178], [86.91220721563532, 27.899566355613125], [86.9122070699196, 27.89974690398661], [86.91261351828437, 27.899747162288186], [86.91261424344938, 27.89884442037584], [86.91302068844547, 27.898844677464695], [86.91302083279575, 27.898664129064258], [86.91322405496142, 27.898664257164018], [86.91322419897932, 27.89848370876358], [86.91302097714603, 27.89848358066382], [86.91302112150531, 27.898303032254404], [86.91322434298826, 27.898303160354164], [86.91322448700616, 27.89812261193576], [86.91342770815673, 27.898122739730095], [86.9134278518243, 27.897942191311692], [86.91363107264249, 27.8979423188006], [86.9136309293073, 27.898122867227983], [86.91383415046685, 27.898122994420444], [86.91383429346068, 27.89794244600204], [86.91403751427887, 27.89794257289806], [86.91403765694032, 27.89776202446169], [86.91464731839778, 27.897762403353113], [86.91464746004414, 27.897581854916744], [86.91505390034203, 27.897582106004847], [86.91505404131465, 27.897401557559498], [86.91525726113571, 27.897401682658884], [86.91525740176697, 27.89722113420455], [86.91607027969478, 27.897221631583758], [86.91607041897856, 27.897041083129423], [86.91688329556787, 27.897041575711626], [86.91688343350418, 27.89686102724831], [86.91769630877297, 27.896861515024526], [86.91769644535283, 27.896680966552225], [86.91830610080953, 27.896681329238035], [86.91830623637429, 27.896500780756753], [86.91952554529345, 27.89650149804354], [86.919525678837, 27.896320949553274], [86.92013533229945, 27.896321304145268], [86.92013546483689, 27.896140755646016], [86.92054189980777, 27.896140990537496], [86.92054203166249, 27.895960442038245], [86.92115168312169, 27.895960792129678], [86.9211518139703, 27.895780243612464], [86.92135503078201, 27.89578035971073], [86.92135516128926, 27.895599811193513], [86.92155837776858, 27.895599926995338], [86.9215582476027, 27.895780475512552], [86.92196468124408, 27.895780706208903], [86.92196481073623, 27.895600157691685], [86.92257446020118, 27.895600501485927], [86.92257471715527, 27.895239404424544], [86.92277793296985, 27.895239518420755], [86.92277780483417, 27.89542006695594], [86.92318423713705, 27.89542029405004], [86.92318436460799, 27.895239745514857], [86.92460687536395, 27.895240530920894], [86.92460700046333, 27.89505998237673], [86.92481021595451, 27.895060093372564], [86.92481046548853, 27.894698996266268], [86.92501368030598, 27.89469910696566], [86.92501355587135, 27.89487965552779], [86.92765535297178, 27.89488106736501], [86.92765523292093, 27.89506161592714], [86.92826487944839, 27.89506193455059], [86.92826499848414, 27.894881385988455], [86.92907785918226, 27.89488180662459], [86.92907797686156, 27.89470125804449], [86.92928119170595, 27.894701362455674], [86.92928107435904, 27.89488191102679], [86.92968750471259, 27.894882118950846], [86.92968762138577, 27.89470157037075], [86.93171976986568, 27.89470259198879], [86.93171988316121, 27.894522043399707], [86.93212631219423, 27.894522244128257], [86.93212619957245, 27.89470279271734], [86.93232941442582, 27.894702892627965], [86.93232952671524, 27.894522344038883], [86.93354881385025, 27.8945229372324], [86.9335492548961, 27.893800742804206], [86.93375246807861, 27.893800840612773], [86.93375235815178, 27.893981389228806], [86.93476842573521, 27.893981873807018], [86.93476853397323, 27.89380132519099], [86.93497174715574, 27.893801421202927], [86.93497163925909, 27.89398196982794], [86.93537806629786, 27.893982160962484], [86.93537795907494, 27.894162709578513], [86.93497153135345, 27.89416251843499], [86.93497142344782, 27.894343067051018], [86.93476820925919, 27.8943429710301], [86.93476810101221, 27.894523519637147], [86.93456488648222, 27.894523423310797], [86.93456466932348, 27.894884520506928], [86.9347678845272, 27.894884616824292], [86.93476777628919, 27.895065165422356], [86.9349709918253, 27.89506526144328], [86.93497088391966, 27.895245810023376], [86.9359869633429, 27.895246285636404], [86.9359870695597, 27.89506573704732], [86.93619028511377, 27.895065831271612], [86.93619039099819, 27.89488528268253], [86.9363936062109, 27.894885376601394], [86.93639297291658, 27.89596866810893], [86.9365961901505, 27.89596876173135], [86.93659597972015, 27.8963298588646], [86.9367991976278, 27.896329952199558], [86.9367990927495, 27.896510500752704], [86.9372055292565, 27.896510686515324], [86.93720542505193, 27.896691235077455], [86.9374086436423, 27.896691327505113], [86.9374085397701, 27.896871876058263], [86.93761175869285, 27.89687196818948], [86.93761155163118, 27.89723306527781], [86.93740833202571, 27.897232973146597], [86.93740822815352, 27.897413521681777], [86.93720500821567, 27.89741342925412], [86.93720511242024, 27.897232880709954], [86.93618901442883, 27.897232414044147], [86.93618890853543, 27.897412962579327], [86.93598568859758, 27.897412868346056], [86.93598526365851, 27.898135062432885], [86.93618848493485, 27.89813515666616], [86.93618837903246, 27.898315705174394], [86.93639160065914, 27.898315799111224], [86.93639149508913, 27.898496347619457], [86.93578182922094, 27.898496064910653], [86.93578172264482, 27.8986766134099], [86.93557850035339, 27.898676518574756], [86.9355783934359, 27.898857067065023], [86.93496872555549, 27.898856780753977], [86.93496861762291, 27.89903732923526], [86.93537506355325, 27.89903752041472], [86.93537495629441, 27.899218068896005], [86.93476528639279, 27.89921778168664], [86.93476517812783, 27.89939833015894], [86.93456195448893, 27.89939823382361], [86.9345617372763, 27.899759330759228], [86.93476496158894, 27.89975942709456], [86.93476474504105, 27.900120524021194], [86.93496797002743, 27.900120620060083], [86.93496743033757, 27.901023362277854]], [[86.91403722895598, 27.89830366973486], [86.91403737161743, 27.898123121316463], [86.91424059277698, 27.898123247916033], [86.9142404504479, 27.898303796334435], [86.91403722895598, 27.89830366973486]]]]}, "id": "+4681+728", "properties": {"area_m2": 1364396.2472637496, "count": 3403, "label": 1, "seed_distance_m": 0, "site_id": "imja-tsho", "recordId": "imja-tsho-lake", "kind": "lake", "status": "candidate", "observation_date": "2016-11-19", "scene_id": "COPERNICUS/S2_SR_HARMONIZED/20161119T045102_20161119T045214_T45RVL", "source": "Sentinel-2 spectral water baseline", "resolution_m": 20, "method": "NDWI > 0.05; MNDWI > 0.1; B8 < 2500; SCL rejects cloud, shadow, snow, invalid. Largest connected component >= 0.05 km2 within 1200 m of seed.", "limitations": "Candidate, not reviewed shoreline. Seasonal ice, terrain shadow and turbid water can cause omission or commission."}}]}