{"type": "FeatureCollection", "columns": {"area_m2": "Float", "count": "Long<0, 4294967295>", "label": "Integer", "seed_distance_m": "Float", "system:index": "String"}, "features": [{"type": "Feature", "geometry": {"geodesic": false, "type": "MultiPolygon", "coordinates": [[[[88.18342051830658, 27.908233638351525], [88.18301412476599, 27.908237128423185], [88.18301216076132, 27.908056618704205], [88.18280896430544, 27.90805836326842], [88.18280700065111, 27.907877853531474], [88.18341658895875, 27.907872618967467], [88.18342051830658, 27.908233638351525]]], [[[88.19438716751868, 27.90759742675466], [88.19438518468533, 27.907416917763314], [88.19458837909305, 27.90741515616704], [88.1945903622588, 27.90759566514042], [88.19438716751868, 27.90759742675466]]], [[[88.20050691853574, 27.909710550649887], [88.20050293221675, 27.90934953358348], [88.20070612977756, 27.90934776284236], [88.20071011677028, 27.909708779881814], [88.20050691853574, 27.909710550649887]]], [[[88.20479608152596, 27.911658892116908], [88.20479408107663, 27.91147838392506], [88.20499728229359, 27.911476606734038], [88.20499928308426, 27.9116571149169], [88.20479608152596, 27.911658892116908]]], [[[88.18342051830658, 27.908233638351525], [88.18362371504094, 27.90823189287103], [88.18361782004452, 27.90769036382189], [88.18402421144712, 27.907686872034446], [88.18402224580751, 27.907506362369368], [88.18361585507866, 27.907509854120875], [88.18361389013074, 27.907329344419864], [88.18523944991108, 27.907315370317136], [88.18524141755393, 27.90749587991035], [88.1858510031756, 27.907490634638425], [88.18585297185152, 27.907671144186722], [88.18686894921714, 27.90766239600621], [88.1868650085236, 27.907301377035374], [88.18706820326369, 27.907299626524313], [88.18707017394284, 27.907480136000746], [88.18727336900635, 27.90747838518426], [88.18727534003584, 27.907658894642726], [88.18768173078267, 27.9076553920755], [88.18768567425202, 27.90801641092057], [88.18788887027671, 27.908014659160852], [88.18788295408903, 27.907473130920195], [88.18828934404534, 27.90746962658329], [88.18828737134497, 27.907289117196687], [88.18849056595931, 27.907287364592552], [88.18848859294454, 27.90710685520595], [88.18869178720854, 27.90710510231435], [88.18869770733083, 27.90764663042026], [88.18890090258297, 27.907644877187302], [88.18890287633437, 27.90782538652899], [88.1891060719099, 27.907823632990606], [88.18910409781715, 27.907643123657902], [88.18930729303337, 27.907641369832056], [88.18931124190159, 27.908002388461533], [88.18971763362758, 27.907998879848645], [88.18971565851075, 27.907818370560857], [88.18991885401441, 27.90781661581873], [88.18992082946363, 27.907997125097534], [88.1901240252817, 27.907995370040997], [88.19012797691674, 27.908356388544707], [88.19033117339059, 27.908354633164777], [88.19033314957642, 27.908535142398666], [88.19053634637366, 27.908533386704327], [88.19053436984647, 27.908352877488404], [88.1907375662844, 27.908351121506602], [88.19073954314396, 27.90853163071354], [88.19114593663963, 27.908528117833658], [88.19114395910633, 27.908347608653667], [88.19094076270434, 27.908349365228357], [88.19093878553036, 27.9081688560304], [88.19114198159998, 27.908167099473676], [88.1911400041026, 27.907986590284704], [88.19154639550521, 27.907983076281923], [88.19154837366733, 27.908163585443948], [88.1919547656718, 27.90816007021946], [88.19195674453461, 27.908340579345552], [88.19297272589775, 27.908331785970798], [88.19296876482142, 27.907970767835398], [88.19317196037, 27.907969008296266], [88.19317592211108, 27.908330026395735], [88.19337911831543, 27.90832826652423], [88.1933810995498, 27.908508775560488], [88.19378749256936, 27.90850525489221], [88.19378551066127, 27.908324745882897], [88.19419190292625, 27.908321224037827], [88.19418595527956, 27.90777969707278], [88.19398276016217, 27.907781458103113], [88.19398077798458, 27.9076009490938], [88.19438716751868, 27.90759742675466], [88.19439113323931, 27.90795844471938], [88.19479752404901, 27.907954921140558], [88.19479554050598, 27.907774412185148], [88.19499873555151, 27.90777264995107], [88.19500270332928, 27.90813366782596], [88.19520589903057, 27.908131905277475], [88.19520391478686, 27.907951396349013], [88.19601669604695, 27.90794434319063], [88.19602066723832, 27.908305360921787], [88.1958174712765, 27.908307124691984], [88.19581945656226, 27.908487633557563], [88.19602265285646, 27.908485869778385], [88.1960266241556, 27.908846887482593], [88.19622982111454, 27.908845123380022], [88.19622783511014, 27.90866461454139], [88.19683742485508, 27.908659320463993], [88.19683543786252, 27.908478811661297], [88.19703863406687, 27.908477046390917], [88.1970406214008, 27.908657555175648], [88.19724381791956, 27.90865578958187], [88.19724183025326, 27.908475280806122], [88.19744502643067, 27.90847351493387], [88.19744701442934, 27.908654023691653], [88.19825980027085, 27.908646957139386], [88.19825781091572, 27.90846644842652], [88.19846100699431, 27.90846468105408], [88.19846299668181, 27.90864518974898], [88.19866619307481, 27.90864342206213], [88.19866420305493, 27.908462913376212], [88.19886739908861, 27.908461145410886], [88.19887337022624, 27.90900267139677], [88.19907656726602, 27.9090009030811], [88.19907855801354, 27.909181411722102], [88.19928175536774, 27.90917964309202], [88.19928374647459, 27.909360151715056], [88.19948694414319, 27.909358382770563], [88.19948893560937, 27.909538891375632], [88.19969213360137, 27.909537122125712], [88.19968815001326, 27.909176104942528], [88.19989134731355, 27.90917433541413], [88.19989333942651, 27.90935484399225], [88.20029973463797, 27.909351304019175], [88.20030372028323, 27.90971232111253], [88.20050691853574, 27.909710550649887], [88.20050891172667, 27.909891059174107], [88.20111850738253, 27.909885745944628], [88.20112050159754, 27.91006625442393], [88.20173009809783, 27.910060938454592], [88.2017320933459, 27.910241446897963], [88.20193529248775, 27.910239674288345], [88.2019332968983, 27.910059165871925], [88.20213649568083, 27.91005739298383], [88.20214048754242, 27.910418409798705], [88.20234368697173, 27.910416636578233], [88.20234568327083, 27.910597144967706], [88.20275208275828, 27.910593597610482], [88.20275407974908, 27.910774105964023], [88.2033636798516, 27.910768782646464], [88.20336168185469, 27.91058827433784], [88.20356488150857, 27.91058649931175], [88.20356687984685, 27.910767007611394], [88.20377007982412, 27.910765232279882], [88.20377207852174, 27.910945740552574], [88.2035688782031, 27.910947515911037], [88.20357087657732, 27.91112802419271], [88.20377407722833, 27.911126248834247], [88.20377607596187, 27.91130675710694], [88.20418247788373, 27.911303205446785], [88.20418447730898, 27.911483713692526], [88.20438767857983, 27.911481937399817], [88.20438967836441, 27.911662445618607], [88.20479608152596, 27.911658892116908], [88.20479808199325, 27.91183940030875], [88.20520448576565, 27.911835845576356], [88.20520848811057, 27.912196861888177], [88.2056148931496, 27.912193305898143], [88.20561689502725, 27.912373814018117], [88.20622650345715, 27.912368477755837], [88.20623050928754, 27.91272949390596], [88.20663691615913, 27.91272593484369], [88.20663891977951, 27.912906442882818], [88.20684212352971, 27.912904662889048], [88.20684613148912, 27.913265678931374], [88.20704933589509, 27.91326389861421], [88.2070513402431, 27.913444406608427], [88.20725454496349, 27.913442625976852], [88.20725654967082, 27.9136231339531], [88.2074597547146, 27.913621353007116], [88.20746175977229, 27.9138018609654], [88.20786817047069, 27.913798298148166], [88.20787218199641, 27.914159314001846], [88.2080753879924, 27.914157532121617], [88.2080733818837, 27.91397702420825], [88.20827658752036, 27.913975242040557], [88.20828060042948, 27.914336257831355], [88.2084838067309, 27.914334475331287], [88.20848581354927, 27.914514983199737], [88.20868902016511, 27.914513200394243], [88.20869303453848, 27.914874216095207], [88.20909944906371, 27.914870649523017], [88.20910346485643, 27.91523166515212], [88.20930667276583, 27.91522988139441], [88.20931872261434, 27.91631292809307], [88.20911551268372, 27.916314711931626], [88.20911752071483, 27.916495219719227], [88.20891431043387, 27.916497003270326], [88.20891230273514, 27.916316495482725], [88.20870909275962, 27.916318278728394], [88.20870708542022, 27.916137770913846], [88.20769103697988, 27.916146682578756], [88.20768903133829, 27.91596617469234], [88.20667298411966, 27.91597507880242], [88.20667098018487, 27.915794570844138], [88.20585814342687, 27.915801688681224], [88.2058561408665, 27.915621180669042], [88.20504330515053, 27.91562829366421], [88.20504130395561, 27.915447785589148], [88.20483809531856, 27.915449563067636], [88.20483609447399, 27.91526905498359], [88.20463288616034, 27.915270832147666], [88.20463088567509, 27.915090324036672], [88.20361484549925, 27.915099205338525], [88.20361684429567, 27.915279713521386], [88.20341363586523, 27.91528148888883], [88.20341563434725, 27.915461997080673], [88.20321242556648, 27.91546377216964], [88.2032144237251, 27.915644280361484], [88.19955665637369, 27.915676180956563], [88.19955466428767, 27.91549567251319], [88.1985386184255, 27.915504516499027], [88.19854060883166, 27.91568502500528], [88.19732135116139, 27.915695627973292], [88.19731936277644, 27.915515119386193], [88.19711615343871, 27.915516885483022], [88.1971181414823, 27.91569739408809], [88.19610209282637, 27.91570622015254], [88.19610010647162, 27.915525711493572], [88.19447443036844, 27.9155398175139], [88.19447244672659, 27.91535930873815], [88.19325319089788, 27.91536987559389], [88.19325120929521, 27.91518936672831], [88.19203195483192, 27.915199922714432], [88.19202997526843, 27.915019413768004], [88.19142034880036, 27.915024687678223], [88.19141837027891, 27.914844178686877], [88.19121516174967, 27.914845936043104], [88.19121318357857, 27.914665427033793], [88.18918110072059, 27.914682983995167], [88.18917912593614, 27.91450247485111], [88.1879598773658, 27.91451299456326], [88.18796185012904, 27.914693503788165], [88.18511692951593, 27.914718008032487], [88.18511496147781, 27.914537498618934], [88.1853181698723, 27.91453575027281], [88.1853162015198, 27.914355240868243], [88.18511299346666, 27.9143569891964], [88.18511102546448, 27.914176479773865], [88.18490781772576, 27.914178227796594], [88.18490585008291, 27.91399771835609], [88.18409302028684, 27.914004707365784], [88.18409105400943, 27.91382419787138], [88.18368463967285, 27.913827690548157], [88.18368267409612, 27.913647181017822], [88.1832762603614, 27.91365067248187], [88.1832742954674, 27.913470162915605], [88.18286788234353, 27.913473653148962], [88.18286984655482, 27.913654162742176], [88.18266663963357, 27.913655907423173], [88.18265878422574, 27.91293386898743], [88.18286198979952, 27.912932124360335], [88.18286002566009, 27.912751614758136], [88.18306323088353, 27.91274986984358], [88.18306126642072, 27.91256936024138], [88.18326447128484, 27.91256761503936], [88.18326054173937, 27.912206595852933], [88.18346374592078, 27.912204850381418], [88.18346178083812, 27.91202434079719], [88.18366498466018, 27.912022595038213], [88.18365712316178, 27.911300556692304], [88.18345392068719, 27.911302302397377], [88.18344999071951, 27.910941283175013], [88.18365319252037, 27.91093953749689], [88.18363943585486, 27.909675970137773], [88.18384263527518, 27.909674224253035], [88.1838308425335, 27.908591166415267], [88.18362764513438, 27.908592912219156], [88.18362568007868, 27.908412402545093], [88.18342248300296, 27.908414148043555], [88.18342051830658, 27.908233638351525]], [[88.18422740712147, 27.907685125691568], [88.18443060276887, 27.907683379052244], [88.18443256910018, 27.907863888690375], [88.18422937311142, 27.907865635347665], [88.18422740712147, 27.907685125691568]], [[88.19521185185155, 27.90867343200896], [88.195415048541, 27.908671669119116], [88.19541703318896, 27.90885217800266], [88.19521383615815, 27.908853940910475], [88.19521185185155, 27.90867343200896]], [[88.19540909470493, 27.908130142423563], [88.19561229037029, 27.90812837926422], [88.19561427529672, 27.90830888815675], [88.19541107929898, 27.908310651325074], [88.19540909470493, 27.908130142423563]], [[88.19542695669824, 27.90975472238446], [88.19563015539093, 27.90975295910834], [88.19563214048804, 27.909933467955952], [88.195428941454, 27.909935231241054], [88.19542695669824, 27.90975472238446]], [[88.20052685123561, 27.911515635685472], [88.20073005284783, 27.911513864782656], [88.20072805915383, 27.911333356312333], [88.20194726637472, 27.911322724723995], [88.20194926208991, 27.911503233104487], [88.20215246356739, 27.911501460108592], [88.20215645572542, 27.91186247684262], [88.20195325357422, 27.911864249865463], [88.20195524934331, 27.91204475823697], [88.20154884431328, 27.91204830341129], [88.20154684921792, 27.911867795012835], [88.20073404028072, 27.91187488170533], [88.2007320465508, 27.911694373243993], [88.20052884461519, 27.911696144155794], [88.20052685123561, 27.911515635685472]], [[88.19075140466964, 27.90961468584738], [88.19074942770229, 27.909434176676374], [88.19095262614344, 27.90943242031728], [88.19095460344319, 27.9096129294793], [88.19075140466964, 27.90961468584738]], [[88.19075140466964, 27.90961468584738], [88.19075338165497, 27.909795195018386], [88.19095658076988, 27.909793438632345], [88.19096053546816, 27.910154456938425], [88.19075733567054, 27.910156213351417], [88.19075931270977, 27.910336722504457], [88.19014971222097, 27.91034198998274], [88.19014773618787, 27.910161480784783], [88.18974133643992, 27.910164990915824], [88.18973936110748, 27.909984481690916], [88.18953616154343, 27.909986236289313], [88.18953221160622, 27.909625217785603], [88.18973541049654, 27.909623463214157], [88.18973343520902, 27.909442953971283], [88.19034303075708, 27.909437688487262], [88.19034500705071, 27.909618197694204], [88.19075140466964, 27.90961468584738]]], [[[88.18361585507866, 27.907509854120875], [88.18361782004452, 27.90769036382189], [88.18321142856107, 27.90769385440559], [88.18320946427792, 27.907513344677625], [88.18361585507866, 27.907509854120875]]], [[[88.19093878553036, 27.9081688560304], [88.19053239334623, 27.908172368263497], [88.19053436984647, 27.908352877488404], [88.19033117339059, 27.908354633164777], [88.19032524495887, 27.907813105445143], [88.19073163583147, 27.907809593867817], [88.19073361262815, 27.90799010308374], [88.19093680837436, 27.907988346832443], [88.19093878553036, 27.9081688560304]]], [[[88.19602066723832, 27.908305360921787], [88.19622386318215, 27.90830359685515], [88.19622584913267, 27.90848410570276], [88.19602265285646, 27.908485869778385], [88.19602066723832, 27.908305360921787]]]]}, "id": "+848+626", "properties": {"area_m2": 1625652.5860071431, "count": 4056, "label": 1, "seed_distance_m": 0, "site_id": "south-lhonak", "recordId": "south-lhonak-lake", "kind": "lake", "status": "candidate", "observation_date": "2020-11-25", "scene_id": "COPERNICUS/S2_SR_HARMONIZED/20201125T044121_20201125T044124_T45RXL", "source": "Sentinel-2 spectral water baseline", "resolution_m": 20, "method": "NDWI > 0.05; MNDWI > 0.1; B8 < 2500; SCL rejects cloud, shadow, snow, invalid. Largest connected component >= 0.05 km2 within 1200 m of seed.", "limitations": "Candidate, not reviewed shoreline. Seasonal ice, terrain shadow and turbid water can cause omission or commission."}}]}