{"type": "FeatureCollection", "columns": {"area_m2": "Float", "count": "Long<0, 4294967295>", "label": "Integer", "seed_distance_m": "Float", "system:index": "String"}, "features": [{"type": "Feature", "geometry": {"geodesic": false, "type": "MultiPolygon", "coordinates": [[[[88.1842254411405, 27.90750461603547], [88.18402224580751, 27.907506362369368], [88.18402028018588, 27.907325852695305], [88.18422347518649, 27.907324106379374], [88.1842254411405, 27.90750461603547]]], [[[88.1941800077856, 27.907238170062815], [88.1939768136833, 27.907239931057216], [88.19397483155961, 27.90705942202994], [88.19417802532953, 27.907057661044522], [88.1941800077856, 27.907238170062815]]], [[[88.20397327979242, 27.91076345664294], [88.20397128078041, 27.910582948370248], [88.20417448038039, 27.91058117244585], [88.20417647973377, 27.910761680700574], [88.20397327979242, 27.91076345664294]]], [[[88.1842254411405, 27.90750461603547], [88.18442863645552, 27.907502869414113], [88.18442667016913, 27.907322359767], [88.18523944991108, 27.907315370317136], [88.18524141755393, 27.90749587991035], [88.18646058864456, 27.90748538667155], [88.18646255832658, 27.907665896174933], [88.18666575378533, 27.907664146238794], [88.18666378376196, 27.90748363674439], [88.18686697886139, 27.90748188652079], [88.1868650085236, 27.907301377035374], [88.1872713979948, 27.907297875725792], [88.18727336900635, 27.90747838518426], [88.18747656405188, 27.907476634062345], [88.18747853542273, 27.907657143502846], [88.18768173078267, 27.9076553920755], [88.18767975907943, 27.90747488264398], [88.18788295408903, 27.907473130920195], [88.18788492613362, 27.90765364034273], [88.18808812145762, 27.907651888304535], [88.18808417671268, 27.907290869495395], [88.18828737134497, 27.907289117196687], [88.18828539866257, 27.907108607792118], [88.18869178720854, 27.90710510231435], [88.18869573393877, 27.907466121051623], [88.18889892884955, 27.90746436783663], [88.18890090258297, 27.907644877187302], [88.18951048824059, 27.907639615700784], [88.1895124629981, 27.907820125006538], [88.18991885401441, 27.90781661581873], [88.18991687858318, 27.907636106539925], [88.19012007372751, 27.90763435151932], [88.19012204950012, 27.90781486078016], [88.19073163583147, 27.907809593867817], [88.19072965904377, 27.90762908463393], [88.19093285411624, 27.907627328409582], [88.19093483123632, 27.907807837625505], [88.19134122200111, 27.907804324251547], [88.19134319981289, 27.907984833431534], [88.19195278682696, 27.907979561084385], [88.1919547656718, 27.90816007021946], [88.19236115759541, 27.90815655379123], [88.19236511668647, 27.908517571998498], [88.19256831329507, 27.908515813303783], [88.19256633340818, 27.908335304222607], [88.19276952965745, 27.908333545249416], [88.1927715098857, 27.908514054321607], [88.19317790301307, 27.90851053544098], [88.19317592211108, 27.908330026395735], [88.19297272589775, 27.908331785970798], [88.1929707453461, 27.90815127690759], [88.19337713709007, 27.908147757487967], [88.1933810995498, 27.908508775560488], [88.19358429606856, 27.90850701537457], [88.19358627766225, 27.90868752438388], [88.19378947450441, 27.908685763892535], [88.19378551066127, 27.908324745882897], [88.19398870680274, 27.908322985113077], [88.19398077798458, 27.9076009490938], [88.19418397276061, 27.907599188072453], [88.1941800077856, 27.907238170062815], [88.19438320186993, 27.90723640877197], [88.1943812190725, 27.907055899771642], [88.19458441280649, 27.907054138193338], [88.19458837909305, 27.90741515616704], [88.19479157347382, 27.90741339425636], [88.19479355698093, 27.907593903220754], [88.1949967516851, 27.907592141004645], [88.19499476784561, 27.907411632058217], [88.19519796219046, 27.907409869554645], [88.19519994637129, 27.907590378492092], [88.19580953032211, 27.907585089148814], [88.19581350075887, 27.90794610692489], [88.19601669604695, 27.90794434319063], [88.19601868162916, 27.908124852056208], [88.19622187724063, 27.908123088007535], [88.19622584913267, 27.90848410570276], [88.19642904539991, 27.90848234132171], [88.19643103170975, 27.90866285015136], [88.19683742485508, 27.908659320463993], [88.19683543786252, 27.908478811661297], [88.19703863406687, 27.908477046390917], [88.19703664675991, 27.908296537597202], [88.19764623425907, 27.908291240007394], [88.19765021091217, 27.90865225750499], [88.19825980027085, 27.908646957139386], [88.19825781091572, 27.90846644842652], [88.19846100699431, 27.90846468105408], [88.19846299668181, 27.90864518974898], [88.19866619307481, 27.90864342206213], [88.19866420305493, 27.908462913376212], [88.1990705951133, 27.908459377131148], [88.19907656726602, 27.9090009030811], [88.19927976427887, 27.908999134468985], [88.19928374647459, 27.909360151715056], [88.19948694414319, 27.909358382770563], [88.19948893560937, 27.909538891375632], [88.19969213360137, 27.909537122125712], [88.19968815001326, 27.909176104942528], [88.2000945445869, 27.90917256558929], [88.20009653704123, 27.909353074158425], [88.20029973463797, 27.909351304019175], [88.20030172745162, 27.909531812570343], [88.20050492537175, 27.909530042116685], [88.20050293221675, 27.90934953358348], [88.20070612977756, 27.90934776284236], [88.2007121102936, 27.909889288397054], [88.20111850738253, 27.909885745944628], [88.20112050159754, 27.91006625442393], [88.20152689928835, 27.9100627107498], [88.20152490439062, 27.909882202297446], [88.2017281028767, 27.909880430020205], [88.2017320933459, 27.910241446897963], [88.20193529248775, 27.910239674288345], [88.20193130133582, 27.90987865744652], [88.20213449977699, 27.909876884567407], [88.20214048754242, 27.910418409798705], [88.20234368697173, 27.910416636578233], [88.20234169069957, 27.910236128188764], [88.20254488977854, 27.910234354689813], [88.20254888302354, 27.910595371441808], [88.20295528247505, 27.910591823491696], [88.20295727979823, 27.910772331827268], [88.20316047983839, 27.91077055738509], [88.20315448689865, 27.910229032396334], [88.20335768590576, 27.91022725769364], [88.20335968386674, 27.91040776602023], [88.20376608250078, 27.910404215698566], [88.20377007982412, 27.910765232279882], [88.20397327979242, 27.91076345664294], [88.20397527882241, 27.91094396490665], [88.20438167936088, 27.910940412707504], [88.20438367908257, 27.911120920944263], [88.20458687966172, 27.91111914438206], [88.20458487959867, 27.910938636154285], [88.20499128002933, 27.910935082158506], [88.20499728229359, 27.911476606734038], [88.20540368466462, 27.911473051453672], [88.20540168321816, 27.911292543297762], [88.20560488404884, 27.911290765226386], [88.20561088944821, 27.9118322896492], [88.20520448576565, 27.911835845576356], [88.20520848811057, 27.912196861888177], [88.2056148931496, 27.912193305898143], [88.20561689502725, 27.912373814018117], [88.20622650345715, 27.912368477755837], [88.20623050928754, 27.91272949390596], [88.20663691615913, 27.91272593484369], [88.20663891977951, 27.912906442882818], [88.20684212352971, 27.912904662889048], [88.20684613148912, 27.913265678931374], [88.20704933589509, 27.91326389861421], [88.2070513402431, 27.913444406608427], [88.20725454496349, 27.913442625976852], [88.20725654967082, 27.9136231339531], [88.2074597547146, 27.913621353007116], [88.20746175977229, 27.9138018609654], [88.20766496513048, 27.913800079713987], [88.20766697054748, 27.9139805876543], [88.20787017622007, 27.9139788060795], [88.20787218199641, 27.914159314001846], [88.2080753879924, 27.914157532121617], [88.2080733818837, 27.91397702420825], [88.20827658752036, 27.913975242040557], [88.20828060042948, 27.914336257831355], [88.2084838067309, 27.914334475331287], [88.20848581354927, 27.914514983199737], [88.20868902016511, 27.914513200394243], [88.20869102734281, 27.914693708244723], [88.20889423427305, 27.914691925124817], [88.20889624181008, 27.914872432957335], [88.20909944906371, 27.914870649523017], [88.20910346485643, 27.91523166515212], [88.20930667276583, 27.91522988139441], [88.20931872261434, 27.91631292809307], [88.20911551268372, 27.916314711931626], [88.20911752071483, 27.916495219719227], [88.20891431043387, 27.916497003270326], [88.20891230273514, 27.916316495482725], [88.20870909275962, 27.916318278728394], [88.20870708542022, 27.916137770913846], [88.20769103697988, 27.916146682578756], [88.20768903133829, 27.91596617469234], [88.20667298411966, 27.91597507880242], [88.20667098018487, 27.915794570844138], [88.20606135264781, 27.915799909675602], [88.20605934974608, 27.915619401672405], [88.19955665637369, 27.915676180956563], [88.19955466428767, 27.91549567251319], [88.1985386184255, 27.915504516499027], [88.19854060883166, 27.91568502500528], [88.19610209282637, 27.91570622015254], [88.19610010647162, 27.915525711493572], [88.19447443036844, 27.9155398175139], [88.19447244672659, 27.91535930873815], [88.19325319089788, 27.91536987559389], [88.19325120929521, 27.91518936672831], [88.19203195483192, 27.915199922714432], [88.19202997526843, 27.915019413768004], [88.18877863219795, 27.915047510123618], [88.1887766580513, 27.914867000961593], [88.18755740521397, 27.914877517242182], [88.18755543311548, 27.914697007990327], [88.18572655566061, 27.914712762068856], [88.18572458661639, 27.914532252691238], [88.18491175306535, 27.91453924665963], [88.18490978538657, 27.91435873722811], [88.1845033691725, 27.914362232384235], [88.18450140218543, 27.91418172292577], [88.18409498658221, 27.914185216860183], [88.18408712150851, 27.913463178855633], [88.18429032797162, 27.913461432090546], [88.18428836141574, 27.913280922596144], [88.18449156751953, 27.913279175543597], [88.18448960064923, 27.913098666049198], [88.18469280640268, 27.91309691871817], [88.1846908392, 27.912916409232754], [88.18530045533745, 27.912911165461015], [88.18529848714662, 27.91273065601153], [88.18550169215447, 27.91272890750371], [88.18549972364924, 27.91254839806321], [88.18570292829776, 27.91254664926793], [88.1856930843343, 27.911644102065424], [88.18548988136563, 27.911645850797818], [88.1854879129682, 27.911465341321385], [88.18508150765967, 27.911468837860916], [88.18507953995395, 27.911288328357532], [88.18487633760512, 27.911290076164665], [88.18487043561082, 27.91074854759163], [88.18466723425911, 27.910750295057404], [88.18466133343263, 27.910208766403525], [88.18486453376923, 27.910207018982668], [88.18485666490463, 27.90948498076252], [88.18505986388479, 27.909483233090135], [88.18505002652394, 27.90858068527677], [88.18484682924161, 27.908582432877292], [88.18484289510575, 27.908221413690864], [88.1846396984702, 27.90822316096799], [88.1846377317616, 27.90804265135681], [88.18443453545844, 27.908044398319525], [88.18443256910018, 27.907863888690375], [88.18422937311142, 27.907865635347665], [88.1842254411405, 27.90750461603547]], [[88.19703863406687, 27.908477046390917], [88.19724183025326, 27.908475280806122], [88.19724381791956, 27.90865578958187], [88.1970406214008, 27.908657555175648], [88.19703863406687, 27.908477046390917]], [[88.19928374647459, 27.909360151715056], [88.1992857375994, 27.909540660329107], [88.19908253958044, 27.909542428977154], [88.199080548788, 27.90936192035412], [88.19928374647459, 27.909360151715056]], [[88.20316047983839, 27.91077055738509], [88.2033636798516, 27.910768782646464], [88.20336567786649, 27.910949290955088], [88.20316247751192, 27.91095106571168], [88.20316047983839, 27.91077055738509]], [[88.20479608152596, 27.911658892116908], [88.20499928308426, 27.9116571149169], [88.20500128389291, 27.911837623090776], [88.20479808199325, 27.91183940030875], [88.20479608152596, 27.911658892116908]], [[88.20418247788373, 27.911303205446785], [88.20438567882222, 27.91130142917204], [88.20438767857983, 27.911481937399817], [88.20418447730898, 27.911483713692526], [88.20418247788373, 27.911303205446785]], [[88.20418247788373, 27.911303205446785], [88.20397927693628, 27.911304981425083], [88.20397727787037, 27.911124473170357], [88.20418047848544, 27.91112269720104], [88.20418247788373, 27.911303205446785]]], [[[88.20050293221675, 27.90934953358348], [88.20029973463797, 27.909351304019175], [88.20029774185127, 27.909170795468007], [88.2005009390887, 27.909169025041294], [88.20050293221675, 27.90934953358348]]], [[[88.20193130133582, 27.90987865744652], [88.2017281028767, 27.909880430020205], [88.20172610766456, 27.909699921576834], [88.20192930578231, 27.90969814901213], [88.20193130133582, 27.90987865744652]]], [[[88.20458487959867, 27.910938636154285], [88.20438167936088, 27.910940412707504], [88.20437967965715, 27.910759904461763], [88.20458287956257, 27.910758127926506], [88.20458487959867, 27.910938636154285]]]]}, "id": "+877+626", "properties": {"area_m2": 1614028.6676817464, "count": 4027, "label": 1, "seed_distance_m": 0, "site_id": "south-lhonak", "recordId": "south-lhonak-lake", "kind": "lake", "status": "candidate", "observation_date": "2018-11-26", "scene_id": "COPERNICUS/S2_SR_HARMONIZED/20181126T044121_20181126T044116_T45RXL", "source": "Sentinel-2 spectral water baseline", "resolution_m": 20, "method": "NDWI > 0.05; MNDWI > 0.1; B8 < 2500; SCL rejects cloud, shadow, snow, invalid. Largest connected component >= 0.05 km2 within 1200 m of seed.", "limitations": "Candidate, not reviewed shoreline. Seasonal ice, terrain shadow and turbid water can cause omission or commission."}}]}