{"type": "FeatureCollection", "columns": {"area_m2": "Float", "count": "Long<0, 4294967295>", "label": "Integer", "seed_distance_m": "Float", "system:index": "String"}, "features": [{"type": "Feature", "geometry": {"geodesic": false, "type": "MultiPolygon", "coordinates": [[[[88.16643121318559, 27.89682476919528], [88.16643314875859, 27.897005280288685], [88.16622997173326, 27.897006999780917], [88.16622803650162, 27.896826488678535], [88.16643121318559, 27.89682476919528]]], [[[88.17455436787806, 27.896394723112078], [88.17455241888423, 27.896214212530715], [88.17475559382547, 27.896212480803428], [88.17475754315167, 27.896392991375805], [88.17455436787806, 27.896394723112078]]], [[[88.18051893051006, 27.903023255202385], [88.18072211772228, 27.903021514294313], [88.1807260373234, 27.90338253428923], [88.18052284942846, 27.903384275224248], [88.18051893051006, 27.903023255202385]]], [[[88.18542886944444, 27.906050055007153], [88.18522567691419, 27.906051803020897], [88.18522370941507, 27.90587129339175], [88.18542690161294, 27.905869545386988], [88.18542886944444, 27.906050055007153]]], [[[88.20540568612903, 27.911653559609583], [88.20560888763345, 27.911651781511257], [88.20561088944821, 27.9118322896492], [88.2054076876204, 27.91183406775651], [88.20540568612903, 27.911653559609583]]], [[[88.16643121318559, 27.89682476919528], [88.16642927763955, 27.89664425810188], [88.16663245397316, 27.896642538331168], [88.16662858225226, 27.896281516153348], [88.16683175789417, 27.896279796104157], [88.16682982171932, 27.89609928501974], [88.16703299700191, 27.89609756469207], [88.1670291240503, 27.895736542532216], [88.1672322986412, 27.895734821926073], [88.16723423544488, 27.895915332992523], [88.16743741035917, 27.89591361208095], [88.16743934752218, 27.896094123129437], [88.16723617227552, 27.896095844058976], [88.16723810911513, 27.896276355116445], [88.1678476358253, 27.896271191384596], [88.16784569797058, 27.896090680372044], [88.16804887316334, 27.896088958544187], [88.16804693498524, 27.895908447531635], [88.16825010982765, 27.89590672541632], [88.16824623286058, 27.89554570340918], [88.16804305869191, 27.895547425497547], [88.16804112057667, 27.89536691447601], [88.168244294404, 27.89536519239663], [88.16824235596538, 27.895184681384073], [88.16844552944237, 27.89518295901723], [88.16844359068034, 27.89500244801366], [88.16864676380698, 27.895000725359356], [88.16864482473056, 27.894820214364767], [88.16844165194529, 27.894821937001108], [88.16843777452007, 27.894460914958035], [88.16803143024309, 27.894464359278498], [88.16802949223566, 27.894283848221026], [88.16843583582992, 27.894280403927514], [88.16843389716672, 27.894099892896996], [88.16944975415811, 27.894091276984426], [88.16945169451014, 27.89427178795206], [88.16985803786186, 27.8942683394724], [88.1698560968361, 27.894087828531713], [88.17005926813914, 27.894086103847215], [88.17005732679897, 27.89390559291551], [88.17026049775168, 27.893903867952535], [88.1702663228502, 27.89444540069375], [88.17107901053278, 27.894438497688764], [88.1710809536157, 27.89461900853962], [88.17148729801843, 27.894615555209057], [88.17148924180204, 27.894796066032963], [88.1720987592865, 27.894790883750904], [88.17209681449678, 27.89461037297191], [88.1722999866173, 27.89460864496365], [88.17229609642703, 27.89424762340567], [88.17249926785586, 27.89424589512791], [88.17250315871986, 27.89460691664996], [88.1737221909669, 27.894596540497574], [88.17372024350021, 27.894416029817396], [88.17534561612553, 27.894402178298773], [88.17534756627818, 27.89458268887115], [88.17514439442715, 27.89458442137099], [88.17514634427438, 27.894764931961337], [88.17494317206402, 27.894766664173716], [88.17494512158785, 27.89494717476406], [88.17453877644849, 27.894950638326435], [88.17454072530757, 27.89513114894373], [88.17433755237856, 27.89513288028474], [88.17433560385186, 27.894952369658466], [88.17413243123727, 27.89495410068507], [88.1741304830609, 27.894773590040824], [88.17392731076072, 27.894775320762], [88.17393120645767, 27.89513634207744], [88.17372803346578, 27.895138072520137], [88.17372998100433, 27.895318583182345], [88.1735268076621, 27.89532031333758], [88.17352875487725, 27.895500824008778], [88.1733255811757, 27.895502553885535], [88.17333336887751, 27.89622459657031], [88.17353654392655, 27.896222866648635], [88.17353849123153, 27.896403377292877], [88.17414801726795, 27.896398185677324], [88.17414606895684, 27.896217675077995], [88.17434924392504, 27.896215943952576], [88.17435119258649, 27.896396454542923], [88.17455436787806, 27.896394723112078], [88.17455826591062, 27.896755744256836], [88.17435508994531, 27.89675747571463], [88.17435898738498, 27.89711849686837], [88.173952634044, 27.897121958948524], [88.17395458212154, 27.897302469547853], [88.17375140508723, 27.89730420015225], [88.17375724840358, 27.897845731950234], [88.173960426444, 27.89784400130092], [88.17395847831256, 27.89766349071956], [88.17436483367474, 27.89766002856754], [88.17436678247094, 27.89784053912195], [88.17578902801726, 27.897828412054263], [88.17579097919399, 27.89800892250986], [88.17599415738714, 27.898007188860177], [88.17599610892319, 27.898187699297807], [88.17640246593828, 27.898184231073177], [88.17640441815705, 27.898364741483856], [88.17599806046823, 27.89836820973544], [88.17600001204022, 27.898548720164086], [88.17620319123048, 27.898546986182026], [88.17620514315281, 27.89872749659271], [88.17661150215318, 27.898724027685358], [88.17660759697901, 27.89836300690891], [88.176810775783, 27.898361272037516], [88.17681272869348, 27.89854178242125], [88.17701590781188, 27.898540047226465], [88.17701786108168, 27.89872055759223], [88.1774242199473, 27.89871708629536], [88.1774203120692, 27.898356065617726], [88.17762349080132, 27.898354329551573], [88.17762153655235, 27.89817381922174], [88.17782471492515, 27.898172082859144], [88.17784035209694, 27.899616165264252], [88.17824671417851, 27.899612691443114], [88.1782428034348, 27.899251670918193], [88.1784459837749, 27.89924993358542], [88.17844793947016, 27.899430443834405], [88.17865112013367, 27.899428706187216], [88.1786609006042, 27.900331257288414], [88.17886408292958, 27.9003295192819], [88.17887190897149, 27.901051560026314], [88.17907509263536, 27.901049821660475], [88.17908096336829, 27.90159135211997], [88.17928414802032, 27.901589613421752], [88.17928610530558, 27.901770123553955], [88.17948929027202, 27.90176838453235], [88.17949124791662, 27.901948894646587], [88.17969443319745, 27.90194715531955], [88.17969834921429, 27.902308175512093], [88.18030790698819, 27.902302955644522], [88.18031182508912, 27.90266397573825], [88.18051501165455, 27.902662235153574], [88.18051893051006, 27.903023255202385], [88.1803157432709, 27.90302499580503], [88.18031378417102, 27.90284448577164], [88.18011059725525, 27.902846226068856], [88.18010863851471, 27.902665716017502], [88.17990545191334, 27.90266745600031], [88.1799074103215, 27.902847966060648], [88.17970422336082, 27.90284970575599], [88.17970030724517, 27.90248868559938], [88.17909074829447, 27.90249390280794], [88.1790946623889, 27.9028549230454], [88.1792978494035, 27.902853184248368], [88.17929980681454, 27.90303369434464], [88.17950299414353, 27.9030319552332], [88.1795108253238, 27.903753995528454], [88.17991720262286, 27.903750516308442], [88.17991916113883, 27.903931026341834], [88.18012235009377, 27.903929286269193], [88.18012430896009, 27.90410979628462], [88.18032749823843, 27.90410805589757], [88.18032945746407, 27.904288565895026], [88.18012626785334, 27.90429030630004], [88.18012822675558, 27.904470816306482], [88.18033141670766, 27.904469075892482], [88.18033337596923, 27.904649585880957], [88.18013018568477, 27.904651326303938], [88.18013410358807, 27.90501234629885], [88.18033729454626, 27.905010605839937], [88.18033925386173, 27.905191115819427], [88.18054244514332, 27.905189375055087], [88.18054636451087, 27.90555039496017], [88.18095274836762, 27.905546912479274], [88.18094686733102, 27.905005382693517], [88.18074367641773, 27.905007124041763], [88.18073779655792, 27.904465594166172], [88.18053460664179, 27.90446733518204], [88.1805306874988, 27.904106315214076], [88.18073387674121, 27.90410457423414], [88.1807358366406, 27.90428508420465], [88.18093902619741, 27.90428334290132], [88.18094490701841, 27.90482487274996], [88.18114809757238, 27.904823131114252], [88.18115594026905, 27.90554517078967], [88.18135913215251, 27.905543428803618], [88.18136305427788, 27.905904448582938], [88.18156624681711, 27.905902706273494], [88.1815682082526, 27.906083216145188], [88.18177140110625, 27.90608147351235], [88.18177336289207, 27.90626198336608], [88.18217974922817, 27.906258497184123], [88.18218171170571, 27.9064390070109], [88.18238490518817, 27.906437263452798], [88.18238686801605, 27.90661777326161], [88.18279325559183, 27.906614285229125], [88.1827952191204, 27.906794795002003], [88.18299841321371, 27.90679305052762], [88.18300037709261, 27.906973560282534], [88.18320357150932, 27.906971815484756], [88.18320160729803, 27.90679130574781], [88.18340480135542, 27.906789560671555], [88.18340873048766, 27.907150580118497], [88.18361192520081, 27.90714883471885], [88.18361389013074, 27.907329344419864], [88.18523944991108, 27.907315370317136], [88.1852374822862, 27.907134860714937], [88.18544067683764, 27.907133112620343], [88.1854426447949, 27.907313622204576], [88.18584903452664, 27.90731012508114], [88.1858510031756, 27.907490634638425], [88.18646058864456, 27.90748538667155], [88.18646255832658, 27.907665896174933], [88.18686894921714, 27.90766239600621], [88.18686303819477, 27.907120867540975], [88.18665984376909, 27.907122617737627], [88.18665787380858, 27.90694210822526], [88.18625148557705, 27.9069456076933], [88.18624951629926, 27.906765098153983], [88.18584312866959, 27.906768596391327], [88.18583919152437, 27.90640757724083], [88.18624557780657, 27.9064040790484], [88.18624754703944, 27.906584588605682], [88.18645074049495, 27.906582839046834], [88.18645271008714, 27.90676334857717], [88.18685909760902, 27.906759848543192], [88.18686106789292, 27.906940358046576], [88.18706426196826, 27.906938607562463], [88.1870662326025, 27.90711911704788], [88.18726942699226, 27.90711736625834], [88.1872713979948, 27.907297875725792], [88.18747459269898, 27.90729612461286], [88.18747853542273, 27.907657143502846], [88.18727534003584, 27.907658894642726], [88.18727731109229, 27.90783940409221], [88.18788689819618, 27.907834149756283], [88.18788295408903, 27.907473130920195], [88.18828934404534, 27.90746962658329], [88.18828539866257, 27.907108607792118], [88.18848859294454, 27.90710685520595], [88.18848661993874, 27.906926345810362], [88.18868981387037, 27.906924592936733], [88.18869376056468, 27.907285611682987], [88.1891001497035, 27.907282104974527], [88.18910212375135, 27.907462614316216], [88.18971170833996, 27.907457351976298], [88.18972355908588, 27.90854040768506], [88.18992675593701, 27.908538652889032], [88.18992280493978, 27.908177634367355], [88.19012600109023, 27.908175879301837], [88.19012797691674, 27.908356388544707], [88.19033117339059, 27.908354633164777], [88.19032722108182, 27.907993614688017], [88.18992082946363, 27.907997125097534], [88.18991885401441, 27.90781661581873], [88.19052844039966, 27.907811349804703], [88.1905264639623, 27.907630840561833], [88.19072965904377, 27.90762908463393], [88.19073163583147, 27.907809593867817], [88.19134122200111, 27.907804324251547], [88.19134319981289, 27.907984833431534], [88.19195278682696, 27.907979561084385], [88.19195674453461, 27.908340579345552], [88.19215994083777, 27.908338821270675], [88.19215598246538, 27.907977803027475], [88.19235917807684, 27.907976044683107], [88.19236115759541, 27.90815655379123], [88.1929707453461, 27.90815127690759], [88.19296282334616, 27.90742924060085], [88.19357240689273, 27.907423961183962], [88.19357438836963, 27.907604470229206], [88.19398077798458, 27.9076009490938], [88.1939768136833, 27.907239931057216], [88.19438320186993, 27.90723640877197], [88.1943812190725, 27.907055899771642], [88.19458441280649, 27.907054138193338], [88.1945784635159, 27.906512611210324], [88.19478165621682, 27.906510849371504], [88.19478562306932, 27.90687186734521], [88.19559839637932, 27.906864816890753], [88.19560236599862, 27.907225834738693], [88.19580555994821, 27.907224071354772], [88.19580953032211, 27.907585089148814], [88.19601272492746, 27.907583325441504], [88.19601471048271, 27.907763834316064], [88.19621790541146, 27.907762070285358], [88.19622982111454, 27.908845123380022], [88.19663621496056, 27.908841594267578], [88.1966342282914, 27.9086610854559], [88.19724381791956, 27.90865578958187], [88.19723785498356, 27.908114263245643], [88.19764424595496, 27.90811073124961], [88.19764822258112, 27.90847174875619], [88.19805461481916, 27.908468215502516], [88.19805660383292, 27.908648724224363], [88.19825980027085, 27.908646957139386], [88.19825781091572, 27.90846644842652], [88.19846100699431, 27.90846468105408], [88.1984570276732, 27.908103663655297], [88.19866022306009, 27.908101896004382], [88.19866420305493, 27.908462913376212], [88.19886739908861, 27.908461145410886], [88.19886540875432, 27.908280636733952], [88.19906860443766, 27.90827886847218], [88.19907656726602, 27.9090009030811], [88.19948296127373, 27.908997365551443], [88.19948495269499, 27.909177874165497], [88.19968815001326, 27.909176104942528], [88.19968615825064, 27.90899559633746], [88.19988935520958, 27.90899382682703], [88.19989134731355, 27.90917433541413], [88.2005009390887, 27.909169025041294], [88.20050293221675, 27.90934953358348], [88.20070612977756, 27.90934776284236], [88.20070413630815, 27.909167254318138], [88.20090733350963, 27.90916548329854], [88.2009093273204, 27.909345991813776], [88.20151891983217, 27.90934067690445], [88.20151692501527, 27.909160168434127], [88.20212651635023, 27.909154850865786], [88.20212851217323, 27.909335359300176], [88.20273810435262, 27.909330039000956], [88.20274010121766, 27.90951054739043], [88.20294329891323, 27.909508773343507], [88.20294529611962, 27.90968928171501], [88.20314849413857, 27.909687507362662], [88.2031504917043, 27.909868015707218], [88.20335369003767, 27.90986624104046], [88.20336168185469, 27.91058827433784], [88.20376808115347, 27.910584723989224], [88.20377007982412, 27.910765232279882], [88.20417647973377, 27.910761680700574], [88.20417847909613, 27.9109421889553], [88.20438167936088, 27.910940412707504], [88.20437967965715, 27.910759904461763], [88.20458287956257, 27.910758127926506], [88.20458487959867, 27.910938636154285], [88.20499128002933, 27.910935082158506], [88.20499728229359, 27.911476606734038], [88.20540368466462, 27.911473051453672], [88.20540568612903, 27.911653559609583], [88.20520248461563, 27.91165533741146], [88.20520448576565, 27.911835845576356], [88.20479808199325, 27.91183940030875], [88.20479608152596, 27.911658892116908], [88.20459287994967, 27.91166066902047], [88.2045908798417, 27.91148016081066], [88.20438767857983, 27.911481937399817], [88.20438567882222, 27.91130142917204], [88.2035728749695, 27.911308532483368], [88.20357687180775, 27.911669549037732], [88.20398327512201, 27.91166599792555], [88.20398527425081, 27.911846506171294], [88.20418847621337, 27.91184473015706], [88.20419047569251, 27.912025238375854], [88.20439367797846, 27.91202346204721], [88.20439567780795, 27.91220397025702], [88.20459888040831, 27.912202193613968], [88.20460088060611, 27.912382701796826], [88.20480408352087, 27.91238092483936], [88.204806084069, 27.91256143301324], [88.20500928730718, 27.912559655741365], [88.20501128821464, 27.912740163897276], [88.20521449176721, 27.91273838631099], [88.20521649302502, 27.912918894448936], [88.20582610459903, 27.91291355985752], [88.2058281068899, 27.91309406795055], [88.20603131105332, 27.913092289142558], [88.20603331369453, 27.913272797208634], [88.20623651817237, 27.91327101808623], [88.20623852117292, 27.913451526143326], [88.20644172596516, 27.913449746706515], [88.20644372932503, 27.91363025473666], [88.20664693443169, 27.91362847499442], [88.20665094187906, 27.91398949101878], [88.20685414765047, 27.913987710944163], [88.20686617243598, 27.915070758819613], [88.20503730161965, 27.91508676942106], [88.20503930277864, 27.9152672775051], [88.19995908975423, 27.915311624411157], [88.19995709702143, 27.915131115994733], [88.19894105471658, 27.915139962837213], [88.19893906369059, 27.914959454339943], [88.19873585551169, 27.914961222799345], [88.19873386484502, 27.91478071429309], [88.19853065698054, 27.914782482429096], [88.19852866667318, 27.91460197390488], [88.19832545913209, 27.91460374173546], [88.1983234691751, 27.914423233193272], [88.1981202619484, 27.914425000709443], [88.19811827235074, 27.914244492140305], [88.19527337401583, 27.914269205737003], [88.19527138915228, 27.91408869697922], [88.19405214793017, 27.914099270464526], [88.19405016511477, 27.913918761616912], [88.1930341319368, 27.91392756454974], [88.19303611307235, 27.914108073460238], [88.19262969900525, 27.914111592565447], [88.19263167947605, 27.91429210149391], [88.19242847207869, 27.91429386061083], [88.1924324324184, 27.914654878476735], [88.19222922432034, 27.914656637324164], [88.19222724447837, 27.914476128377736], [88.1903983738507, 27.91449194435019], [88.190396397063, 27.914311435277998], [88.1881611124311, 27.914330732806082], [88.18815913937142, 27.914150223581178], [88.18673668672749, 27.914162484866154], [88.18673471604833, 27.913981975542434], [88.18632830151411, 27.913985476043532], [88.18632633152666, 27.913804966692865], [88.18510708952302, 27.91381546091981], [88.18510905748028, 27.91399597035133], [88.18449943521631, 27.914001213458317], [88.1845033691725, 27.914362232384235], [88.1843001610475, 27.91436397951763], [88.18430212771119, 27.914544488985083], [88.18369250219533, 27.91454972862457], [88.18369053653777, 27.914369219112206], [88.18308091186631, 27.914374456011835], [88.18307894724181, 27.914193946454553], [88.18287573931444, 27.914195691476905], [88.18287377504926, 27.914015181901657], [88.18246735982333, 27.91401867101212], [88.18246539624087, 27.913838161409924], [88.18205898161682, 27.913841649298675], [88.18205701873505, 27.913661139660544], [88.18185381173294, 27.91366288314678], [88.18185184920151, 27.913482373490684], [88.18164864252279, 27.91348411666251], [88.18164471818756, 27.913123097314383], [88.18144151216461, 27.91312484015383], [88.18143758857498, 27.91276382076079], [88.18123438320781, 27.912765563276846], [88.18123046037276, 27.912404543838885], [88.18102725565238, 27.912406286031548], [88.18102137254965, 27.91186475679376], [88.18122457624595, 27.911863014646016], [88.1812128084954, 27.910779956125527], [88.1810096068203, 27.910781698192427], [88.1809998025444, 27.909879149220238], [88.18120300253966, 27.90987740721622], [88.18119515810025, 27.90915536800793], [88.18139835673006, 27.909153625752385], [88.1813963953305, 27.90897311595256], [88.18159959360098, 27.908971373418535], [88.18159567017305, 27.90861035381888], [88.18179886775182, 27.908608611006382], [88.18178513398436, 27.907345042380637], [88.18158193876816, 27.907346785103307], [88.18157997720691, 27.907166275267546], [88.18137678231409, 27.907168017675804], [88.18136893761417, 27.906445978224966], [88.18035296959101, 27.90645468550518], [88.1803510101408, 27.906274175561624], [88.18014781682004, 27.90627591611037], [88.1801497759289, 27.90645642606291], [88.1799465822488, 27.90645816631521], [88.1799446234813, 27.906277656353687], [88.17852226958918, 27.906289829675632], [88.17852031319323, 27.906109319615293], [88.17831712005214, 27.906111057451124], [88.17831516401552, 27.905930547363837], [88.177502392583, 27.90593749566188], [88.17750043791182, 27.905756985520693], [88.17729724534564, 27.90575872182939], [88.17729529103379, 27.90557821167922], [88.17688890652127, 27.90558168337135], [88.17688695290113, 27.905401173185243], [88.17648056899945, 27.905404643655665], [88.17647861606203, 27.905224133433627], [88.17627542442112, 27.90522586821519], [88.176273471852, 27.905045357975187], [88.1760702805255, 27.905047092433357], [88.17606247175819, 27.904325051383516], [88.17585928176119, 27.90432678549134], [88.17585732994665, 27.904146275206422], [88.17565414027305, 27.904148008999837], [88.17565218881785, 27.903967498696954], [88.17544899945865, 27.903969232175957], [88.17544509728486, 27.90360821152527], [88.17524190858144, 27.90360994468088], [88.17523995785386, 27.903429434342065], [88.17503676947383, 27.903431167183264], [88.17503286874633, 27.903070146451732], [88.17482968102206, 27.903071878969538], [88.17482773103112, 27.902891368576825], [88.17442135619345, 27.902894832696155], [88.1744194068852, 27.90271432227649], [88.17380984551805, 27.902719516164783], [88.17380789724288, 27.902539005700202], [88.17319833672013, 27.902544196857615], [88.17319638946904, 27.90236368634812], [88.17299320293056, 27.90236541611708], [88.17299125603878, 27.902184905598602], [88.17278806981471, 27.90218663505315], [88.17278612328228, 27.902006124507725], [88.17258293738159, 27.902007853656848], [88.1725809911995, 27.90182734309345], [88.17136187743036, 27.90183771161016], [88.17136382158226, 27.9020182222544], [88.17075426344903, 27.90202340250627], [88.1707562066128, 27.902203913186444], [88.1705530201911, 27.902205639353163], [88.17055496304043, 27.90238615003334], [88.17014858946939, 27.902389601495408], [88.17014664730277, 27.902209090779298], [88.16994346082717, 27.902210816047702], [88.16994151901088, 27.902030305322608], [88.16973833285867, 27.9020320302766], [88.16973639139273, 27.90185151953354], [88.16953320555494, 27.90185324417312], [88.16953126444832, 27.9016727334121], [88.16912489340154, 27.90167618177498], [88.16912295297765, 27.901495670978022], [88.16871658253275, 27.901499118119194], [88.16871464280953, 27.901318607286303], [88.16851145789701, 27.90132033039875], [88.16850951852413, 27.901139819556878], [88.16789996468485, 27.9011449870347], [88.16789802634506, 27.900964476147912], [88.16708528899461, 27.900971361878295], [88.16708722598693, 27.901151872818982], [88.1656649325604, 27.9011639114116], [88.16566686720813, 27.901344422433134], [88.16526049682612, 27.901347859360463], [88.16526243081807, 27.90152837040895], [88.16485605969045, 27.901531806168467], [88.16485799302664, 27.901712317234917], [88.16424843518087, 27.901717468659847], [88.16425036752891, 27.901897979762232], [88.16404718120603, 27.90189969632596], [88.16404911323067, 27.902080207428344], [88.16364273986625, 27.90208363967545], [88.16364080851534, 27.901903128537132], [88.16343762213855, 27.90190484419356], [88.16343569114696, 27.901724333037276], [88.1636388771824, 27.901722617398814], [88.16363308329136, 27.901181083938948], [88.16383626829372, 27.901179368039973], [88.16382854200972, 27.900457323414837], [88.16403172564665, 27.900455607264337], [88.1640278619387, 27.90009458495177], [88.16423104488393, 27.90009286852279], [88.16422718057413, 27.899731846219204], [88.16443036283663, 27.89973012952073], [88.16442843036282, 27.89954961837343], [88.164631612266, 27.899547901387496], [88.16462774671652, 27.89918687910188], [88.164830927928, 27.899185161846447], [88.16482899484333, 27.899004650708132], [88.16503217569547, 27.899002933156257], [88.16502830889733, 27.898641910897588], [88.16523148906677, 27.898640193076222], [88.16522762166676, 27.898279170826534], [88.16543080114448, 27.898277452735673], [88.16542886713455, 27.89809694161532], [88.16563204625295, 27.898095223236997], [88.16562817761327, 27.897734201005278], [88.16583135603996, 27.897732482348477], [88.1658294214102, 27.89755197123711], [88.16603259947757, 27.89755025230183], [88.1660306645334, 27.897369741199444], [88.16623384225042, 27.897368021976703], [88.16623190698286, 27.897187510883303], [88.16663826168029, 27.897184071557472], [88.16663438986058, 27.896823049406603], [88.16643121318559, 27.89682476919528]], [[88.16723810911513, 27.896276355116445], [88.1672400459817, 27.896456866164932], [88.16703687003435, 27.896458586824977], [88.16703493350914, 27.896278075758524], [88.16723810911513, 27.896276355116445]], [[88.16804887316334, 27.896088958544187], [88.16865839864282, 27.896083791255013], [88.168660337845, 27.896264302222647], [88.16805081135044, 27.896269469547757], [88.16804887316334, 27.896088958544187]], [[88.17148924180204, 27.894796066032963], [88.1714911855946, 27.89497657684789], [88.17169435844276, 27.89497484971099], [88.17169630258569, 27.895155360507946], [88.17108678297222, 27.89516054106524], [88.17108483983542, 27.89498003022337], [88.1712880127195, 27.89497830368834], [88.17128606926829, 27.89479779285545], [88.17148924180204, 27.894796066032963]], [[88.18013410358807, 27.90501234629885], [88.18013606256217, 27.905192856287325], [88.17993287124466, 27.905194596449796], [88.17993091260293, 27.905014086452336], [88.18013410358807, 27.90501234629885]], [[88.19357438836963, 27.907604470229206], [88.1935783513953, 27.907965488301723], [88.19378154689, 27.907963727855297], [88.19378551066127, 27.908324745882897], [88.19337911831543, 27.90832826652423], [88.19337515589163, 27.907967248442727], [88.19317196037, 27.907969008296266], [88.1931679986918, 27.907607990169847], [88.19357438836963, 27.907604470229206]], [[88.16624545422412, 27.898451088429315], [88.1664486339444, 27.898449368829283], [88.16645250542277, 27.898810390917273], [88.16624932502876, 27.898812110544256], [88.16624545422412, 27.898451088429315]], [[88.1666401976216, 27.897364582623926], [88.16684337528473, 27.89736286250287], [88.16684143901105, 27.8971823514454], [88.16704461631485, 27.897180631036886], [88.16704848956289, 27.89754165311589], [88.16664213358086, 27.89754509369038], [88.1666401976216, 27.897364582623926]], [[88.16905117023823, 27.894816768193778], [88.16925434296961, 27.894815044659122], [88.16925628305215, 27.894995555617776], [88.16905310998838, 27.894997279170397], [88.16905117023823, 27.894816768193778]], [[88.1698968621591, 27.89787855726208], [88.17010004054987, 27.89787683230809], [88.1701019822853, 27.898057343131995], [88.16989880356216, 27.898059068103954], [88.1698968621591, 27.89787855726208]], [[88.17130939194054, 27.896963922490805], [88.17151256850772, 27.89696219550662], [88.1715145125159, 27.897142706267648], [88.17131133560736, 27.897144433260816], [88.17130939194054, 27.896963922490805]], [[88.17151645655103, 27.89732321701969], [88.17192281098795, 27.897319762099105], [88.17192475570579, 27.8975002728242], [88.17151840059513, 27.89750372777173], [88.17151645655103, 27.89732321701969]], [[88.17210459375444, 27.895332416069913], [88.17230776722243, 27.89533068800775], [88.1723116576283, 27.89569170950285], [88.17210848348657, 27.895693437591962], [88.17210459375444, 27.895332416069913]], [[88.17212598818395, 27.897318034189656], [88.17232916536199, 27.897316305983765], [88.17233111075357, 27.897496816681908], [88.17212793324316, 27.897498544905766], [88.17212598818395, 27.897318034189656]], [[88.1723350015996, 27.897857838060226], [88.1725381797658, 27.897856109512972], [88.17254012555263, 27.89803662018417], [88.1723369470451, 27.898038348740403], [88.1723350015996, 27.897857838060226]], [[88.17417724420726, 27.899105844209103], [88.17438042457431, 27.899104112877076], [88.17438237352322, 27.89928462338657], [88.1741791928148, 27.899286354736567], [88.17417724420726, 27.899105844209103]], [[88.17459919967673, 27.900546465126943], [88.17480238270281, 27.90054473309423], [88.1748004329544, 27.90036422263863], [88.17500361563012, 27.90036249030947], [88.17500166556731, 27.900181979862854], [88.1752048478837, 27.900180247255218], [88.17520289749748, 27.899999736817588], [88.17540607945456, 27.899998003922487], [88.17540998091869, 27.9003590247708], [88.17561316353154, 27.900357291543326], [88.17561511462742, 27.900537801954005], [88.17581829755467, 27.900536068421104], [88.17582024900989, 27.900716578804836], [88.17561706573228, 27.900718312346722], [88.1756190168641, 27.90089882273944], [88.17521264959025, 27.90090228896981], [88.1752185010633, 27.901443820192874], [88.17481213169637, 27.90144728530035], [88.17481018185813, 27.901266774871704], [88.17460699748459, 27.901268506958317], [88.17459919967673, 27.900546465126943]], [[88.17704520878134, 27.901247702120067], [88.17745157707027, 27.90124423045489], [88.1774535312923, 27.90142474071286], [88.17725034681095, 27.901426476716125], [88.17725230070958, 27.90160698698308], [88.17704911587789, 27.901608722689904], [88.17704520878134, 27.901247702120067]], [[88.17723667004161, 27.900162904694753], [88.1774398521514, 27.900161168790298], [88.17744180626562, 27.900341679075215], [88.17723862380548, 27.900343414997636], [88.17723667004161, 27.900162904694753]], [[88.17746134833308, 27.902146781708797], [88.17766453414393, 27.90214504536417], [88.17766257951767, 27.90196453513315], [88.17806895039377, 27.901961061572525], [88.17807481634766, 27.902502592157784], [88.17787162990798, 27.902504329131233], [88.17787358492052, 27.902684839335304], [88.17746721131356, 27.902688312410838], [88.17746134833308, 27.902146781708797]], [[88.17787945008389, 27.903226369902594], [88.17808263788002, 27.90322463288423], [88.17808459330578, 27.903405143052368], [88.17788140517727, 27.9034068800887], [88.17787945008389, 27.903226369902594]], [[88.17806112937345, 27.90123902071133], [88.17826431344156, 27.90123728353127], [88.17826626901105, 27.901417793744322], [88.17806308460158, 27.901419530933367], [88.17806112937345, 27.90123902071133]], [[88.17867850658664, 27.901955848972325], [88.17888169193934, 27.901954110840048], [88.1788836485958, 27.902134620990218], [88.17868046289274, 27.90213635913148], [88.17867850658664, 27.901955848972325]], [[88.17910249080236, 27.903576963457432], [88.17930567916443, 27.903575224606506], [88.17930763664734, 27.903755734693792], [88.1791044479529, 27.903757473553707], [88.17910249080236, 27.903576963457432]], [[88.18054832421261, 27.905730904912712], [88.18075151649133, 27.90572916380701], [88.1807534765524, 27.9059096737326], [88.1805502839413, 27.905911414847285], [88.18054832421261, 27.905730904912712]], [[88.18239471953417, 27.907339812424986], [88.18259791467852, 27.90733806850756], [88.18259987793759, 27.907518578271453], [88.1823966824519, 27.90752032220685], [88.18239471953417, 27.907339812424986]], [[88.18321535719923, 27.908054873834562], [88.18341855361919, 27.908053128659496], [88.18342051830658, 27.908233638351525], [88.18321732154527, 27.908235383535576], [88.18321535719923, 27.908054873834562]], [[88.1838249464052, 27.90804963742901], [88.18402814278022, 27.908047891355626], [88.18403010847373, 27.908228401011723], [88.18382691176632, 27.908230147094088], [88.1838249464052, 27.90804963742901]], [[88.18870165416887, 27.90800764913058], [88.18910804601164, 27.908004142314326], [88.18911002013134, 27.908184651638045], [88.18870362761483, 27.90818815847227], [88.18870165416887, 27.90800764913058]], [[88.18910409781715, 27.907643123657902], [88.18930729303337, 27.907641369832056], [88.18930926745848, 27.907821879146795], [88.1891060719099, 27.907823632990606], [88.18910409781715, 27.907643123657902]], [[88.19073558945178, 27.908170612299664], [88.19093878553036, 27.9081688560304], [88.19094273990527, 27.908529874426314], [88.19073954314396, 27.90853163071354], [88.19073558945178, 27.908170612299664]], [[88.19478760651353, 27.90705237631859], [88.19539718753583, 27.907047088897706], [88.19540115651733, 27.90740810675463], [88.19519796219046, 27.907409869554645], [88.1951959780276, 27.9072293606172], [88.19499278401513, 27.907231123102804], [88.19499476784561, 27.907411632058217], [88.19479157347382, 27.90741339425636], [88.19478760651353, 27.90705237631859]], [[88.1998973237243, 27.909715861139503], [88.20010052201275, 27.90971409127873], [88.20010251452995, 27.9098945998299], [88.19989931590014, 27.90989636970864], [88.1998973237243, 27.909715861139503]], [[88.2025408966054, 27.909873337928833], [88.20274409499267, 27.909871564151405], [88.20274808883954, 27.91023258089442], [88.20254488977854, 27.910234354689813], [88.2025408966054, 27.909873337928833]], [[88.17703153449133, 27.89998412997293], [88.17702567434954, 27.89944259898343], [88.17722885513881, 27.899440863429316], [88.17722690145578, 27.899260353099482], [88.17702372100787, 27.899262088644612], [88.17701981437843, 27.898901067949012], [88.1774261739088, 27.898897596625194], [88.17743008188572, 27.899258617266895], [88.17763326229769, 27.899256881128878], [88.17764107982357, 27.89997892230448], [88.17703153449133, 27.89998412997293]], [[88.16786120131135, 27.897534768373653], [88.1678670153516, 27.898076301294534], [88.16766383643981, 27.898078022969674], [88.16766577415079, 27.898258533946294], [88.16746259487968, 27.898260255333973], [88.16746065750108, 27.89807974434837], [88.16725747854437, 27.89808146542164], [88.16725166752246, 27.897539932374997], [88.16786120131135, 27.897534768373653]], [[88.20193928371154, 27.91060069112119], [88.20153288407138, 27.910604236079912], [88.20153088912873, 27.91042372763654], [88.20112449009046, 27.910427271373557], [88.20112249583053, 27.910246762903235], [88.2009192966258, 27.910248534300127], [88.2009173027252, 27.910068025811842], [88.20152689928835, 27.9100627107498], [88.20152889419506, 27.91024321919317], [88.2017320933459, 27.910241446897963], [88.20173408861194, 27.91042195532337], [88.20193728808617, 27.91042018270477], [88.20193928371154, 27.91060069112119]], [[88.17703153449133, 27.89998412997293], [88.17703348790486, 27.90016464029378], [88.17683030575016, 27.900166375596363], [88.176828352669, 27.89998586526653], [88.17703153449133, 27.89998412997293]], [[88.16786120131135, 27.897534768373653], [88.16785926333087, 27.89735425738805], [88.16806244087722, 27.897352535470365], [88.16806437919905, 27.897533046446984], [88.16786120131135, 27.897534768373653]], [[88.20336967395914, 27.91131030756335], [88.20337167203692, 27.91149081585401], [88.2029652692886, 27.911494365142612], [88.20296327188457, 27.911313856816022], [88.20276007082033, 27.91131563099769], [88.20275807377561, 27.91113512266212], [88.20255487303477, 27.911136896529378], [88.2025528763404, 27.910956388166856], [88.20214647546956, 27.91095993497611], [88.20214447947589, 27.910779426586636], [88.20194127934589, 27.91078119952863], [88.20193928371154, 27.91060069112119], [88.20214248350017, 27.910598918197163], [88.20214048754242, 27.910418409798705], [88.20234368697173, 27.910416636578233], [88.20234568327083, 27.910597144967706], [88.20275208275828, 27.910593597610482], [88.20275407974908, 27.910774105964023], [88.20295727979823, 27.910772331827268], [88.20295927713939, 27.910952840162842], [88.20336567786649, 27.910949290955088], [88.20336767590832, 27.911129799263712], [88.20357087657732, 27.91112802419271], [88.2035728749695, 27.911308532483368], [88.20336967395914, 27.91131030756335]]], [[[88.20336967395914, 27.91131030756335], [88.20316647293085, 27.91131208233791], [88.2031644752124, 27.911131574029284], [88.20336767590832, 27.911129799263712], [88.20336967395914, 27.91131030756335]]], [[[88.17782471492515, 27.898172082859144], [88.17782276036178, 27.897991572538295], [88.17761958233034, 27.897993308882924], [88.17762153655235, 27.89817381922174], [88.17741835816159, 27.898175555278907], [88.17741640427195, 27.897995044931108], [88.17721322620457, 27.897996780673868], [88.17721127266528, 27.897816270308102], [88.17700809491232, 27.89781800574543], [88.17700614173235, 27.8976374953617], [88.17680296430278, 27.897639230475637], [88.17680101147315, 27.89745872007394], [88.17700418857034, 27.897456984968983], [88.17699051693936, 27.896193412112176], [88.17678734220473, 27.8961951471273], [88.17678538952781, 27.896014636680686], [88.1765822151076, 27.896016371381396], [88.17657050142664, 27.89493330855798], [88.17636732900968, 27.8949350428814], [88.17636342526383, 27.89457402187139], [88.17676976873233, 27.894570552982003], [88.17676781621711, 27.894390042490475], [88.17697098758303, 27.8943883076101], [88.17697294043963, 27.894568818083663], [88.17717611212895, 27.894567082888877], [88.17717806533587, 27.89474759333549], [88.1773812373486, 27.89474585783528], [88.17738514449007, 27.895106878701558], [88.17758831715858, 27.895105142859986], [88.17759417902514, 27.895646674083046], [88.17779735267278, 27.89564493791808], [88.1777993070026, 27.895825448301814], [88.17820565493572, 27.89582197502865], [88.17820760995724, 27.896002485385434], [88.17841078423372, 27.89600074828622], [88.17841469500439, 27.89636176895487], [88.17861786993664, 27.89636003153226], [88.17862178145292, 27.89672105214701], [88.17882495703196, 27.89671931440101], [88.17883082545622, 27.897260845255765], [88.17903400203238, 27.897259107168402], [88.1790359585541, 27.89743961742637], [88.17883278163656, 27.897441355531697], [88.1788347378259, 27.89762186579865], [88.1784283832632, 27.897625341128958], [88.17843033880574, 27.897805851422856], [88.17802398349745, 27.897809325585353], [88.17802789327997, 27.89817034620909], [88.17782471492515, 27.898172082859144]], [[88.17760394916505, 27.89654922602866], [88.17780712450153, 27.89654748979183], [88.17780517009984, 27.896366979426062], [88.178008345086, 27.89636524290177], [88.17801225458106, 27.89672626359737], [88.17821543022298, 27.896724526749683], [88.17821934046366, 27.897085547400366], [88.17781298781438, 27.897089020862175], [88.17780907892119, 27.89672800014861], [88.17760590324333, 27.896729736403408], [88.17760394916505, 27.89654922602866]]], [[[88.18542886944444, 27.906050055007153], [88.18563206195671, 27.906048306687982], [88.18563403014754, 27.90622881629018], [88.18583722297423, 27.906227067656598], [88.18583919152437, 27.90640757724083], [88.18543280517031, 27.906411074229517], [88.18542886944444, 27.906050055007153]]]]}, "id": "+758+700", "properties": {"area_m2": 2741903.612834962, "count": 6841, "label": 1, "seed_distance_m": 0, "site_id": "south-lhonak", "recordId": "south-lhonak-lake", "kind": "lake", "status": "candidate", "observation_date": "2024-11-29", "scene_id": "COPERNICUS/S2_SR_HARMONIZED/20241129T044049_20241129T044137_T45RXL", "source": "Sentinel-2 spectral water baseline", "resolution_m": 20, "method": "NDWI > 0.05; MNDWI > 0.1; B8 < 2500; SCL rejects cloud, shadow, snow, invalid. Largest connected component >= 0.05 km2 within 1200 m of seed.", "limitations": "Candidate, not reviewed shoreline. Seasonal ice, terrain shadow and turbid water can cause omission or commission."}}]}