{"type": "FeatureCollection", "columns": {"area_m2": "Float", "count": "Long<0, 4294967295>", "label": "Integer", "seed_distance_m": "Float", "system:index": "String"}, "features": [{"type": "Feature", "geometry": {"geodesic": false, "type": "Polygon", "coordinates": [[[88.20521842158216, 27.915327117070955], [88.20521842158216, 27.91514745401413], [88.20503875852535, 27.91514745401413], [88.20503875852535, 27.915327117070955], [88.20414044324123, 27.915327117070955], [88.20414044324123, 27.91514745401413], [88.2039607801844, 27.91514745401413], [88.2039607801844, 27.915327117070955], [88.20054718210474, 27.915327117070955], [88.20054718210474, 27.91514745401413], [88.20036751904792, 27.91514745401413], [88.20036751904792, 27.914788127900483], [88.2001878559911, 27.914788127900483], [88.2001878559911, 27.91460846484366], [88.19982852987745, 27.91460846484366], [88.19982852987745, 27.914428801786833], [88.19731324708191, 27.914428801786833], [88.19731324708191, 27.91424913873001], [88.19695392096827, 27.91424913873001], [88.19695392096827, 27.914069475673188], [88.1971335840251, 27.914069475673188], [88.1971335840251, 27.913530486502715], [88.19695392096827, 27.913530486502715], [88.19695392096827, 27.913350823445892], [88.19641493179779, 27.913350823445892], [88.19641493179779, 27.913710149559538], [88.19623526874098, 27.913710149559538], [88.19623526874098, 27.91388981261636], [88.19605560568415, 27.91388981261636], [88.19605560568415, 27.914069475673188], [88.19551661651367, 27.914069475673188], [88.19551661651367, 27.91424913873001], [88.19533695345685, 27.91424913873001], [88.19533695345685, 27.914069475673188], [88.1949776273432, 27.914069475673188], [88.1949776273432, 27.91388981261636], [88.19479796428638, 27.91388981261636], [88.19479796428638, 27.914069475673188], [88.19389964900226, 27.914069475673188], [88.19389964900226, 27.91388981261636], [88.19282167066132, 27.91388981261636], [88.19282167066132, 27.913710149559538], [88.19066571397943, 27.913710149559538], [88.19066571397943, 27.91388981261636], [88.19012672480896, 27.91388981261636], [88.19012672480896, 27.914069475673188], [88.18994706175214, 27.914069475673188], [88.18994706175214, 27.91424913873001], [88.18797076812707, 27.91424913873001], [88.18797076812707, 27.914069475673188], [88.1874317789566, 27.914069475673188], [88.1874317789566, 27.91424913873001], [88.18725211589978, 27.91424913873001], [88.18725211589978, 27.914428801786833], [88.18689278978613, 27.914428801786833], [88.18689278978613, 27.91424913873001], [88.18653346367248, 27.91424913873001], [88.18653346367248, 27.914069475673188], [88.18635380061566, 27.914069475673188], [88.18635380061566, 27.91388981261636], [88.18617413755884, 27.91388981261636], [88.18617413755884, 27.913710149559538], [88.18599447450201, 27.913710149559538], [88.18599447450201, 27.913530486502715], [88.18473683310424, 27.913530486502715], [88.18473683310424, 27.913710149559538], [88.1843775069906, 27.913710149559538], [88.1843775069906, 27.91388981261636], [88.18401818087695, 27.91388981261636], [88.18401818087695, 27.914069475673188], [88.18383851782012, 27.914069475673188], [88.18383851782012, 27.914428801786833], [88.1836588547633, 27.914428801786833], [88.1836588547633, 27.91460846484366], [88.18311986559283, 27.91460846484366], [88.18311986559283, 27.914069475673188], [88.182940202536, 27.914069475673188], [88.182940202536, 27.91388981261636], [88.18258087642235, 27.91388981261636], [88.18258087642235, 27.913171160389066], [88.182940202536, 27.913171160389066], [88.182940202536, 27.913350823445892], [88.18311986559283, 27.913350823445892], [88.18311986559283, 27.913530486502715], [88.18329952864966, 27.913530486502715], [88.18329952864966, 27.913710149559538], [88.1836588547633, 27.913710149559538], [88.1836588547633, 27.913530486502715], [88.18383851782012, 27.913530486502715], [88.18383851782012, 27.913171160389066], [88.1836588547633, 27.913171160389066], [88.1836588547633, 27.912991497332243], [88.18347919170647, 27.912991497332243], [88.18347919170647, 27.91281183427542], [88.18329952864966, 27.91281183427542], [88.18329952864966, 27.912632171218597], [88.18311986559283, 27.912632171218597], [88.18311986559283, 27.91245250816177], [88.182940202536, 27.91245250816177], [88.182940202536, 27.912272845104948], [88.18240121336554, 27.912272845104948], [88.18240121336554, 27.91245250816177], [88.18222155030871, 27.91245250816177], [88.18222155030871, 27.91281183427542], [88.18240121336554, 27.91281183427542], [88.18240121336554, 27.913171160389066], [88.18186222419506, 27.913171160389066], [88.18186222419506, 27.913350823445892], [88.18132323502459, 27.913350823445892], [88.18132323502459, 27.913171160389066], [88.18096390891094, 27.913171160389066], [88.18096390891094, 27.912991497332243], [88.18060458279729, 27.912991497332243], [88.18060458279729, 27.91281183427542], [88.18078424585411, 27.91281183427542], [88.18078424585411, 27.912632171218597], [88.18060458279729, 27.912632171218597], [88.18060458279729, 27.91245250816177], [88.18042491974047, 27.91245250816177], [88.18042491974047, 27.912272845104948], [88.18024525668365, 27.912272845104948], [88.18024525668365, 27.912093182048125], [88.17952660445634, 27.912093182048125], [88.17952660445634, 27.911554192877652], [88.17988593057, 27.911554192877652], [88.17988593057, 27.91137452982083], [88.17970626751317, 27.91137452982083], [88.17970626751317, 27.910296551479885], [88.18006559362682, 27.910296551479885], [88.18006559362682, 27.909937225366235], [88.18024525668365, 27.909937225366235], [88.18024525668365, 27.90957789925259], [88.18042491974047, 27.90957789925259], [88.18042491974047, 27.909038910082117], [88.18060458279729, 27.909038910082117], [88.18060458279729, 27.908499920911645], [88.18078424585411, 27.908499920911645], [88.18078424585411, 27.90778126868435], [88.18096390891094, 27.90778126868435], [88.18096390891094, 27.907601605627526], [88.18114357196777, 27.907601605627526], [88.18114357196777, 27.907421942570704], [88.1815028980814, 27.907421942570704], [88.1815028980814, 27.907601605627526], [88.18186222419506, 27.907601605627526], [88.18186222419506, 27.90778126868435], [88.18204188725188, 27.90778126868435], [88.18204188725188, 27.907960931741172], [88.18258087642235, 27.907960931741172], [88.18258087642235, 27.908140594798], [88.18329952864966, 27.908140594798], [88.18329952864966, 27.90832025785482], [88.18383851782012, 27.90832025785482], [88.18383851782012, 27.908140594798], [88.18401818087695, 27.908140594798], [88.18401818087695, 27.90832025785482], [88.18509615921789, 27.90832025785482], [88.18509615921789, 27.908499920911645], [88.18653346367248, 27.908499920911645], [88.18653346367248, 27.90867958396847], [88.18689278978613, 27.90867958396847], [88.18689278978613, 27.908859247025294], [88.18707245284295, 27.908859247025294], [88.18707245284295, 27.90867958396847], [88.1874317789566, 27.90867958396847], [88.1874317789566, 27.908859247025294], [88.18761144201342, 27.908859247025294], [88.18761144201342, 27.90921857313894], [88.18797076812707, 27.90921857313894], [88.18797076812707, 27.909398236195766], [88.18833009424073, 27.909398236195766], [88.18833009424073, 27.90921857313894], [88.18850975729754, 27.90921857313894], [88.18850975729754, 27.909038910082117], [88.19066571397943, 27.909038910082117], [88.19066571397943, 27.90921857313894], [88.19102504009308, 27.90921857313894], [88.19102504009308, 27.909398236195766], [88.19246234454766, 27.909398236195766], [88.19246234454766, 27.90957789925259], [88.19354032288861, 27.90957789925259], [88.19354032288861, 27.909757562309412], [88.19551661651367, 27.909757562309412], [88.19551661651367, 27.909937225366235], [88.19821156236604, 27.909937225366235], [88.19821156236604, 27.91011688842306], [88.19893021459333, 27.91011688842306], [88.19893021459333, 27.910296551479885], [88.19982852987745, 27.910296551479885], [88.19982852987745, 27.910476214536708], [88.20036751904792, 27.910476214536708], [88.20036751904792, 27.910655877593534], [88.20072684516157, 27.910655877593534], [88.20072684516157, 27.910835540650357], [88.20108617127522, 27.910835540650357], [88.20108617127522, 27.91101520370718], [88.20162516044569, 27.91101520370718], [88.20162516044569, 27.911194866764003], [88.20198448655934, 27.911194866764003], [88.20198448655934, 27.91137452982083], [88.20234381267298, 27.91137452982083], [88.20234381267298, 27.911554192877652], [88.2025234757298, 27.911554192877652], [88.2025234757298, 27.911733855934475], [88.20288280184346, 27.911733855934475], [88.20288280184346, 27.911913518991298], [88.20342179101392, 27.911913518991298], [88.20342179101392, 27.912093182048125], [88.20378111712758, 27.912093182048125], [88.20378111712758, 27.912272845104948], [88.2039607801844, 27.912272845104948], [88.2039607801844, 27.91245250816177], [88.20414044324123, 27.91245250816177], [88.20414044324123, 27.912632171218597], [88.20432010629804, 27.912632171218597], [88.20432010629804, 27.91281183427542], [88.2046794324117, 27.91281183427542], [88.2046794324117, 27.912991497332243], [88.20485909546852, 27.912991497332243], [88.20485909546852, 27.913171160389066], [88.20539808463899, 27.913171160389066], [88.20539808463899, 27.913350823445892], [88.20557774769581, 27.913350823445892], [88.20557774769581, 27.913530486502715], [88.20575741075264, 27.913530486502715], [88.20575741075264, 27.913710149559538], [88.20611673686629, 27.913710149559538], [88.20611673686629, 27.91388981261636], [88.2062963999231, 27.91388981261636], [88.2062963999231, 27.914428801786833], [88.20647606297993, 27.914428801786833], [88.20647606297993, 27.914967790957306], [88.20665572603676, 27.914967790957306], [88.20665572603676, 27.91514745401413], [88.20539808463899, 27.91514745401413], [88.20539808463899, 27.915327117070955], [88.20521842158216, 27.915327117070955]], [[88.18096390891094, 27.909038910082117], [88.18078424585411, 27.909038910082117], [88.18078424585411, 27.908859247025294], [88.18096390891094, 27.908859247025294], [88.18096390891094, 27.909038910082117]], [[88.18850975729754, 27.909757562309412], [88.18833009424073, 27.909757562309412], [88.18833009424073, 27.90957789925259], [88.18850975729754, 27.90957789925259], [88.18850975729754, 27.909757562309412]], [[88.18186222419506, 27.910296551479885], [88.18168256113823, 27.910296551479885], [88.18168256113823, 27.91011688842306], [88.18186222419506, 27.91011688842306], [88.18186222419506, 27.910296551479885]], [[88.18797076812707, 27.910835540650357], [88.18707245284295, 27.910835540650357], [88.18707245284295, 27.910655877593534], [88.18653346367248, 27.910655877593534], [88.18653346367248, 27.910476214536708], [88.18617413755884, 27.910476214536708], [88.18617413755884, 27.910296551479885], [88.18545548533153, 27.910296551479885], [88.18545548533153, 27.909757562309412], [88.18707245284295, 27.909757562309412], [88.18707245284295, 27.909937225366235], [88.18833009424073, 27.909937225366235], [88.18833009424073, 27.91011688842306], [88.18850975729754, 27.91011688842306], [88.18850975729754, 27.910476214536708], [88.18833009424073, 27.910476214536708], [88.18833009424073, 27.910655877593534], [88.18797076812707, 27.910655877593534], [88.18797076812707, 27.910835540650357]], [[88.18563514838836, 27.911194866764003], [88.18545548533153, 27.911194866764003], [88.18545548533153, 27.91101520370718], [88.18563514838836, 27.91101520370718], [88.18563514838836, 27.911194866764003]], [[88.18617413755884, 27.911554192877652], [88.18581481144518, 27.911554192877652], [88.18581481144518, 27.91137452982083], [88.18617413755884, 27.91137452982083], [88.18617413755884, 27.911554192877652]], [[88.18833009424073, 27.912272845104948], [88.1881504311839, 27.912272845104948], [88.1881504311839, 27.912093182048125], [88.18833009424073, 27.912093182048125], [88.18833009424073, 27.912272845104948]], [[88.18689278978613, 27.913710149559538], [88.18635380061566, 27.913710149559538], [88.18635380061566, 27.91281183427542], [88.18653346367248, 27.91281183427542], [88.18653346367248, 27.912632171218597], [88.18761144201342, 27.912632171218597], [88.18761144201342, 27.91245250816177], [88.18833009424073, 27.91245250816177], [88.18833009424073, 27.912991497332243], [88.1881504311839, 27.912991497332243], [88.1881504311839, 27.913171160389066], [88.18761144201342, 27.913171160389066], [88.18761144201342, 27.913350823445892], [88.18689278978613, 27.913350823445892], [88.18689278978613, 27.913710149559538]], [[88.18311986559283, 27.91388981261636], [88.182940202536, 27.91388981261636], [88.182940202536, 27.913710149559538], [88.18311986559283, 27.913710149559538], [88.18311986559283, 27.91388981261636]]]}, "id": "+490948+155375", "properties": {"area_m2": 1209332.2745830517, "count": 3429, "label": 1, "seed_distance_m": 0, "site_id": "south-lhonak", "recordId": "south-lhonak-lake", "kind": "lake", "status": "candidate", "observation_date": "2025-10-25", "scene_id": "COPERNICUS/S2_SR_HARMONIZED/20251025T043759_20251025T044301_T45RXM", "source": "Sentinel-2 spectral water baseline", "resolution_m": 20, "method": "NDWI > 0.05; MNDWI > 0.1; B8 < 2500; SCL rejects cloud, shadow, snow, invalid. Largest connected component >= 0.05 km2 within 1200 m of seed.", "limitations": "Candidate, not reviewed shoreline. Seasonal ice, terrain shadow and turbid water can cause omission or commission."}}]}