{"type": "FeatureCollection", "columns": {"area_m2": "Float", "count": "Long<0, 4294967295>", "label": "Integer", "seed_distance_m": "Float", "system:index": "String"}, "features": [{"type": "Feature", "geometry": {"geodesic": false, "type": "Polygon", "coordinates": [[[88.18341069507623, 27.907331089837477], [88.18483306007154, 27.907318865634956], [88.18483502704066, 27.90749937525512], [88.18524141755393, 27.90749587991035], [88.18524338521473, 27.907676389494583], [88.18585297185152, 27.907671144186722], [88.1858510031756, 27.907490634638425], [88.18605419835588, 27.90748888560958], [88.18605616736416, 27.907669395148897], [88.18666575378533, 27.907664146238794], [88.18666772382669, 27.907844655733193], [88.18707411535506, 27.90784115493565], [88.18707214463997, 27.907660645468198], [88.18727534003584, 27.907658894642726], [88.18727731109229, 27.90783940409221], [88.18748050681155, 27.907837652943346], [88.18748247821834, 27.908018162374866], [88.18788887027671, 27.908014659160852], [88.18788689819618, 27.907834149756283], [88.18809009386155, 27.907832397709104], [88.18809206627445, 27.908012907104688], [88.18870165416887, 27.90800764913058], [88.18869968074087, 27.90782713977093], [88.18930926745848, 27.907821879146795], [88.18931124190159, 27.908002388461533], [88.18951443777357, 27.90800063430331], [88.189516412567, 27.908181143600082], [88.19012600109023, 27.908175879301837], [88.1901240252817, 27.907995370040997], [88.19032722108182, 27.907993614688017], [88.19032919723172, 27.908174123930888], [88.19114198159998, 27.908167099473676], [88.19114395910633, 27.908347608653667], [88.19215994083777, 27.908338821270675], [88.19216389929102, 27.908699839486925], [88.19196070230514, 27.908701597597734], [88.1919587234064, 27.90852108847164], [88.19134913335603, 27.908526360944556], [88.19135111124865, 27.90870687010658], [88.19155430828845, 27.90870511290307], [88.19155628652243, 27.908885622038145], [88.19338506209039, 27.90886979360606], [88.19338704337864, 27.90905030262435], [88.19419983338832, 27.909043259931337], [88.194201816051, 27.909223768886747], [88.19460821162178, 27.90922024571217], [88.19460622828537, 27.909039736783708], [88.19480942570245, 27.909037974756245], [88.19481140937124, 27.909218483675723], [88.19582739788497, 27.909209669001914], [88.19582938326056, 27.909390177849527], [88.19623577920864, 27.90938664985998], [88.19623379315931, 27.90920614103033], [88.1970465834834, 27.90919908150289], [88.1970485708892, 27.90937959027864], [88.19725176875542, 27.909377824630965], [88.19724978101726, 27.909197315873183], [88.19867216326023, 27.909184948074966], [88.19867415335197, 27.90936545673393], [88.19887735108347, 27.909363688687755], [88.19887934153454, 27.90954419733774], [88.19948893560937, 27.909538891375632], [88.1994909270935, 27.909719399971717], [88.20030372028323, 27.90971232111253], [88.2003057131328, 27.909892829654716], [88.2007121102936, 27.909889288397054], [88.20071410383488, 27.910069796903304], [88.20132370045194, 27.91006448273958], [88.20132569502627, 27.910244991200916], [88.2017320933459, 27.910241446897963], [88.20173408861194, 27.91042195532337], [88.20214048754242, 27.910418409798705], [88.20214248350017, 27.910598918197163], [88.20234568327083, 27.910597144967706], [88.20234767957893, 27.910777653348198], [88.20295727979823, 27.910772331827268], [88.20295927713939, 27.910952840162842], [88.20336567786649, 27.910949290955088], [88.20336767590832, 27.911129799263712], [88.20357087657732, 27.91112802419271], [88.2035728749695, 27.911308532483368], [88.20377607596187, 27.91130675710694], [88.20377807471338, 27.91148726537065], [88.20398127602016, 27.91148548967981], [88.20398327512201, 27.91166599792555], [88.20438967836441, 27.911662445618607], [88.20439167815796, 27.9118429538374], [88.20459488008458, 27.911841177221298], [88.20459287994967, 27.91166066902047], [88.20479608152596, 27.911658892116908], [88.20480008248748, 27.912019908491608], [88.20520648692464, 27.912016353732266], [88.20521048931448, 27.912377370035102], [88.20602330065915, 27.912370256815358], [88.2060253032285, 27.912550764899404], [88.20622850635887, 27.912548985839884], [88.20623050928754, 27.91272949390596], [88.20663691615913, 27.91272593484369], [88.20663891977951, 27.912906442882818], [88.20684212352971, 27.912904662889048], [88.20684813550474, 27.913446186943556], [88.2070513402431, 27.913444406608427], [88.20705334460908, 27.91362491460264], [88.2074597547146, 27.913621353007116], [88.20746175977229, 27.9138018609654], [88.20766496513048, 27.913800079713987], [88.20766697054748, 27.9139805876543], [88.20787017622007, 27.9139788060795], [88.20787218199641, 27.914159314001846], [88.20827859397042, 27.914155749935958], [88.20828060042948, 27.914336257831355], [88.2084838067309, 27.914334475331287], [88.20848782038561, 27.914695491068187], [88.20869102734281, 27.914693708244723], [88.20869303453848, 27.914874216095207], [88.20889624181008, 27.914872432957335], [88.2088982493561, 27.915052940789852], [88.20910145695109, 27.915051157346554], [88.20910346485643, 27.91523166515212], [88.20930667276583, 27.91522988139441], [88.2093207309868, 27.91649343585372], [88.20871110012597, 27.916498786533964], [88.20870909275962, 27.916318278728394], [88.2085058827751, 27.91632006166864], [88.20850387576809, 27.916139553845106], [88.20769103697988, 27.916146682578756], [88.20768903133829, 27.91596617469234], [88.20667298411966, 27.91597507880242], [88.20667098018487, 27.915794570844138], [88.20585814342687, 27.915801688681224], [88.2058561408665, 27.915621180669042], [88.2042304691471, 27.91563540185339], [88.20422846929965, 27.91545489373341], [88.20402526059074, 27.91545667001714], [88.20402326109364, 27.915276161870214], [88.20361684429567, 27.915279713521386], [88.20361484549925, 27.915099205338525], [88.20117634718179, 27.915120489895102], [88.20117435244575, 27.914939981550546], [88.2001583123777, 27.914948837313297], [88.20015631934847, 27.914768328896876], [88.19934348831272, 27.914775408061487], [88.19934547999449, 27.91495591653181], [88.19893906369059, 27.914959454339943], [88.19894105471658, 27.915139962837213], [88.1987378462053, 27.915141731305596], [88.19874182762848, 27.91550274830014], [88.1985386184255, 27.915504516499027], [88.19854060883166, 27.91568502500528], [88.19589888303949, 27.915707984470707], [88.19589689702609, 27.915527475793773], [88.1942712207702, 27.9155415794156], [88.19426923746073, 27.91536107063087], [88.19304998152421, 27.91537163568099], [88.1930480002629, 27.91519112680643], [88.19182874568284, 27.91520168099592], [88.1918267664697, 27.91502117204051], [88.189591468408, 27.91504049323022], [88.18959344392009, 27.915221002338345], [88.1893902345554, 27.915222757017588], [88.18938825938467, 27.91504224790048], [88.18857542310278, 27.91504926359912], [88.18857344929748, 27.914868754428113], [88.18735419634336, 27.914879268903086], [88.18735222458623, 27.914698759642246], [88.18511692951593, 27.914718008032487], [88.18511496147781, 27.914537498618934], [88.18450533617755, 27.914542741842702], [88.1845033691725, 27.914362232384235], [88.18389374472564, 27.914367472877124], [88.18389177874468, 27.914186963382726], [88.18368857089816, 27.914188709599838], [88.18368660527652, 27.914008200078488], [88.18348339774441, 27.914009945981192], [88.18347357160351, 27.913107398239696], [88.18367677744679, 27.913105652399874], [88.18367481194194, 27.912925142851574], [88.18387801742588, 27.912923396733277], [88.18387605159764, 27.912742887184976], [88.18407925673125, 27.912741140779215], [88.18407335833919, 27.912199612161267], [88.18427656243973, 27.912197865494996], [88.18427066320326, 27.911656336877048], [88.18406746010884, 27.911658083507387], [88.18406549407398, 27.911477573950105], [88.18386229129395, 27.911479320266032], [88.18385639429428, 27.910937791513337], [88.18405959605921, 27.910936045233342], [88.18405173230603, 27.910214006878448], [88.18425493269653, 27.910212260355905], [88.18424903405295, 27.90967073157626], [88.18445223341938, 27.909668984793207], [88.1844502669084, 27.909488475208974], [88.1846534659155, 27.909486728129476], [88.18465149908114, 27.909306218554228], [88.18485469773789, 27.909304471196254], [88.18485273058911, 27.909123961621006], [88.18505592888654, 27.909122213975568], [88.18505002652394, 27.90858068527677], [88.18484682924161, 27.908582432877292], [88.1848448621647, 27.908401923284078], [88.18464166519678, 27.90840367057917], [88.1846396984702, 27.90822316096799], [88.1842333051542, 27.90822665463291], [88.18422740712147, 27.907685125691568], [88.18402421144712, 27.907686872034446], [88.18402224580751, 27.907506362369368], [88.18341265968277, 27.907511599547473], [88.18341069507623, 27.907331089837477]], [[88.19012797691674, 27.908356388544707], [88.19094076270434, 27.908349365228357], [88.19094273990527, 27.908529874426314], [88.19114593663963, 27.908528117833658], [88.19114791419089, 27.908708627004664], [88.19033512578021, 27.908715651632555], [88.19033314957642, 27.908535142398666], [88.19012995276121, 27.908536897796562], [88.19012797691674, 27.908356388544707]]]}, "id": "+829+625", "properties": {"area_m2": 1497395.833109497, "count": 3736, "label": 1, "seed_distance_m": 0, "site_id": "south-lhonak", "recordId": "south-lhonak-lake", "kind": "lake", "status": "candidate", "observation_date": "2019-10-15", "scene_id": "COPERNICUS/S2_SR_HARMONIZED/20191015T044751_20191015T045321_T45RXL", "source": "Sentinel-2 spectral water baseline", "resolution_m": 20, "method": "NDWI > 0.05; MNDWI > 0.1; B8 < 2500; SCL rejects cloud, shadow, snow, invalid. Largest connected component >= 0.05 km2 within 1200 m of seed.", "limitations": "Candidate, not reviewed shoreline. Seasonal ice, terrain shadow and turbid water can cause omission or commission."}}]}