{"type": "FeatureCollection", "columns": {"area_m2": "Float", "count": "Long<0, 4294967295>", "label": "Integer", "seed_distance_m": "Float", "system:index": "String"}, "features": [{"type": "Feature", "geometry": {"geodesic": false, "type": "Polygon", "coordinates": [[[88.18463183176156, 27.907501122487332], [88.1858510031756, 27.907490634638425], [88.18585297185152, 27.907671144186722], [88.18666575378533, 27.907664146238794], [88.18666378376196, 27.90748363674439], [88.18707017394284, 27.907480136000746], [88.18706820326369, 27.907299626524313], [88.1872713979948, 27.907297875725792], [88.18727534003584, 27.907658894642726], [88.18768173078267, 27.9076553920755], [88.18767975907943, 27.90747488264398], [88.18788295408903, 27.907473130920195], [88.18788492613362, 27.90765364034273], [88.18808812145762, 27.907651888304535], [88.18808614907168, 27.907471378908948], [88.18828934404534, 27.90746962658329], [88.18828737134497, 27.907289117196687], [88.18869376056468, 27.907285611682987], [88.18869573393877, 27.907466121051623], [88.18910212375135, 27.907462614316216], [88.18910409781715, 27.907643123657902], [88.18930729303337, 27.907641369832056], [88.18931124190159, 27.908002388461533], [88.18971763362758, 27.907998879848645], [88.18971565851075, 27.907818370560857], [88.19012204950012, 27.90781486078016], [88.19012007372751, 27.90763435151932], [88.19093285411624, 27.907627328409582], [88.19093483123632, 27.907807837625505], [88.19134122200111, 27.907804324251547], [88.19134319981289, 27.907984833431534], [88.19154639550521, 27.907983076281923], [88.19154441735208, 27.907802567110917], [88.19174761268506, 27.907800809673844], [88.19174959117058, 27.907981318826884], [88.19195278682696, 27.907979561084385], [88.1919547656718, 27.90816007021946], [88.19236115759541, 27.90815655379123], [88.19236907584938, 27.908878590178812], [88.19277547039609, 27.908875072448026], [88.19277349013191, 27.908694563384817], [88.19297668704594, 27.908692804088233], [88.1929707453461, 27.90815127690759], [88.19317394122707, 27.90814951735049], [88.19317592211108, 27.908330026395735], [88.19337911831543, 27.90832826652423], [88.1933810995498, 27.908508775560488], [88.1939906890522, 27.90850349410442], [88.19398870680274, 27.908322985113077], [88.19419190292625, 27.908321224037827], [88.19418397276061, 27.907599188072453], [88.19438716751868, 27.90759742675466], [88.19438518468533, 27.907416917763314], [88.19479157347382, 27.90741339425636], [88.19479355698093, 27.907593903220754], [88.1956063356898, 27.907586852568667], [88.19560832056234, 27.907767361470178], [88.19581151552701, 27.907765598041344], [88.19581350075887, 27.90794610692489], [88.19601669604695, 27.90794434319063], [88.19601868162916, 27.908124852056208], [88.19622187724063, 27.908123088007535], [88.19622783511014, 27.90866461454139], [88.19683742485508, 27.908659320463993], [88.19683543786252, 27.908478811661297], [88.19724183025326, 27.908475280806122], [88.19724381791956, 27.90865578958187], [88.19744701442934, 27.908654023691653], [88.19744502643067, 27.90847351493387], [88.19785141870463, 27.908469982282067], [88.19785340738603, 27.9086504910129], [88.19805660383292, 27.908648724224363], [88.19805859286467, 27.90882923293723], [88.1984649863873, 27.908825698434896], [88.19846299668181, 27.90864518974898], [88.19886938944985, 27.908641654069854], [88.19886739908861, 27.908461145410886], [88.1990705951133, 27.908459377131148], [88.19907656726602, 27.9090009030811], [88.19927976427887, 27.908999134468985], [88.1992857375994, 27.909540660329107], [88.19969213360137, 27.909537122125712], [88.19969412541788, 27.90971763070383], [88.20050691853574, 27.909710550649887], [88.20050891172667, 27.909891059174107], [88.20091530885153, 27.909887517323554], [88.2009173027252, 27.910068025811842], [88.20132370045194, 27.91006448273958], [88.20132569502627, 27.910244991200916], [88.20193529248775, 27.910239674288345], [88.20193728808617, 27.91042018270477], [88.20234368697173, 27.910416636578233], [88.20234568327083, 27.910597144967706], [88.20275208275828, 27.910593597610482], [88.20275407974908, 27.910774105964023], [88.2033636798516, 27.910768782646464], [88.20335968386674, 27.91040776602023], [88.20417248105396, 27.91040066418214], [88.20417448038039, 27.91058117244585], [88.20397128078041, 27.910582948370248], [88.20397327979242, 27.91076345664294], [88.20417647973377, 27.910761680700574], [88.20417847909613, 27.9109421889553], [88.2035688782031, 27.910947515911037], [88.20357087657732, 27.91112802419271], [88.20377407722833, 27.911126248834247], [88.20377607596187, 27.91130675710694], [88.20397927693628, 27.911304981425083], [88.20398127602016, 27.91148548967981], [88.20438767857983, 27.911481937399817], [88.20438967836441, 27.911662445618607], [88.20479608152596, 27.911658892116908], [88.20479808199325, 27.91183940030875], [88.20500128389291, 27.911837623090776], [88.20500328471954, 27.912018131255667], [88.20520648692464, 27.912016353732266], [88.20520848811057, 27.912196861888177], [88.20541169063907, 27.912195084041382], [88.20541369217536, 27.912375592179327], [88.20602330065915, 27.912370256815358], [88.2060253032285, 27.912550764899404], [88.20622850635887, 27.912548985839884], [88.20623050928754, 27.91272949390596], [88.20663691615913, 27.91272593484369], [88.20663891977951, 27.912906442882818], [88.20684212352971, 27.912904662889048], [88.20684613148912, 27.913265678931374], [88.20704933589509, 27.91326389861421], [88.2070513402431, 27.913444406608427], [88.20725454496349, 27.913442625976852], [88.20725654967082, 27.9136231339531], [88.2074597547146, 27.913621353007116], [88.20746175977229, 27.9138018609654], [88.20786817047069, 27.913798298148166], [88.20787017622007, 27.9139788060795], [88.20766697054748, 27.9139805876543], [88.20766897598244, 27.914161095585634], [88.2080753879924, 27.914157532121617], [88.2080733818837, 27.91397702420825], [88.20827658752036, 27.913975242040557], [88.20828060042948, 27.914336257831355], [88.2084838067309, 27.914334475331287], [88.20848581354927, 27.914514983199737], [88.20868902016511, 27.914513200394243], [88.20869102734281, 27.914693708244723], [88.20889423427305, 27.914691925124817], [88.20889624181008, 27.914872432957335], [88.20909944906371, 27.914870649523017], [88.20910346485643, 27.91523166515212], [88.20930667276583, 27.91522988139441], [88.20931872261434, 27.91631292809307], [88.20911551268372, 27.916314711931626], [88.20911752071483, 27.916495219719227], [88.20891431043387, 27.916497003270326], [88.20891230273514, 27.916316495482725], [88.20870909275962, 27.916318278728394], [88.20870708542022, 27.916137770913846], [88.20769103697988, 27.916146682578756], [88.20768903133829, 27.91596617469234], [88.20667298411966, 27.91597507880242], [88.20667098018487, 27.915794570844138], [88.20585814342687, 27.915801688681224], [88.2058561408665, 27.915621180669042], [88.19935344690121, 27.915677950359193], [88.19935145514758, 27.91549744191582], [88.1985386184255, 27.915504516499027], [88.19854060883166, 27.91568502500528], [88.19610209282637, 27.91570622015254], [88.19610010647162, 27.915525711493572], [88.1942712207702, 27.9155415794156], [88.19426923746073, 27.91536107063087], [88.19325319089788, 27.91536987559389], [88.19325120929521, 27.91518936672831], [88.19203195483192, 27.915199922714432], [88.19202997526843, 27.915019413768004], [88.18877863219795, 27.915047510123618], [88.1887766580513, 27.914867000961593], [88.18816703171798, 27.91487226044487], [88.18816505860438, 27.91469175123793], [88.18796185012904, 27.914693503788165], [88.1879598773658, 27.91451299456326], [88.18775666921385, 27.91451474679909], [88.18775469680993, 27.914334237556215], [88.18673865742461, 27.914342994180892], [88.18673668672749, 27.914162484866154], [88.18653347913249, 27.9141642352784], [88.1865315087947, 27.913983725945698], [88.18673471604833, 27.913981975542434], [88.18673274538715, 27.913801466218715], [88.18693595229044, 27.91379971552799], [88.18693398130586, 27.91361920621325], [88.1871371878588, 27.913617455244047], [88.18712733154351, 27.912714908643412], [88.18753374120885, 27.912711405932455], [88.18753176932596, 27.912530896626702], [88.1877349737948, 27.912529144840033], [88.18772905724781, 27.911987616931754], [88.18752585379404, 27.91198936868249], [88.18752388198301, 27.911808859349787], [88.18691427251106, 27.911814112769434], [88.18691624331598, 27.91199462213807], [88.18610342908772, 27.912001622547383], [88.18610539855415, 27.912182131969917], [88.18569899065848, 27.912185630404892], [88.18569702186579, 27.91200512096439], [88.18549381822338, 27.912006869714755], [88.18548003954915, 27.910743303397684], [88.18568324082898, 27.91074155473715], [88.18568127218002, 27.910561045260717], [88.1866972766119, 27.91055229752038], [88.18669530630105, 27.910371788097844], [88.18750810816849, 27.910364784571378], [88.18750613652814, 27.910184275193757], [88.18770933660424, 27.910182523577767], [88.18770342077588, 27.909640995480842], [88.1879066198279, 27.909639243604342], [88.18790070314614, 27.909097715498433], [88.18769750510025, 27.909099467339], [88.18769553325328, 27.908918957943417], [88.18708594002287, 27.908924211623575], [88.18708396919999, 27.908743702192055], [88.18606798180915, 27.90875245225903], [88.18606601268408, 27.908571942755646], [88.18586281549157, 27.908573691856354], [88.18586084672583, 27.908393182335004], [88.18565764984774, 27.9083949311213], [88.18565371305287, 27.908033912033684], [88.18545051683056, 27.908035660496587], [88.18544658078129, 27.907674641355072], [88.18504018963021, 27.907678137337648], [88.18504215697662, 27.907858646930862], [88.18483896103278, 27.907860394486466], [88.18483699402773, 27.907679884875286], [88.18463379840729, 27.90768163211648], [88.18463183176156, 27.907501122487332]], [[88.18690047744258, 27.910550547072198], [88.18710367825528, 27.910548796327575], [88.18710564926681, 27.910729305714177], [88.18690244811275, 27.910731056467785], [88.18690047744258, 27.910550547072198]], [[88.18871349513212, 27.90909070514477], [88.18891669308819, 27.909088951813], [88.18891866698331, 27.909269461118754], [88.18871546869487, 27.909271214468493], [88.18871349513212, 27.90909070514477]], [[88.18893248475223, 27.910533026124284], [88.18913568538528, 27.910531272379288], [88.18913765976549, 27.910711781640128], [88.18893445880008, 27.910713535394105], [88.18893248475223, 27.910533026124284]], [[88.18911989101731, 27.9090871981758], [88.18932308892848, 27.90908544424216], [88.18932506350632, 27.90926595352096], [88.1891218652538, 27.909267707463588], [88.18911989101731, 27.9090871981758]], [[88.18933098732069, 27.90980748133043], [88.18973738579302, 27.909803972457027], [88.18973936110748, 27.909984481690916], [88.18933296196141, 27.909987990591265], [88.18933098732069, 27.90980748133043]], [[88.19097833251328, 27.91177903906426], [88.19118153532025, 27.91177728222906], [88.19118549109652, 27.912138300400393], [88.19098228761581, 27.912140057253563], [88.19097833251328, 27.91177903906426]], [[88.19358825928288, 27.90886803339319], [88.19379145645742, 27.90886627288388], [88.19379343841942, 27.909046781875222], [88.1935902409125, 27.909048542402502], [88.19358825928288, 27.90886803339319]], [[88.19421371240438, 27.91030682254735], [88.19441691221996, 27.910305061022942], [88.19441492910812, 27.91012455211245], [88.19482132801166, 27.910121028201253], [88.19482331179724, 27.91030153709378], [88.19502651155891, 27.91029977468004], [88.19503047985769, 27.910660792420185], [88.19482727942228, 27.910662554860874], [88.19482926325277, 27.910843063735435], [88.19442286165429, 27.910846587745446], [88.19442087848856, 27.910666078843935], [88.19421767799923, 27.91066784039529], [88.19421371240438, 27.91030682254735]]]}, "id": "+848+625", "properties": {"area_m2": 1427655.105391301, "count": 3562, "label": 1, "seed_distance_m": 0, "site_id": "south-lhonak", "recordId": "south-lhonak-lake", "kind": "lake", "status": "candidate", "observation_date": "2016-11-16", "scene_id": "COPERNICUS/S2_SR_HARMONIZED/20161116T044042_20161116T044143_T45RXL", "source": "Sentinel-2 spectral water baseline", "resolution_m": 20, "method": "NDWI > 0.05; MNDWI > 0.1; B8 < 2500; SCL rejects cloud, shadow, snow, invalid. Largest connected component >= 0.05 km2 within 1200 m of seed.", "limitations": "Candidate, not reviewed shoreline. Seasonal ice, terrain shadow and turbid water can cause omission or commission."}}]}