{"type": "FeatureCollection", "columns": {"area_m2": "Float", "count": "Long<0, 4294967295>", "label": "Integer", "seed_distance_m": "Float", "system:index": "String"}, "features": [{"type": "Feature", "geometry": {"geodesic": false, "type": "MultiPolygon", "coordinates": [[[[88.19072965904377, 27.90762908463393], [88.1905264639623, 27.907630840561833], [88.19052448753393, 27.90745033131896], [88.19072768228301, 27.907448575409024], [88.19072965904377, 27.90762908463393]]], [[[88.1878809820624, 27.907292621506645], [88.18788295408903, 27.907473130920195], [88.18808614907168, 27.907471378908948], [88.18808417671268, 27.907290869495395], [88.18828737134497, 27.907289117196687], [88.18828539866257, 27.907108607792118], [88.18869178720854, 27.90710510231435], [88.18869376056468, 27.907285611682987], [88.18889695514308, 27.90728385847698], [88.18890090258297, 27.907644877187302], [88.18951048824059, 27.907639615700784], [88.1895124629981, 27.907820125006538], [88.18971565851075, 27.907818370560857], [88.18971368342086, 27.90763786127307], [88.19012007372751, 27.90763435151932], [88.19012204950012, 27.90781486078016], [88.19073163583147, 27.907809593867817], [88.19072965904377, 27.90762908463393], [88.19113604917075, 27.90762557188879], [88.19113802663219, 27.907806081086747], [88.19174761268506, 27.907800809673844], [88.19174563421751, 27.907620300520804], [88.19215202415586, 27.907616784775293], [88.19215400330613, 27.907797293901385], [88.19195080800907, 27.90779905194033], [88.1919547656718, 27.90816007021946], [88.1921579616426, 27.908158312153567], [88.19215598246538, 27.907977803027475], [88.19235917807684, 27.907976044683107], [88.19236115759541, 27.90815655379123], [88.19276754944717, 27.90815303616824], [88.19276556926384, 27.907972527087065], [88.19296876482142, 27.907970767835398], [88.19296678431469, 27.907790258763203], [88.19316997952191, 27.907788499233057], [88.19317394122707, 27.90814951735049], [88.19337713709007, 27.908147757487967], [88.19337911831543, 27.90832826652423], [88.19378551066127, 27.908324745882897], [88.19378352876215, 27.90814423687359], [88.19398672457125, 27.90814247611275], [88.19398474235773, 27.907961967112424], [88.19378154689, 27.907963727855297], [88.19377758319058, 27.907602709809726], [88.19398077798458, 27.9076009490938], [88.19397483155961, 27.90705942202994], [88.1943812190725, 27.907055899771642], [88.19437923630203, 27.906875390771315], [88.19478562306932, 27.90687186734521], [88.1947895899847, 27.907232885291965], [88.1945863959363, 27.90723464718468], [88.19458837909305, 27.90741515616704], [88.19499476784561, 27.907411632058217], [88.1949967516851, 27.907592141004645], [88.19601272492746, 27.907583325441504], [88.19601669604695, 27.90794434319063], [88.19621989131706, 27.907942579150937], [88.19622584913267, 27.90848410570276], [88.19642904539991, 27.90848234132171], [88.19643103170975, 27.90866285015136], [88.1966342282914, 27.9086610854559], [88.1966322416402, 27.90848057664422], [88.19683543786252, 27.908478811661297], [88.1968334508969, 27.9082983028586], [88.19703664675991, 27.908296537597202], [88.19703863406687, 27.908477046390917], [88.19724183025326, 27.908475280806122], [88.19723984261391, 27.908294772030377], [88.19764623425907, 27.908291240007394], [88.19764822258112, 27.90847174875619], [88.19846100699431, 27.90846468105408], [88.19845503804858, 27.90792315494243], [88.19865823309411, 27.907921387309482], [88.19866420305493, 27.908462913376212], [88.1990705951133, 27.908459377131148], [88.1990745765275, 27.908820394431118], [88.19927777320795, 27.908818625836968], [88.19927976427887, 27.908999134468985], [88.19968615825064, 27.90899559633746], [88.199684166506, 27.908815087741374], [88.19988736312358, 27.908813318239925], [88.19988935520958, 27.90899382682703], [88.20009255215056, 27.908992057020154], [88.2000945445869, 27.90917256558929], [88.20029774185127, 27.909170795468007], [88.20029574907356, 27.908990286907855], [88.20049894597861, 27.908988516499107], [88.2005009390887, 27.909169025041294], [88.20111053070214, 27.909163711973513], [88.20111252484529, 27.909344220470782], [88.20131572234321, 27.90934244884033], [88.20131372786769, 27.909161940352043], [88.20192331925655, 27.909156623691], [88.20192531474717, 27.90933713213437], [88.20212851217323, 27.909335359300176], [88.20213449977699, 27.909876884567407], [88.2025408966054, 27.909873337928833], [88.202542893183, 27.910053846309324], [88.20274609190263, 27.910052072522912], [88.20274209809169, 27.909691055770917], [88.20294529611962, 27.90968928171501], [88.20294729335298, 27.909869790077536], [88.20335369003767, 27.90986624104046], [88.20335768590576, 27.91022725769364], [88.20376408385707, 27.910223707398924], [88.20376608250078, 27.910404215698566], [88.20417248105396, 27.91040066418214], [88.20417448038039, 27.91058117244585], [88.20458087953546, 27.91057761969873], [88.20458287956257, 27.910758127926506], [88.20478607945002, 27.910756351094808], [88.20478807982748, 27.910936859304616], [88.20499128002933, 27.910935082158506], [88.20499328076612, 27.911115590359334], [88.20539968179865, 27.911112035132867], [88.20540168321816, 27.911292543297762], [88.20560488404884, 27.911290765226386], [88.20560688582766, 27.911471273373312], [88.20581008697276, 27.911469494978544], [88.20581409126703, 27.911830511227485], [88.20561088944821, 27.9118322896492], [88.20561289128992, 27.912012797778164], [88.20540968912076, 27.912014575903438], [88.20541169063907, 27.912195084041382], [88.20581809564216, 27.912191527458457], [88.20581609344113, 27.912011019347464], [88.20601929558335, 27.912009240620318], [88.20602330065915, 27.912370256815358], [88.20642970622819, 27.912366698408853], [88.20643371273232, 27.912727714523047], [88.20663691615913, 27.91272593484369], [88.20663891977951, 27.912906442882818], [88.20684212352971, 27.912904662889048], [88.20684813550474, 27.913446186943556], [88.20725454496349, 27.913442625976852], [88.20725654967082, 27.9136231339531], [88.2074597547146, 27.913621353007116], [88.20746175977229, 27.9138018609654], [88.20786817047069, 27.913798298148166], [88.20787218199641, 27.914159314001846], [88.2080753879924, 27.914157532121617], [88.2080733818837, 27.91397702420825], [88.20827658752036, 27.913975242040557], [88.20828060042948, 27.914336257831355], [88.2084838067309, 27.914334475331287], [88.20848581354927, 27.914514983199737], [88.20868902016511, 27.914513200394243], [88.20869102734281, 27.914693708244723], [88.20889423427305, 27.914691925124817], [88.20889624181008, 27.914872432957335], [88.20909944906371, 27.914870649523017], [88.20910346485643, 27.91523166515212], [88.20930667276583, 27.91522988139441], [88.2093207309868, 27.91649343585372], [88.20891431043387, 27.916497003270326], [88.20891230273514, 27.916316495482725], [88.2085058827751, 27.91632006166864], [88.20850387576809, 27.916139553845106], [88.20769103697988, 27.916146682578756], [88.20768903133829, 27.91596617469234], [88.20667298411966, 27.91597507880242], [88.20667098018487, 27.915794570844138], [88.20606135264781, 27.915799909675602], [88.20605934974608, 27.915619401672405], [88.20463688719373, 27.915631848360672], [88.20463488666356, 27.91545134025866], [88.20422846929965, 27.91545489373341], [88.2042304691471, 27.91563540185339], [88.19975986582818, 27.915674411248503], [88.19975787340083, 27.915493902823098], [88.19833540919558, 27.91550628439249], [88.19833739926037, 27.915686792907728], [88.19610209282637, 27.91570622015254], [88.19610010647162, 27.915525711493572], [88.19447443036844, 27.9155398175139], [88.19447244672659, 27.91535930873815], [88.19325319089788, 27.91536987559389], [88.19325120929521, 27.91518936672831], [88.19203195483192, 27.915199922714432], [88.19202997526843, 27.915019413768004], [88.18877863219795, 27.915047510123618], [88.1887766580513, 27.914867000961593], [88.18796382290127, 27.914874013013073], [88.18796185012904, 27.914693503788165], [88.18511692951593, 27.914718008032487], [88.18511496147781, 27.914537498618934], [88.18470854463493, 27.91454099440388], [88.18470657728852, 27.914360484954393], [88.18409695289556, 27.9143657263456], [88.18409498658221, 27.914185216860183], [88.18389177874468, 27.914186963382726], [88.18388981279067, 27.914006453870357], [88.18368660527652, 27.914008200078488], [88.18368463967285, 27.913827690548157], [88.1834814324821, 27.913829436441876], [88.18347946723775, 27.91364892690256], [88.1832762603614, 27.91365067248187], [88.1832742954674, 27.913470162915605], [88.18307108891445, 27.91347190818949], [88.18306912437977, 27.913291398605256], [88.18266271189371, 27.913294888218775], [88.18265878422574, 27.91293386898743], [88.18286198979952, 27.912932124360335], [88.18286002566009, 27.912751614758136], [88.18306323088353, 27.91274986984358], [88.18305930197587, 27.912388850639182], [88.18346571102138, 27.91238535996565], [88.18346767613997, 27.9125658695409], [88.18367088096815, 27.912564123745994], [88.18367481194194, 27.912925142851574], [88.18387801742588, 27.912923396733277], [88.1838799832721, 27.913103906263608], [88.18509921784668, 27.913093423139838], [88.18509724997926, 27.91291291368137], [88.18550366068665, 27.91290941693523], [88.18549972364924, 27.91254839806321], [88.18570292829776, 27.91254664926793], [88.18569899065848, 27.912185630404892], [88.1854957866837, 27.912187379173222], [88.18549381822338, 27.912006869714755], [88.18488420719734, 27.91201211418718], [88.18488223977907, 27.911831604683798], [88.18467903639718, 27.91183335223042], [88.18467706932925, 27.911652842718052], [88.18427066320326, 27.911656336877048], [88.18426869682705, 27.911475827328747], [88.18406549407398, 27.911477573950105], [88.18406352804809, 27.911297064383838], [88.18365712316178, 27.911300556692304], [88.1836551578276, 27.91112004709909], [88.18324875354315, 27.911123538185844], [88.1832428596876, 27.910582009280436], [88.1834460608327, 27.910580263925702], [88.18344016612373, 27.910038735020294], [88.18323696599373, 27.91004048033909], [88.1832330369603, 27.909679461017916], [88.18302983748609, 27.909681206004336], [88.18302001690577, 27.90877865755317], [88.18322321469117, 27.908776912629634], [88.18321732154527, 27.908235383535576], [88.18301412476599, 27.908237128423185], [88.18301216076132, 27.908056618704205], [88.18280896430544, 27.90805836326842], [88.18280700065111, 27.907877853531474], [88.18260380450963, 27.907879597790263], [88.18260184121463, 27.90769908803535], [88.18239864539655, 27.907700831979728], [88.1823966824519, 27.90752032220685], [88.1821934869572, 27.907522065836815], [88.18218956179552, 27.90716104624614], [88.18198636695661, 27.907162789552714], [88.18198440473958, 27.906982279734923], [88.18178121021508, 27.906984022727084], [88.18177924835737, 27.906803512900307], [88.18238883087088, 27.906798283061438], [88.18238686801605, 27.90661777326161], [88.18279325559183, 27.906614285229125], [88.18279718265794, 27.906975304765897], [88.18300037709261, 27.906973560282534], [88.18300234099847, 27.90715407002846], [88.18320553574756, 27.907152325221702], [88.18320357150932, 27.906971815484756], [88.18340676590806, 27.90697007039952], [88.18340873048766, 27.907150580118497], [88.18361192520081, 27.90714883471885], [88.18361389013074, 27.907329344419864], [88.1850362550003, 27.90731711812427], [88.18503428770778, 27.907136608513085], [88.1852374822862, 27.907134860714937], [88.18523944991108, 27.907315370317136], [88.1854426447949, 27.907313622204576], [88.18544461277911, 27.907494131779824], [88.18625739350921, 27.90748713629328], [88.18625148557705, 27.9069456076933], [88.1864546796973, 27.9069438581075], [88.18645664932544, 27.907124367637834], [88.18686303819477, 27.907120867540975], [88.1868650085236, 27.907301377035374], [88.18706820326369, 27.907299626524313], [88.1870662326025, 27.90711911704788], [88.18726942699226, 27.90711736625834], [88.18727534003584, 27.907658894642726], [88.18768173078267, 27.9076553920755], [88.18767778738518, 27.907294373212466], [88.1878809820624, 27.907292621506645]], [[88.18343623641657, 27.909677715726065], [88.18384263527518, 27.909674224253035], [88.18384460079801, 27.9098547338732], [88.18343820126566, 27.909858225382163], [88.18343623641657, 27.909677715726065]], [[88.18384853188857, 27.910215753104545], [88.18405173230603, 27.910214006878448], [88.18404780053274, 27.90985298767405], [88.1842510002495, 27.90985124117846], [88.18424903405295, 27.90967073157626], [88.18506183140187, 27.909663742638433], [88.1850637989459, 27.909844252186733], [88.18526699858182, 27.90984250418197], [88.18527290232784, 27.91038403274602], [88.1850697016858, 27.910385780786715], [88.1850716693017, 27.910566290308065], [88.18486846830933, 27.9105680380613], [88.18487043561082, 27.91074854759163], [88.18426083150182, 27.910753789090634], [88.18425886521541, 27.910573279515386], [88.18405566414219, 27.910575026064876], [88.18405369821512, 27.910394516480643], [88.1838504974653, 27.910396262715725], [88.18384853188857, 27.910215753104545]], [[88.18610145963926, 27.91182111313383], [88.1863046628864, 27.911819363494136], [88.18630269311454, 27.911638854080582], [88.18670909888121, 27.911635353929825], [88.1867110693268, 27.911815863307446], [88.18691427251106, 27.911814112769434], [88.18692018496175, 27.912355640857378], [88.18671698076238, 27.91235739143132], [88.18671895127086, 27.912537900799958], [88.18631254213552, 27.91254140108546], [88.18631057230078, 27.912360891689875], [88.18610736803853, 27.912362641374486], [88.18610145963926, 27.91182111313383]], [[88.18645861898051, 27.9073048771502], [88.18666181375654, 27.90730312724101], [88.18666378376196, 27.90748363674439], [88.18646058864456, 27.90748538667155], [88.18645861898051, 27.9073048771502]], [[88.18810587371274, 27.909276472721075], [88.18851227038846, 27.909272967512802], [88.18851424362781, 27.909453476845506], [88.18810784627836, 27.909456982071745], [88.18810587371274, 27.909276472721075]], [[88.19869405533845, 27.911170543072075], [88.19889725643863, 27.911168774900133], [88.19888730352748, 27.910266231856827], [88.19909050292085, 27.910264463451327], [88.19908851205656, 27.910083954837273], [88.19949491011567, 27.910080417154905], [88.19949291859561, 27.9098999085678], [88.20010251452995, 27.9098945998299], [88.20010450705612, 27.910075108372087], [88.20071410383488, 27.910069796903304], [88.2007160974031, 27.91025030540956], [88.2009192966258, 27.910248534300127], [88.20092129054437, 27.910429042788415], [88.20132768961858, 27.91042549965327], [88.20132968422885, 27.910606008105628], [88.20112648435938, 27.910607779834894], [88.20113047296009, 27.910968796748588], [88.20092727240788, 27.910970568208363], [88.2009252784354, 27.91079005973804], [88.20072207819761, 27.910791830883404], [88.20072407182873, 27.910972339362708], [88.20052087123162, 27.91097411022061], [88.20052286454832, 27.91115461871788], [88.20031966360085, 27.911156389288323], [88.20032364961442, 27.911517406282865], [88.20012044797525, 27.911519176574828], [88.20012443338695, 27.91188019357835], [88.19971802869826, 27.91188373333583], [88.19972002075733, 27.912064241851066], [88.19931361532304, 27.91206778043175], [88.19931162393772, 27.911887271889565], [88.199108421526, 27.911889040717277], [88.19910643049101, 27.91170853214814], [88.1989032284027, 27.91171030066144], [88.19890123772704, 27.91152979208332], [88.19869803596212, 27.91153156028221], [88.19869405533845, 27.911170543072075]], [[88.20030372028323, 27.90971232111253], [88.20050691853574, 27.909710550649887], [88.20050891172667, 27.909891059174107], [88.2003057131328, 27.909892829654716], [88.20030372028323, 27.90971232111253]], [[88.20112050159754, 27.91006625442393], [88.20132370045194, 27.91006448273958], [88.20132569502627, 27.910244991200916], [88.20112249583053, 27.910246762903235], [88.20112050159754, 27.91006625442393]], [[88.2013177168457, 27.909522957319634], [88.20152091466701, 27.909521185374768], [88.20152290951984, 27.90970169383611], [88.20131971136614, 27.909703465798938], [88.2013177168457, 27.909522957319634]], [[88.20397527882241, 27.91094396490665], [88.20438167936088, 27.910940412707504], [88.20438367908257, 27.911120920944263], [88.20397727787037, 27.911124473170357], [88.20397527882241, 27.91094396490665]], [[88.20418247788373, 27.911303205446785], [88.20438567882222, 27.91130142917204], [88.20438767857983, 27.911481937399817], [88.20418447730898, 27.911483713692526], [88.20418247788373, 27.911303205446785]], [[88.18449353441677, 27.913459685029014], [88.18429032797162, 27.913461432090546], [88.18428836141574, 27.913280922596144], [88.18449156751953, 27.913279175543597], [88.18449353441677, 27.913459685029014]], [[88.18449353441677, 27.913459685029014], [88.18469674084396, 27.913457937662056], [88.18469870810053, 27.913638447129507], [88.184495501332, 27.913640194514432], [88.18449353441677, 27.913459685029014]], [[88.20275208275828, 27.910593597610482], [88.20295528247505, 27.910591823491696], [88.20295727979823, 27.910772331827268], [88.20275407974908, 27.910774105964023], [88.20275208275828, 27.910593597610482]], [[88.20275208275828, 27.910593597610482], [88.20254888302354, 27.910595371441808], [88.20254688639206, 27.9104148630703], [88.20275008578542, 27.91041308925694], [88.20275208275828, 27.910593597610482]]], [[[88.18808417671268, 27.907290869495395], [88.1878809820624, 27.907292621506645], [88.18787901005373, 27.907112112075126], [88.18808220437164, 27.907110360081845], [88.18808417671268, 27.907290869495395]]]]}, "id": "+819+629", "properties": {"area_m2": 1716634.5400743957, "count": 4283, "label": 1, "seed_distance_m": 0, "site_id": "south-lhonak", "recordId": "south-lhonak-lake", "kind": "lake", "status": "candidate", "observation_date": "2022-11-30", "scene_id": "COPERNICUS/S2_SR_HARMONIZED/20221130T044139_20221130T044556_T45RXL", "source": "Sentinel-2 spectral water baseline", "resolution_m": 20, "method": "NDWI > 0.05; MNDWI > 0.1; B8 < 2500; SCL rejects cloud, shadow, snow, invalid. Largest connected component >= 0.05 km2 within 1200 m of seed.", "limitations": "Candidate, not reviewed shoreline. Seasonal ice, terrain shadow and turbid water can cause omission or commission."}}]}