{"type": "FeatureCollection", "columns": {"area_m2": "Float", "count": "Long<0, 4294967295>", "label": "Integer", "seed_distance_m": "Float", "system:index": "String"}, "features": [{"type": "Feature", "geometry": {"geodesic": false, "type": "Polygon", "coordinates": [[[88.20899134577547, 27.916584758468723], [88.20899134577547, 27.916405095411896], [88.208452356605, 27.916405095411896], [88.208452356605, 27.916225432355073], [88.2077337043777, 27.916225432355073], [88.2077337043777, 27.91604576929825], [88.20665572603676, 27.91604576929825], [88.20665572603676, 27.915866106241424], [88.20593707380947, 27.915866106241424], [88.20593707380947, 27.9156864431846], [88.19910987765016, 27.9156864431846], [88.19910987765016, 27.915506780127778], [88.19857088847968, 27.915506780127778], [88.19857088847968, 27.9156864431846], [88.19587594262732, 27.9156864431846], [88.19587594262732, 27.915506780127778], [88.19425897511591, 27.915506780127778], [88.19425897511591, 27.915327117070955], [88.19300133371814, 27.915327117070955], [88.19300133371814, 27.91514745401413], [88.19174369232037, 27.91514745401413], [88.19174369232037, 27.914967790957306], [88.18868942035436, 27.914967790957306], [88.18868942035436, 27.914788127900483], [88.18833009424073, 27.914788127900483], [88.18833009424073, 27.91460846484366], [88.1881504311839, 27.91460846484366], [88.1881504311839, 27.914428801786833], [88.18761144201342, 27.914428801786833], [88.18761144201342, 27.91424913873001], [88.18725211589978, 27.91424913873001], [88.18725211589978, 27.914428801786833], [88.1867131267293, 27.914428801786833], [88.1867131267293, 27.91460846484366], [88.18653346367248, 27.91460846484366], [88.18653346367248, 27.914788127900483], [88.18491649616107, 27.914788127900483], [88.18491649616107, 27.91460846484366], [88.18455717004741, 27.91460846484366], [88.18455717004741, 27.914428801786833], [88.1836588547633, 27.914428801786833], [88.1836588547633, 27.91424913873001], [88.18311986559283, 27.91424913873001], [88.18311986559283, 27.914069475673188], [88.18258087642235, 27.914069475673188], [88.18258087642235, 27.91388981261636], [88.18240121336554, 27.91388981261636], [88.18240121336554, 27.913350823445892], [88.18258087642235, 27.913350823445892], [88.18258087642235, 27.91281183427542], [88.182940202536, 27.91281183427542], [88.182940202536, 27.912632171218597], [88.18311986559283, 27.912632171218597], [88.18311986559283, 27.912272845104948], [88.18329952864966, 27.912272845104948], [88.18329952864966, 27.912093182048125], [88.18347919170647, 27.912093182048125], [88.18347919170647, 27.911913518991298], [88.1836588547633, 27.911913518991298], [88.1836588547633, 27.911554192877652], [88.18347919170647, 27.911554192877652], [88.18347919170647, 27.91137452982083], [88.18329952864966, 27.91137452982083], [88.18329952864966, 27.91101520370718], [88.18347919170647, 27.91101520370718], [88.18347919170647, 27.91011688842306], [88.1836588547633, 27.91011688842306], [88.1836588547633, 27.909937225366235], [88.18383851782012, 27.909937225366235], [88.18383851782012, 27.909038910082117], [88.1836588547633, 27.909038910082117], [88.1836588547633, 27.908859247025294], [88.18347919170647, 27.908859247025294], [88.18347919170647, 27.90867958396847], [88.18329952864966, 27.90867958396847], [88.18329952864966, 27.908140594798], [88.182940202536, 27.908140594798], [88.182940202536, 27.907960931741172], [88.18329952864966, 27.907960931741172], [88.18329952864966, 27.908140594798], [88.18347919170647, 27.908140594798], [88.18347919170647, 27.90778126868435], [88.18329952864966, 27.90778126868435], [88.18329952864966, 27.907601605627526], [88.18311986559283, 27.907601605627526], [88.18311986559283, 27.907421942570704], [88.18329952864966, 27.907421942570704], [88.18329952864966, 27.907242279513877], [88.18347919170647, 27.907242279513877], [88.18347919170647, 27.907062616457054], [88.1836588547633, 27.907062616457054], [88.1836588547633, 27.907421942570704], [88.18347919170647, 27.907421942570704], [88.18347919170647, 27.907601605627526], [88.1836588547633, 27.907601605627526], [88.1836588547633, 27.907960931741172], [88.18419784393377, 27.907960931741172], [88.18419784393377, 27.908140594798], [88.18509615921789, 27.908140594798], [88.18509615921789, 27.90832025785482], [88.18563514838836, 27.90832025785482], [88.18563514838836, 27.908140594798], [88.18581481144518, 27.908140594798], [88.18581481144518, 27.907960931741172], [88.18563514838836, 27.907960931741172], [88.18563514838836, 27.907601605627526], [88.18653346367248, 27.907601605627526], [88.18653346367248, 27.907960931741172], [88.18599447450201, 27.907960931741172], [88.18599447450201, 27.908140594798], [88.18581481144518, 27.908140594798], [88.18581481144518, 27.90832025785482], [88.18599447450201, 27.90832025785482], [88.18599447450201, 27.908499920911645], [88.18689278978613, 27.908499920911645], [88.18689278978613, 27.90867958396847], [88.18761144201342, 27.90867958396847], [88.18761144201342, 27.909398236195766], [88.18779110507025, 27.909398236195766], [88.18779110507025, 27.90957789925259], [88.18797076812707, 27.90957789925259], [88.18797076812707, 27.909757562309412], [88.18850975729754, 27.909757562309412], [88.18850975729754, 27.90921857313894], [88.18868942035436, 27.90921857313894], [88.18868942035436, 27.909038910082117], [88.19066571397943, 27.909038910082117], [88.19066571397943, 27.90921857313894], [88.19264200760449, 27.90921857313894], [88.19264200760449, 27.909038910082117], [88.19300133371814, 27.909038910082117], [88.19300133371814, 27.90921857313894], [88.19318099677497, 27.90921857313894], [88.19318099677497, 27.909398236195766], [88.19354032288861, 27.909398236195766], [88.19354032288861, 27.90921857313894], [88.19425897511591, 27.90921857313894], [88.19425897511591, 27.909398236195766], [88.1949776273432, 27.909398236195766], [88.1949776273432, 27.90957789925259], [88.19731324708191, 27.90957789925259], [88.19731324708191, 27.909757562309412], [88.19928954070697, 27.909757562309412], [88.19928954070697, 27.90957789925259], [88.19964886682062, 27.90957789925259], [88.19964886682062, 27.909757562309412], [88.20036751904792, 27.909757562309412], [88.20036751904792, 27.909937225366235], [88.20072684516157, 27.909937225366235], [88.20072684516157, 27.91011688842306], [88.20126583433203, 27.91011688842306], [88.20126583433203, 27.910296551479885], [88.20180482350251, 27.910296551479885], [88.20180482350251, 27.910476214536708], [88.20216414961617, 27.910476214536708], [88.20216414961617, 27.910655877593534], [88.2025234757298, 27.910655877593534], [88.2025234757298, 27.910835540650357], [88.20288280184346, 27.910835540650357], [88.20288280184346, 27.911194866764003], [88.20378111712758, 27.911194866764003], [88.20378111712758, 27.91137452982083], [88.2039607801844, 27.91137452982083], [88.2039607801844, 27.911554192877652], [88.20432010629804, 27.911554192877652], [88.20432010629804, 27.911733855934475], [88.20485909546852, 27.911733855934475], [88.20485909546852, 27.911913518991298], [88.20503875852535, 27.911913518991298], [88.20503875852535, 27.912093182048125], [88.20521842158216, 27.912093182048125], [88.20521842158216, 27.912272845104948], [88.20557774769581, 27.912272845104948], [88.20557774769581, 27.91245250816177], [88.20593707380947, 27.91245250816177], [88.20593707380947, 27.912632171218597], [88.2062963999231, 27.912632171218597], [88.2062963999231, 27.91281183427542], [88.20665572603676, 27.91281183427542], [88.20665572603676, 27.912991497332243], [88.20683538909358, 27.912991497332243], [88.20683538909358, 27.913350823445892], [88.20701505215041, 27.913350823445892], [88.20701505215041, 27.913710149559538], [88.20737437826405, 27.913710149559538], [88.20737437826405, 27.91388981261636], [88.2077337043777, 27.91388981261636], [88.2077337043777, 27.913710149559538], [88.20791336743453, 27.913710149559538], [88.20791336743453, 27.91388981261636], [88.20809303049136, 27.91388981261636], [88.20809303049136, 27.914069475673188], [88.20827269354817, 27.914069475673188], [88.20827269354817, 27.91424913873001], [88.208452356605, 27.91424913873001], [88.208452356605, 27.91460846484366], [88.20863201966182, 27.91460846484366], [88.20863201966182, 27.914788127900483], [88.20881168271865, 27.914788127900483], [88.20881168271865, 27.914967790957306], [88.20917100883229, 27.914967790957306], [88.20917100883229, 27.91514745401413], [88.20935067188911, 27.91514745401413], [88.20935067188911, 27.916225432355073], [88.20917100883229, 27.916225432355073], [88.20917100883229, 27.916584758468723], [88.20899134577547, 27.916584758468723]]]}, "id": "+490969+155382", "properties": {"area_m2": 1488293.1890244503, "count": 4220, "label": 1, "seed_distance_m": 0, "site_id": "south-lhonak", "recordId": "south-lhonak-lake", "kind": "lake", "status": "candidate", "observation_date": "2020-11-08", "scene_id": "COPERNICUS/S2_SR_HARMONIZED/20201108T045021_20201108T045018_T45RXM", "source": "Sentinel-2 spectral water baseline", "resolution_m": 20, "method": "NDWI > 0.05; MNDWI > 0.1; B8 < 2500; SCL rejects cloud, shadow, snow, invalid. Largest connected component >= 0.05 km2 within 1200 m of seed.", "limitations": "Candidate, not reviewed shoreline. Seasonal ice, terrain shadow and turbid water can cause omission or commission."}}]}