{"type": "FeatureCollection", "columns": {"area_m2": "Float", "count": "Long<0, 4294967295>", "label": "Integer", "seed_distance_m": "Float", "system:index": "String"}, "features": [{"type": "Feature", "geometry": {"geodesic": false, "type": "MultiPolygon", "coordinates": [[[[88.17559755543823, 27.89891320814109], [88.17558975182725, 27.89819116632768], [88.17538657325683, 27.89819289939346], [88.17538462273586, 27.898012388910914], [88.17558780097391, 27.8980106558631], [88.17558585012956, 27.897830145389534], [88.17578902801726, 27.897828412054263], [88.17579097919399, 27.89800892250986], [88.17599415738714, 27.898007188860177], [88.17600781848986, 27.899270761842747], [88.17580463793416, 27.899272495582263], [88.17580073534714, 27.898911474724965], [88.17559755543823, 27.89891320814109]]], [[[88.17662907634424, 27.900348620950304], [88.1766251708377, 27.899987600254704], [88.17703153449133, 27.89998412997293], [88.17703348790486, 27.90016464029378], [88.17683030575016, 27.900166375596363], [88.17683225884929, 27.900346885926197], [88.17662907634424, 27.900348620950304]]], [[[88.19094076270434, 27.908349365228357], [88.19053436984647, 27.908352877488404], [88.19053239334623, 27.908172368263497], [88.19032919723172, 27.908174123930888], [88.19033117339059, 27.908354633164777], [88.19012797691674, 27.908356388544707], [88.19012600109023, 27.908175879301837], [88.18992280493978, 27.908177634367355], [88.18992478042492, 27.908358143628195], [88.18972158391514, 27.908359898406253], [88.18971763362758, 27.907998879848645], [88.18992082946363, 27.907997125097534], [88.18991885401441, 27.90781661581873], [88.19032524495887, 27.907813105445143], [88.19032722108182, 27.907993614688017], [88.19073361262815, 27.90799010308374], [88.19072768228301, 27.907448575409024], [88.19093087701414, 27.90744681919366], [88.19094076270434, 27.908349365228357]]], [[[88.19276754944717, 27.90815303616824], [88.19276160893311, 27.907611508906747], [88.19296480381695, 27.907609749691012], [88.1929707453461, 27.90815127690759], [88.19276754944717, 27.90815303616824]]], [[[88.19560038117999, 27.907045325819215], [88.19539718753583, 27.907047088897706], [88.19539520307653, 27.90686657995128], [88.19559839637932, 27.906864816890753], [88.19560038117999, 27.907045325819215]]], [[[88.1990745765275, 27.908820394431118], [88.19866818312165, 27.908823930739064], [88.19866619307481, 27.90864342206213], [88.19907258580692, 27.908639885790116], [88.1990745765275, 27.908820394431118]]], [[[88.17195392867431, 27.900207933071762], [88.17194809375721, 27.899666401112082], [88.17174491215947, 27.899668128895765], [88.1717429675584, 27.89948761821559], [88.17153978628404, 27.899489345684863], [88.17153784204231, 27.899308834986723], [88.17113148011343, 27.899312288991023], [88.17111787563151, 27.89804871380758], [88.17152423283525, 27.89804525998294], [88.17152228873724, 27.897864749248864], [88.17192864520436, 27.897861294256415], [88.1719305899761, 27.898041804963544], [88.17172741141466, 27.898043532621465], [88.17173130034729, 27.89840455405368], [88.17234083798995, 27.898399370091774], [88.17234278349831, 27.89857988075398], [88.17254596301197, 27.898578152161814], [88.17255180063299, 27.899119684094547], [88.17234862011321, 27.89912141273163], [88.17235251127367, 27.89948243402012], [88.17255569247617, 27.899480705356083], [88.17255763842469, 27.899661215982363], [88.17235445688084, 27.89966294465538], [88.17236029382813, 27.900204476543195], [88.1725634763781, 27.90020274782526], [88.17256542238951, 27.900383258433575], [88.17297178810928, 27.900379800072443], [88.17297373482138, 27.900560310644824], [88.17317691799119, 27.900558581001626], [88.1731749709467, 27.900378070447214], [88.17358133655867, 27.90037461028945], [88.17357744116715, 27.900013589207575], [88.17398380535978, 27.90001012789997], [88.1739760120974, 27.899288085781137], [88.17478873486819, 27.899281159797248], [88.17478483564985, 27.898920138814184], [88.17458165566008, 27.89892187073012], [88.17457970641473, 27.898741360220622], [88.17417334705503, 27.898744823136212], [88.1741694499657, 27.89838380203637], [88.17396627092815, 27.898385533018057], [88.17396237458442, 27.898024511882284], [88.17436873129408, 27.898021049676363], [88.17436678247094, 27.89784053912195], [88.17456996045746, 27.89783880758331], [88.17457190961298, 27.898019318119754], [88.17497826621485, 27.898015854117205], [88.17498021606207, 27.898196364617718], [88.17477703743775, 27.898198096785183], [88.17478093650337, 27.898559117813157], [88.17518729509051, 27.89855565312789], [88.175185344866, 27.898375142645342], [88.17538852379575, 27.898373409867023], [88.1753924249275, 27.898734430796186], [88.175189245324, 27.898736163601452], [88.17519119558446, 27.898916674075018], [88.17559755543823, 27.89891320814109], [88.1756014573515, 27.899274229025334], [88.17539827675988, 27.899275962162978], [88.1754002274066, 27.899456472609593], [88.1760097701427, 27.89945127224445], [88.17601172182249, 27.899631782646146], [88.17621490303397, 27.899630048583237], [88.17620904705137, 27.89908851740509], [88.17661540739921, 27.89908504844384], [88.17661736005816, 27.899265558818588], [88.17641417954738, 27.89926729345642], [88.17642589381224, 27.900350355668984], [88.17662907634424, 27.900348620950304], [88.17663298191367, 27.900709641618953], [88.17622661549322, 27.90071311081377], [88.17622466337326, 27.900532600448], [88.17581829755467, 27.900536068421104], [88.17581439471613, 27.900175047635674], [88.17561121245362, 27.900176781141628], [88.17560926140266, 27.89999627072196], [88.17520289749748, 27.899999736817588], [88.17519899678796, 27.899638715924358], [88.17458945282115, 27.899643912732174], [88.1745953008806, 27.9001854441888], [88.1739857537158, 27.90019063841845], [88.17398770209877, 27.90037114893693], [88.17378451933321, 27.900372879765904], [88.17378646739279, 27.900553390284387], [88.17398965049073, 27.90055165944643], [88.17399159890962, 27.90073216994694], [88.17419478232198, 27.900730438794575], [88.17420062868361, 27.901271970242217], [88.17440381309308, 27.901270238748488], [88.17440576225758, 27.901450749204088], [88.17460894699045, 27.901449017404932], [88.17461284603812, 27.901810038280196], [88.17481603141776, 27.901808306148666], [88.17481993122001, 27.902169326979013], [88.17502311725544, 27.902167594524087], [88.17502506751589, 27.902348104916804], [88.17563462654743, 27.90234290571947], [88.17563657783195, 27.902523416067268], [88.1754333911767, 27.902525149447456], [88.17543729313489, 27.902886170161022], [88.17564048047288, 27.902884436753883], [88.1756424318203, 27.9030649470927], [88.17584561947268, 27.90306321337115], [88.17584757117044, 27.903243723692], [88.17605075914622, 27.903241989656042], [88.1760527112033, 27.903422499958925], [88.1762558994935, 27.90342076561754], [88.17625394710404, 27.903240255332623], [88.1766603229568, 27.9032367857695], [88.17666422911014, 27.903597806285436], [88.1768674176788, 27.90359607102777], [88.1768693711193, 27.90377658126777], [88.17788531540896, 27.903767900433955], [88.17788727055624, 27.90394841060209], [88.17829364881649, 27.90394493614315], [88.17829951637837, 27.904486466539765], [88.17850270649214, 27.904484728820712], [88.17850661896962, 27.90484574903122], [88.17870980973916, 27.90484401098878], [88.17871176634172, 27.905024521076065], [88.17911814850065, 27.90502104406591], [88.17912206310713, 27.90538206416862], [88.17932525483788, 27.905380325182946], [88.17932721250044, 27.905560835216335], [88.17993678858201, 27.905555616435727], [88.17993874728663, 27.9057361264242], [88.18034513192491, 27.905732645712984], [88.18034709131224, 27.905913155665527], [88.18095666914553, 27.905907932321476], [88.18095470875208, 27.905727422404865], [88.18115790098588, 27.905725680697294], [88.18116182248244, 27.90608670049458], [88.1815682082526, 27.906083216145188], [88.18157016969708, 27.906263726007897], [88.18177336289207, 27.90626198336608], [88.18177532469588, 27.90644249321082], [88.18197851821427, 27.906440750263574], [88.18198048036841, 27.90662126009035], [88.18218367420121, 27.906619516828695], [88.18218563671468, 27.906800026637505], [88.18238883087088, 27.906798283061438], [88.1823907937347, 27.906978792852282], [88.1825939882053, 27.906977048961803], [88.18259595143742, 27.90715755873468], [88.18320553574756, 27.907152325221702], [88.18320750000376, 27.90733283495865], [88.18361389013074, 27.907329344419864], [88.18361585507866, 27.907509854120875], [88.1842254411405, 27.90750461603547], [88.18422740712147, 27.907685125691568], [88.18463379840729, 27.90768163211648], [88.18463576507995, 27.907862141736643], [88.18524535289352, 27.907856899078812], [88.18524732059026, 27.908037408663045], [88.18585690925723, 27.908032163265354], [88.18585887797806, 27.90821267280467], [88.18667166395431, 27.90820567470403], [88.18667363404955, 27.90838618418046], [88.18768961779323, 27.908377429738692], [88.18769158959527, 27.908557939152246], [88.18850437761071, 27.908550930155037], [88.1885063507782, 27.908731439505708], [88.18911594260723, 27.908726179573275], [88.18911791680777, 27.90890668887903], [88.19196268122184, 27.908882106705857], [88.1919587234064, 27.90852108847164], [88.1921619200599, 27.908519330387783], [88.19215994083777, 27.908338821270675], [88.19175354820449, 27.908342337123983], [88.1917555267439, 27.908522846259057], [88.19094273990527, 27.908529874426314], [88.19094076270434, 27.908349365228357], [88.19114395910633, 27.908347608653667], [88.19114198159998, 27.908167099473676], [88.19134517764263, 27.908165342602544], [88.19134715549035, 27.90834585177355], [88.19155035185639, 27.908344094596988], [88.19154441735208, 27.907802567110917], [88.19113802663219, 27.907806081086747], [88.19113604917075, 27.90762557188879], [88.19174563421751, 27.907620300520804], [88.19174761268506, 27.907800809673844], [88.19195080800907, 27.90779905194033], [88.19194882920016, 27.90761854279627], [88.19235521910257, 27.90761502644889], [88.19236115759541, 27.90815655379123], [88.19276754944717, 27.90815303616824], [88.19276952965745, 27.908333545249416], [88.19256633340818, 27.908335304222607], [88.19256831329507, 27.908515813303783], [88.19236511668647, 27.908517571998498], [88.19236709625895, 27.908698081088655], [88.19317988393301, 27.90869104448622], [88.19318186487092, 27.90887155352248], [88.19379145645742, 27.90886627288388], [88.19379343841942, 27.909046781875222], [88.19399663591734, 27.9090450210515], [88.19399861823867, 27.90922553002488], [88.19724978101726, 27.909197315873183], [88.19724779330605, 27.909016807115403], [88.1964350044013, 27.909023867792687], [88.19643301804653, 27.90884335897202], [88.19622982111454, 27.908845123380022], [88.19622783511014, 27.90866461454139], [88.1966342282914, 27.9086610854559], [88.1966322416402, 27.90848057664422], [88.19683543786252, 27.908478811661297], [88.19683742485508, 27.908659320463993], [88.19724381791956, 27.90865578958187], [88.19723984261391, 27.908294772030377], [88.19744303844098, 27.908293006167106], [88.19744502643067, 27.90847351493387], [88.19764822258112, 27.90847174875619], [88.19765617604007, 27.909193783715452], [88.19867216326023, 27.909184948074966], [88.19867017317746, 27.909004439407013], [88.19887337022624, 27.90900267139677], [88.19887536064138, 27.909183180046753], [88.19907855801354, 27.909181411722102], [88.1990745765275, 27.908820394431118], [88.19927777320795, 27.908818625836968], [88.1992857375994, 27.909540660329107], [88.19948893560937, 27.909538891375632], [88.19948694414319, 27.909358382770563], [88.19969014179384, 27.909356613529628], [88.19968615825064, 27.90899559633746], [88.19988935520958, 27.90899382682703], [88.19989134731355, 27.90917433541413], [88.2000945445869, 27.90917256558929], [88.20009653704123, 27.909353074158425], [88.19989333942651, 27.90935484399225], [88.19989931590014, 27.90989636970864], [88.20010251452995, 27.9098945998299], [88.20009852952249, 27.909533582718577], [88.20050492537175, 27.909530042116685], [88.20050691853574, 27.909710550649887], [88.20071011677028, 27.909708779881814], [88.2007121102936, 27.909889288397054], [88.20091530885153, 27.909887517323554], [88.2009192966258, 27.910248534300127], [88.20112249583053, 27.910246762903235], [88.20112449009046, 27.910427271373557], [88.20153088912873, 27.91042372763654], [88.20153288407138, 27.910604236079912], [88.20193928371154, 27.91060069112119], [88.20194527067748, 27.91114221632554], [88.20214847148121, 27.911140443356597], [88.2021504675198, 27.911320951737085], [88.20235366863794, 27.91131917845373], [88.20235566502689, 27.911499686816256], [88.20255886645943, 27.911497913227475], [88.2025608632077, 27.91167842156305], [88.20296726670162, 27.911674873451236], [88.20296926414159, 27.91185538175986], [88.20357887026282, 27.911850057310424], [88.20358086872686, 27.912030565574135], [88.2037840710667, 27.912028790143808], [88.20378606989009, 27.91220929838955], [88.20398927254435, 27.91220752264481], [88.20399127172705, 27.912388030872588], [88.20419447470469, 27.912386254813438], [88.20419647423773, 27.912566763023246], [88.20399327091873, 27.912568539091378], [88.20399527013736, 27.912749047319156], [88.203792066468, 27.912750823099824], [88.20379406536324, 27.912931331327602], [88.20359086133456, 27.912933106829794], [88.20359685713093, 27.913474631522103], [88.20380006216573, 27.91347285598398], [88.20380206113283, 27.913653364184807], [88.20420847183125, 27.91364981218329], [88.20420647218143, 27.91346930400043], [88.2044096771713, 27.913467527563988], [88.20440767720707, 27.91328701939011], [88.20461088182864, 27.913285242666213], [88.20460888155, 27.913104734501317], [88.20542169851812, 27.91309762466822], [88.20542370014424, 27.913278132779215], [88.20562690468496, 27.913276354555126], [88.2056289066704, 27.913456862648154], [88.20583211152554, 27.913455084109657], [88.20583411386131, 27.91363559218472], [88.20603731903086, 27.91363381333181], [88.20603932173496, 27.913814321388905], [88.2062425272189, 27.91381254223057], [88.20624653335473, 27.914173558299847], [88.20644973949446, 27.914171778809134], [88.20645574984354, 27.91471330283669], [88.20625254267974, 27.914715082363337], [88.20625654899523, 27.915076098387697], [88.20442767767585, 27.91509210089532], [88.20442967782873, 27.91527260902428], [88.20097513328078, 27.915302770013845], [88.20097313886814, 27.915122261660304], [88.20076993053652, 27.91512403312906], [88.20077192461679, 27.915304541491583], [88.19995908975423, 27.915311624411157], [88.19995709702143, 27.915131115994733], [88.19609613380702, 27.91516469414869], [88.19609414750616, 27.91498418546277], [88.1944684794968, 27.91499829116869], [88.19446649590886, 27.914817782374975], [88.19324724615275, 27.91482834899715], [88.19324526460399, 27.914647840113606], [88.19222922432034, 27.914656637324164], [88.19222724447837, 27.914476128377736], [88.19060158176909, 27.914490188215677], [88.19059169633938, 27.91358764287268], [88.19079490255098, 27.913585886513587], [88.19078897049904, 27.913044359288026], [88.19099217568656, 27.913042602659438], [88.19099019803647, 27.912862093587247], [88.19119340286466, 27.91286033668018], [88.19119142490017, 27.91267982761697], [88.19139462937801, 27.912678070422444], [88.19139067281122, 27.91231705230501], [88.19159387659735, 27.912315294832005], [88.19158991943767, 27.911954276732533], [88.19179312252314, 27.911952518990034], [88.19179114363337, 27.91177200993581], [88.19199434636847, 27.91177025190585], [88.19199236716432, 27.91158974286959], [88.19219556954009, 27.911587984552167], [88.19218765153765, 27.910865948407128], [88.192390852548, 27.910864189847164], [88.19238887275992, 27.910683680810905], [88.19259207341094, 27.910681921963477], [88.19259009329947, 27.9105014129362], [88.19279329360015, 27.910499653801313], [88.19278735236745, 27.909958126728466], [88.19258415308187, 27.909959885818438], [88.19258019302063, 27.90959886771897], [88.19237699439083, 27.90960062648555], [88.19237501472851, 27.90942011742234], [88.19054622924315, 27.90943593273004], [88.19054425262614, 27.90925542354107], [88.18749627857791, 27.90928172826973], [88.18749430704536, 27.90910121887414], [88.18566552367105, 27.909116969242632], [88.18566355519276, 27.908936459721282], [88.18505396141438, 27.908941704418286], [88.18505199396017, 27.908761194843038], [88.1842392033576, 27.908768183520355], [88.18423723726885, 27.90858767390019], [88.18362764513438, 27.908592912219156], [88.18362568007868, 27.908412402545093], [88.18301608879761, 27.90841763813318], [88.18301412476599, 27.908237128423185], [88.18281092797773, 27.908238873005367], [88.18280896430544, 27.90805836326842], [88.182199374821, 27.908063595182398], [88.18219741218176, 27.90788308540952], [88.18179101977306, 27.90788657182504], [88.18178905782553, 27.907706062016228], [88.18138266602767, 27.907709547210032], [88.18138070477184, 27.90752903736529], [88.18117750917834, 27.907530779504054], [88.18117358739433, 27.907169759778636], [88.18137678231409, 27.907168017675804], [88.18137482111216, 27.906987507813096], [88.18117162652477, 27.906989249915924], [88.18116966568218, 27.90680874003525], [88.18096647141817, 27.90681048182367], [88.18096451092592, 27.90662997193401], [88.18015173505572, 27.906636936006468], [88.1801497759289, 27.90645642606291], [88.17974338855075, 27.906459906280052], [88.17974143012461, 27.90627939630056], [88.17892865650919, 27.906286353078702], [88.1789266994395, 27.90610584304531], [88.17831712005214, 27.906111057451124], [88.17831516401552, 27.905930547363837], [88.17770558547257, 27.905935759038773], [88.17770363046003, 27.90575524890657], [88.17750043791182, 27.905756985520693], [88.1774984832676, 27.905576475379505], [88.17688890652127, 27.90558168337135], [88.17688695290113, 27.905401173185243], [88.17648056899945, 27.905404643655665], [88.17647861606203, 27.905224133433627], [88.17627542442112, 27.90522586821519], [88.17626761423448, 27.904503827228233], [88.17606442392307, 27.904505561650467], [88.17606247175819, 27.904325051383516], [88.17585928176119, 27.90432678549134], [88.17585732994665, 27.904146275206422], [88.17565414027305, 27.904148008999837], [88.17565023738061, 27.903786988385086], [88.17544704836277, 27.903788721855104], [88.17544509728486, 27.90360821152527], [88.17524190858144, 27.90360994468088], [88.17523800714426, 27.90324892398528], [88.17503481910559, 27.903250656817498], [88.17503091841401, 27.902889636076985], [88.17482773103112, 27.902891368576825], [88.17482578104914, 27.902710858184108], [88.1744194068852, 27.90271432227649], [88.17441745760392, 27.902533811856824], [88.17340152357302, 27.902542466774243], [88.17339957598955, 27.90236195627373], [88.17299320293056, 27.90236541611708], [88.17299125603878, 27.902184905598602], [88.17278806981471, 27.90218663505315], [88.17278612328228, 27.902006124507725], [88.17258293738159, 27.902007853656848], [88.1725809911995, 27.90182734309345], [88.17095550602426, 27.90184116538988], [88.1709574495114, 27.902021676061075], [88.17075426344903, 27.90202340250627], [88.1707562066128, 27.902203913186444], [88.1705530201911, 27.902205639353163], [88.17055496304043, 27.90238615003334], [88.17014858946939, 27.902389601495408], [88.17014664730277, 27.902209090779298], [88.1697402743336, 27.902212541019658], [88.16973833285867, 27.9020320302766], [88.16953514667952, 27.90203375493415], [88.16953320555494, 27.90185324417312], [88.16933001969917, 27.90185496851626], [88.16932807893392, 27.901674457746253], [88.16912489340154, 27.90167618177498], [88.16912295297765, 27.901495670978022], [88.16891976776867, 27.90149739469234], [88.1689178277041, 27.9013168838864], [88.16851145789701, 27.90132033039875], [88.16850951852413, 27.901139819556878], [88.16789996468485, 27.9011449870347], [88.16789802634506, 27.900964476147912], [88.1666789202026, 27.900974802946855], [88.1666808565212, 27.901155313914494], [88.1656649325604, 27.9011639114116], [88.16566686720813, 27.901344422433134], [88.16505731160815, 27.90134957737946], [88.16505924525876, 27.901530088436928], [88.1646528740952, 27.901533523594576], [88.16465480709901, 27.901714034678996], [88.16404524919935, 27.901719185205607], [88.16404718120603, 27.90189969632596], [88.16343762213855, 27.90190484419356], [88.16343569114696, 27.901724333037276], [88.1636388771824, 27.901722617398814], [88.1636350145704, 27.90136159509523], [88.16424457054767, 27.901356446446094], [88.16424263825353, 27.901175935325746], [88.1640394532871, 27.90117765183557], [88.16403752135228, 27.900997140697257], [88.16545981341338, 27.900985118966016], [88.16545787914293, 27.90080460791753], [88.16423877372813, 27.900814913076058], [88.16423684148788, 27.900634401946725], [88.16403365752757, 27.900636118411636], [88.16403172564665, 27.900455607264337], [88.16423490927458, 27.900453890808407], [88.16423297707028, 27.90027337967009], [88.16463934358954, 27.90026994589585], [88.16463741072947, 27.9000894347755], [88.16484059362976, 27.900087717448205], [88.16483866045527, 27.899907206336835], [88.16524502551927, 27.89990377081088], [88.165243091689, 27.89972325972646], [88.1654462738527, 27.8997215415278], [88.16544433969904, 27.89954103044338], [88.16625706684462, 27.899534154711247], [88.16625900234575, 27.89971466574177], [88.16686854853138, 27.899709505764875], [88.16686661201517, 27.89952899477029], [88.16706979370275, 27.899527274191094], [88.16706785687211, 27.89934676320549], [88.16767740082093, 27.899341599716188], [88.16767933865769, 27.899522110656875], [88.16930479108035, 27.899508328048015], [88.16930285054866, 27.899327817215124], [88.16950603167929, 27.899326093051652], [88.16950797255234, 27.899506603875558], [88.16971115400636, 27.899504879406656], [88.16971309523873, 27.899685390212596], [88.16991627701616, 27.899683665429286], [88.16991821859888, 27.89986417621726], [88.17012140069069, 27.89986245111954], [88.17012334262377, 27.900042961898528], [88.17032652503897, 27.900041236486395], [88.17032846733137, 27.900221747238437], [88.17073483277265, 27.90021829549789], [88.1707387187678, 27.900579316939094], [88.17114508548468, 27.900575863940904], [88.1711431418089, 27.900395353251746], [88.17134632479903, 27.90039362632146], [88.17134438079984, 27.9002131156323], [88.17195392867431, 27.900207933071762]], [[88.17195392867431, 27.900207933071762], [88.1721571112602, 27.9002062049557], [88.17216100196251, 27.90056722621724], [88.17195781870288, 27.90056895436025], [88.17195392867431, 27.900207933071762]], [[88.17560926140266, 27.89999627072196], [88.17560731036068, 27.89981576031128], [88.17581049194945, 27.899814026823293], [88.1758124433238, 27.899994537233976], [88.17560926140266, 27.89999627072196]], [[88.18116182248244, 27.90608670049458], [88.18116378325318, 27.90626721039322], [88.18096059000428, 27.906268952136724], [88.18095862956592, 27.906088442229102], [88.18116182248244, 27.90608670049458]], [[88.16586231253262, 27.900620659438662], [88.1662686801119, 27.9006172208225], [88.16627061572083, 27.90079773182607], [88.16586424746781, 27.90080117046918], [88.16586231253262, 27.900620659438662]], [[88.16605969062736, 27.900077407214194], [88.1662628734019, 27.900075687793823], [88.16626480895694, 27.900256198806378], [88.16606162585002, 27.90025791823573], [88.16605969062736, 27.900077407214194]], [[88.17053942076669, 27.90094206443023], [88.17074260482582, 27.90094033836233], [88.17074454788177, 27.90112084906047], [88.17054136349026, 27.90112257514634], [88.17053942076669, 27.90094206443023]], [[88.19195278682696, 27.907979561084385], [88.19215598246538, 27.907977803027475], [88.1921579616426, 27.908158312153567], [88.1919547656718, 27.90816007021946], [88.19195278682696, 27.907979561084385]], [[88.1940045653194, 27.909767056918064], [88.19441096294733, 27.909763534264506], [88.19441294602323, 27.909944043183987], [88.19400654772157, 27.909947565873473], [88.1940045653194, 27.909767056918064]], [[88.20522649959253, 27.913821435039843], [88.20583611622405, 27.9138161002508], [88.20583811860476, 27.91399660831688], [88.20522850095814, 27.914001943141855], [88.20522649959253, 27.913821435039843]], [[88.18157997720691, 27.907166275267546], [88.1815780156726, 27.906985765422803], [88.18178121021508, 27.906984022727084], [88.18178317209073, 27.90716453255386], [88.18157997720691, 27.907166275267546]], [[88.16727878698715, 27.900067086191417], [88.16788833491553, 27.9000619216421], [88.1678902731655, 27.90024243255584], [88.16728072422204, 27.90024759714109], [88.16727878698715, 27.900067086191417]], [[88.16727878698715, 27.900067086191417], [88.16707560430244, 27.90006880711197], [88.16707366741791, 27.899888296144336], [88.16727684976127, 27.899886575241744], [88.16727878698715, 27.900067086191417]], [[88.18157997720691, 27.907166275267546], [88.18158193876816, 27.907346785103307], [88.18137874353398, 27.907348527520547], [88.18137678231409, 27.907168017675804], [88.18157997720691, 27.907166275267546]]], [[[88.17625394710404, 27.903240255332623], [88.17605075914622, 27.903241989656042], [88.17604880710711, 27.90306147935316], [88.17625199472357, 27.90305974503872], [88.17625394710404, 27.903240255332623]]], [[[88.1947895899847, 27.907232885291965], [88.19479157347382, 27.90741339425636], [88.19499476784561, 27.907411632058217], [88.19499278401513, 27.907231123102804], [88.1951959780276, 27.9072293606172], [88.19519994637129, 27.907590378492092], [88.19540314103953, 27.907588615674108], [88.19540115651733, 27.90740810675463], [88.19560435083523, 27.90740634365817], [88.19560038117999, 27.907045325819215], [88.1958035747972, 27.90704356244428], [88.19581548600871, 27.908126615808435], [88.19561229037029, 27.90812837926422], [88.19560832056234, 27.907767361470178], [88.1952019305701, 27.907770887429535], [88.19520589903057, 27.908131905277475], [88.19540909470493, 27.908130142423563], [88.195415048541, 27.908671669119116], [88.19480545840977, 27.90867695689932], [88.19480347479488, 27.90849644797086], [88.19460027838392, 27.908498209953407], [88.19459631188177, 27.908137192042584], [88.19439311612656, 27.90813895370174], [88.19438716751868, 27.90759742675466], [88.1945903622588, 27.90759566514042], [88.1945863959363, 27.90723464718468], [88.1947895899847, 27.907232885291965]]], [[[88.19499278401513, 27.907231123102804], [88.1947895899847, 27.907232885291965], [88.19478562306932, 27.90687186734521], [88.19498881641702, 27.906870105183], [88.19499278401513, 27.907231123102804]]], [[[88.19581548600871, 27.908126615808435], [88.19601868162916, 27.908124852056208], [88.19602066723832, 27.908305360921787], [88.1958174712765, 27.908307124691984], [88.19581548600871, 27.908126615808435]]], [[[88.19602066723832, 27.908305360921787], [88.19622386318215, 27.90830359685515], [88.19622783511014, 27.90866461454139], [88.19582144186599, 27.908668142432123], [88.19581945656226, 27.908487633557563], [88.19602265285646, 27.908485869778385], [88.19602066723832, 27.908305360921787]]]]}, "id": "+785+678", "properties": {"area_m2": 1254113.4097927285, "count": 3129, "label": 1, "seed_distance_m": 0, "site_id": "south-lhonak", "recordId": "south-lhonak-lake", "kind": "lake", "status": "candidate", "observation_date": "2025-11-29", "scene_id": "COPERNICUS/S2_SR_HARMONIZED/20251129T044151_20251129T044235_T45RXL", "source": "Sentinel-2 spectral water baseline", "resolution_m": 20, "method": "NDWI > 0.05; MNDWI > 0.1; B8 < 2500; SCL rejects cloud, shadow, snow, invalid. Largest connected component >= 0.05 km2 within 1200 m of seed.", "limitations": "Candidate, not reviewed shoreline. Seasonal ice, terrain shadow and turbid water can cause omission or commission."}}]}