{"type": "FeatureCollection", "columns": {"area_m2": "Float", "count": "Long<0, 4294967295>", "label": "Integer", "seed_distance_m": "Float", "system:index": "String"}, "features": [{"type": "Feature", "geometry": {"geodesic": false, "type": "Polygon", "coordinates": [[[88.20288280184346, 27.915327117070955], [88.20288280184346, 27.91514745401413], [88.2025234757298, 27.91514745401413], [88.2025234757298, 27.915327117070955], [88.19982852987745, 27.915327117070955], [88.19982852987745, 27.91514745401413], [88.19910987765016, 27.91514745401413], [88.19910987765016, 27.914967790957306], [88.19893021459333, 27.914967790957306], [88.19893021459333, 27.914788127900483], [88.1987505515365, 27.914788127900483], [88.1987505515365, 27.91460846484366], [88.19857088847968, 27.91460846484366], [88.19857088847968, 27.914428801786833], [88.19623526874098, 27.914428801786833], [88.19623526874098, 27.91460846484366], [88.19587594262732, 27.91460846484366], [88.19587594262732, 27.914788127900483], [88.1956962795705, 27.914788127900483], [88.1956962795705, 27.914967790957306], [88.19425897511591, 27.914967790957306], [88.19425897511591, 27.914788127900483], [88.19389964900226, 27.914788127900483], [88.19389964900226, 27.91460846484366], [88.19282167066132, 27.91460846484366], [88.19282167066132, 27.914428801786833], [88.19264200760449, 27.914428801786833], [88.19264200760449, 27.91460846484366], [88.19228268149085, 27.91460846484366], [88.19228268149085, 27.914428801786833], [88.19138436620672, 27.914428801786833], [88.19138436620672, 27.91424913873001], [88.19120470314991, 27.91424913873001], [88.19120470314991, 27.914428801786833], [88.19012672480896, 27.914428801786833], [88.19012672480896, 27.91424913873001], [88.18797076812707, 27.91424913873001], [88.18797076812707, 27.914069475673188], [88.1874317789566, 27.914069475673188], [88.1874317789566, 27.91388981261636], [88.18707245284295, 27.91388981261636], [88.18707245284295, 27.91424913873001], [88.18653346367248, 27.91424913873001], [88.18653346367248, 27.91388981261636], [88.1867131267293, 27.91388981261636], [88.1867131267293, 27.913710149559538], [88.18689278978613, 27.913710149559538], [88.18689278978613, 27.913350823445892], [88.18761144201342, 27.913350823445892], [88.18761144201342, 27.913171160389066], [88.1881504311839, 27.913171160389066], [88.1881504311839, 27.912991497332243], [88.18833009424073, 27.912991497332243], [88.18833009424073, 27.91245250816177], [88.18761144201342, 27.91245250816177], [88.18761144201342, 27.912632171218597], [88.18653346367248, 27.912632171218597], [88.18653346367248, 27.91281183427542], [88.18635380061566, 27.91281183427542], [88.18635380061566, 27.913350823445892], [88.18617413755884, 27.913350823445892], [88.18617413755884, 27.913530486502715], [88.18599447450201, 27.913530486502715], [88.18599447450201, 27.91388981261636], [88.18491649616107, 27.91388981261636], [88.18491649616107, 27.91424913873001], [88.18509615921789, 27.91424913873001], [88.18509615921789, 27.914428801786833], [88.18491649616107, 27.914428801786833], [88.18491649616107, 27.91424913873001], [88.18473683310424, 27.91424913873001], [88.18473683310424, 27.914069475673188], [88.1843775069906, 27.914069475673188], [88.1843775069906, 27.914428801786833], [88.18401818087695, 27.914428801786833], [88.18401818087695, 27.91460846484366], [88.1836588547633, 27.91460846484366], [88.1836588547633, 27.914428801786833], [88.18347919170647, 27.914428801786833], [88.18347919170647, 27.91424913873001], [88.18311986559283, 27.91424913873001], [88.18311986559283, 27.914069475673188], [88.182940202536, 27.914069475673188], [88.182940202536, 27.91388981261636], [88.18258087642235, 27.91388981261636], [88.18258087642235, 27.913710149559538], [88.18240121336554, 27.913710149559538], [88.18240121336554, 27.913530486502715], [88.18222155030871, 27.913530486502715], [88.18222155030871, 27.914069475673188], [88.18240121336554, 27.914069475673188], [88.18240121336554, 27.91424913873001], [88.18222155030871, 27.91424913873001], [88.18222155030871, 27.914069475673188], [88.18204188725188, 27.914069475673188], [88.18204188725188, 27.913710149559538], [88.18186222419506, 27.913710149559538], [88.18186222419506, 27.91388981261636], [88.18168256113823, 27.91388981261636], [88.18168256113823, 27.913710149559538], [88.1815028980814, 27.913710149559538], [88.1815028980814, 27.913530486502715], [88.18168256113823, 27.913530486502715], [88.18168256113823, 27.913350823445892], [88.18132323502459, 27.913350823445892], [88.18132323502459, 27.913171160389066], [88.18096390891094, 27.913171160389066], [88.18096390891094, 27.912991497332243], [88.18060458279729, 27.912991497332243], [88.18060458279729, 27.91281183427542], [88.18006559362682, 27.91281183427542], [88.18006559362682, 27.91245250816177], [88.17952660445634, 27.91245250816177], [88.17952660445634, 27.912272845104948], [88.17988593057, 27.912272845104948], [88.17988593057, 27.912093182048125], [88.18006559362682, 27.912093182048125], [88.18006559362682, 27.911913518991298], [88.18024525668365, 27.911913518991298], [88.18024525668365, 27.911554192877652], [88.18042491974047, 27.911554192877652], [88.18042491974047, 27.911194866764003], [88.18060458279729, 27.911194866764003], [88.18060458279729, 27.910296551479885], [88.18078424585411, 27.910296551479885], [88.18078424585411, 27.90957789925259], [88.18096390891094, 27.90957789925259], [88.18096390891094, 27.909038910082117], [88.18114357196777, 27.909038910082117], [88.18114357196777, 27.908859247025294], [88.18132323502459, 27.908859247025294], [88.18132323502459, 27.908140594798], [88.1815028980814, 27.908140594798], [88.1815028980814, 27.90778126868435], [88.18204188725188, 27.90778126868435], [88.18204188725188, 27.907960931741172], [88.18240121336554, 27.907960931741172], [88.18240121336554, 27.908140594798], [88.182940202536, 27.908140594798], [88.182940202536, 27.90832025785482], [88.1836588547633, 27.90832025785482], [88.1836588547633, 27.908499920911645], [88.18383851782012, 27.908499920911645], [88.18383851782012, 27.90832025785482], [88.18455717004741, 27.90832025785482], [88.18455717004741, 27.908499920911645], [88.18563514838836, 27.908499920911645], [88.18563514838836, 27.90867958396847], [88.1867131267293, 27.90867958396847], [88.1867131267293, 27.908859247025294], [88.18761144201342, 27.908859247025294], [88.18761144201342, 27.909398236195766], [88.18797076812707, 27.909398236195766], [88.18797076812707, 27.90957789925259], [88.1881504311839, 27.90957789925259], [88.1881504311839, 27.909757562309412], [88.18850975729754, 27.909757562309412], [88.18850975729754, 27.90921857313894], [88.18868942035436, 27.90921857313894], [88.18868942035436, 27.909038910082117], [88.19030638786579, 27.909038910082117], [88.19030638786579, 27.90921857313894], [88.19066571397943, 27.90921857313894], [88.19066571397943, 27.909038910082117], [88.19120470314991, 27.909038910082117], [88.19120470314991, 27.90921857313894], [88.19138436620672, 27.90921857313894], [88.19138436620672, 27.909398236195766], [88.19156402926355, 27.909398236195766], [88.19156402926355, 27.90957789925259], [88.19264200760449, 27.90957789925259], [88.19264200760449, 27.909398236195766], [88.19336065983178, 27.909398236195766], [88.19336065983178, 27.90957789925259], [88.19371998594544, 27.90957789925259], [88.19371998594544, 27.909757562309412], [88.19407931205909, 27.909757562309412], [88.19407931205909, 27.90957789925259], [88.19443863817273, 27.90957789925259], [88.19443863817273, 27.909398236195766], [88.1949776273432, 27.909398236195766], [88.1949776273432, 27.90957789925259], [88.19515729040003, 27.90957789925259], [88.19515729040003, 27.909757562309412], [88.19533695345685, 27.909757562309412], [88.19533695345685, 27.90957789925259], [88.19677425791144, 27.90957789925259], [88.19677425791144, 27.909757562309412], [88.1971335840251, 27.909757562309412], [88.1971335840251, 27.909937225366235], [88.19749291013873, 27.909937225366235], [88.19749291013873, 27.909757562309412], [88.19785223625239, 27.909757562309412], [88.19785223625239, 27.909937225366235], [88.19821156236604, 27.909937225366235], [88.19821156236604, 27.909757562309412], [88.1987505515365, 27.909757562309412], [88.1987505515365, 27.909937225366235], [88.19964886682062, 27.909937225366235], [88.19964886682062, 27.91011688842306], [88.2001878559911, 27.91011688842306], [88.2001878559911, 27.910296551479885], [88.20072684516157, 27.910296551479885], [88.20072684516157, 27.910476214536708], [88.20108617127522, 27.910476214536708], [88.20108617127522, 27.910655877593534], [88.20144549738886, 27.910655877593534], [88.20144549738886, 27.910835540650357], [88.20198448655934, 27.910835540650357], [88.20198448655934, 27.91101520370718], [88.20234381267298, 27.91101520370718], [88.20234381267298, 27.911194866764003], [88.2025234757298, 27.911194866764003], [88.2025234757298, 27.91137452982083], [88.20288280184346, 27.91137452982083], [88.20288280184346, 27.911554192877652], [88.20342179101392, 27.911554192877652], [88.20342179101392, 27.911733855934475], [88.20378111712758, 27.911733855934475], [88.20378111712758, 27.911913518991298], [88.2039607801844, 27.911913518991298], [88.2039607801844, 27.912093182048125], [88.20414044324123, 27.912093182048125], [88.20414044324123, 27.912272845104948], [88.20432010629804, 27.912272845104948], [88.20432010629804, 27.91245250816177], [88.2046794324117, 27.91245250816177], [88.2046794324117, 27.912632171218597], [88.20485909546852, 27.912632171218597], [88.20485909546852, 27.91281183427542], [88.20503875852535, 27.91281183427542], [88.20503875852535, 27.912991497332243], [88.20521842158216, 27.912991497332243], [88.20521842158216, 27.913171160389066], [88.20557774769581, 27.913171160389066], [88.20557774769581, 27.912991497332243], [88.20575741075264, 27.912991497332243], [88.20575741075264, 27.913171160389066], [88.20611673686629, 27.913171160389066], [88.20611673686629, 27.913350823445892], [88.20575741075264, 27.913350823445892], [88.20575741075264, 27.913530486502715], [88.20611673686629, 27.913530486502715], [88.20611673686629, 27.913710149559538], [88.20647606297993, 27.913710149559538], [88.20647606297993, 27.91388981261636], [88.20665572603676, 27.91388981261636], [88.20665572603676, 27.91424913873001], [88.20647606297993, 27.91424913873001], [88.20647606297993, 27.914428801786833], [88.20683538909358, 27.914428801786833], [88.20683538909358, 27.914967790957306], [88.20665572603676, 27.914967790957306], [88.20665572603676, 27.91514745401413], [88.2062963999231, 27.91514745401413], [88.2062963999231, 27.914967790957306], [88.20449976935487, 27.914967790957306], [88.20449976935487, 27.91514745401413], [88.20503875852535, 27.91514745401413], [88.20503875852535, 27.915327117070955], [88.20288280184346, 27.915327117070955]], [[88.18114357196777, 27.910296551479885], [88.18096390891094, 27.910296551479885], [88.18096390891094, 27.91011688842306], [88.18114357196777, 27.91011688842306], [88.18114357196777, 27.910296551479885]], [[88.18797076812707, 27.910835540650357], [88.18707245284295, 27.910835540650357], [88.18707245284295, 27.910655877593534], [88.18653346367248, 27.910655877593534], [88.18653346367248, 27.910476214536708], [88.18617413755884, 27.910476214536708], [88.18617413755884, 27.910296551479885], [88.18545548533153, 27.910296551479885], [88.18545548533153, 27.909757562309412], [88.18707245284295, 27.909757562309412], [88.18707245284295, 27.909937225366235], [88.18833009424073, 27.909937225366235], [88.18833009424073, 27.91011688842306], [88.18850975729754, 27.91011688842306], [88.18850975729754, 27.910476214536708], [88.18833009424073, 27.910476214536708], [88.18833009424073, 27.910655877593534], [88.18797076812707, 27.910655877593534], [88.18797076812707, 27.910835540650357]], [[88.18797076812707, 27.911733855934475], [88.18779110507025, 27.911733855934475], [88.18779110507025, 27.911554192877652], [88.18797076812707, 27.911554192877652], [88.18797076812707, 27.911733855934475]], [[88.1881504311839, 27.914069475673188], [88.18797076812707, 27.914069475673188], [88.18797076812707, 27.91388981261636], [88.1881504311839, 27.91388981261636], [88.1881504311839, 27.914069475673188]], [[88.19030638786579, 27.91424913873001], [88.19012672480896, 27.91424913873001], [88.19012672480896, 27.914069475673188], [88.19030638786579, 27.914069475673188], [88.19030638786579, 27.91424913873001]], [[88.20665572603676, 27.914967790957306], [88.20647606297993, 27.914967790957306], [88.20647606297993, 27.914788127900483], [88.20665572603676, 27.914788127900483], [88.20665572603676, 27.914967790957306]], [[88.20360145407075, 27.91514745401413], [88.20342179101392, 27.91514745401413], [88.20342179101392, 27.914967790957306], [88.20360145407075, 27.914967790957306], [88.20360145407075, 27.91514745401413]]]}, "id": "+490946+155375", "properties": {"area_m2": 1307374.3352268967, "count": 3707, "label": 1, "seed_distance_m": 0, "site_id": "south-lhonak", "recordId": "south-lhonak-lake", "kind": "lake", "status": "candidate", "observation_date": "2024-11-02", "scene_id": "COPERNICUS/S2_SR_HARMONIZED/20241102T044849_20241102T045605_T45RXM", "source": "Sentinel-2 spectral water baseline", "resolution_m": 20, "method": "NDWI > 0.05; MNDWI > 0.1; B8 < 2500; SCL rejects cloud, shadow, snow, invalid. Largest connected component >= 0.05 km2 within 1200 m of seed.", "limitations": "Candidate, not reviewed shoreline. Seasonal ice, terrain shadow and turbid water can cause omission or commission."}}]}