{"type": "FeatureCollection", "columns": {"area_m2": "Float", "count": "Long<0, 4294967295>", "label": "Integer", "seed_distance_m": "Float", "system:index": "String"}, "features": [{"type": "Feature", "geometry": {"geodesic": false, "type": "MultiPolygon", "coordinates": [[[[88.20336567786649, 27.910949290955088], [88.20336168185469, 27.91058827433784], [88.20376808115347, 27.910584723989224], [88.20377007982412, 27.910765232279882], [88.20417647973377, 27.910761680700574], [88.20417847909613, 27.9109421889553], [88.20336567786649, 27.910949290955088]]], [[[88.19419586812585, 27.908682241993567], [88.19419388551707, 27.908501733020188], [88.19439708196397, 27.90849997163951], [88.1943950990318, 27.908319462666135], [88.19459829512834, 27.908317700997998], [88.19459432865314, 27.90795668307819], [88.19479752404901, 27.907954921140558], [88.19480347479488, 27.90849644797086], [88.19500667118788, 27.908494685682886], [88.19500071943591, 27.9079531588975], [88.19520391478686, 27.907951396349013], [88.19520589903057, 27.908131905277475], [88.19540909470493, 27.908130142423563], [88.1954051255797, 27.90776912459359], [88.19479554050598, 27.907774412185148], [88.19479355698093, 27.907593903220754], [88.1956063356898, 27.907586852568667], [88.19560832056234, 27.907767361470178], [88.19581151552701, 27.907765598041344], [88.19581350075887, 27.90794610692489], [88.19601669604695, 27.90794434319063], [88.19602066723832, 27.908305360921787], [88.1958174712765, 27.908307124691984], [88.19582144186599, 27.908668142432123], [88.19602463850154, 27.90866637863498], [88.1960266241556, 27.908846887482593], [88.19562023019282, 27.908850414798405], [88.19562221520009, 27.90903092367297], [88.19602860983663, 27.909027396330206], [88.19603059552664, 27.909207905168838], [88.19623379315931, 27.90920614103033], [88.19623180712794, 27.90902563220967], [88.1966382016477, 27.909022103070278], [88.19664018836178, 27.909202611872974], [88.19745297854215, 27.909195549947032], [88.19745099048059, 27.909015041198234], [88.19765418764614, 27.90901327498462], [88.19765617604007, 27.909193783715452], [88.19907855801354, 27.909181411722102], [88.19908253958044, 27.909542428977154], [88.19969213360137, 27.909537122125712], [88.19969412541788, 27.90971763070383], [88.1998973237243, 27.909715861139503], [88.19989533156642, 27.90953535257037], [88.20009852952249, 27.909533582718577], [88.20010052201275, 27.90971409127873], [88.20030372028323, 27.90971232111253], [88.2003057131328, 27.909892829654716], [88.20091530885153, 27.909887517323554], [88.2009173027252, 27.910068025811842], [88.20132370045194, 27.91006448273958], [88.20132569502627, 27.910244991200916], [88.20193529248775, 27.910239674288345], [88.20193728808617, 27.91042018270477], [88.20214048754242, 27.910418409798705], [88.20214248350017, 27.910598918197163], [88.20254888302354, 27.910595371441808], [88.20255087967298, 27.91077587980433], [88.20316047983839, 27.91077055738509], [88.20316247751192, 27.91095106571168], [88.20336567786649, 27.910949290955088], [88.20336767590832, 27.911129799263712], [88.20377407722833, 27.911126248834247], [88.20377607596187, 27.91130675710694], [88.20397927693628, 27.911304981425083], [88.20398127602016, 27.91148548967981], [88.20438767857983, 27.911481937399817], [88.20438967836441, 27.911662445618607], [88.20479608152596, 27.911658892116908], [88.20479808199325, 27.91183940030875], [88.20500128389291, 27.911837623090776], [88.20500328471954, 27.912018131255667], [88.20520648692464, 27.912016353732266], [88.20520848811057, 27.912196861888177], [88.2056148931496, 27.912193305898143], [88.20561689502725, 27.912373814018117], [88.20602330065915, 27.912370256815358], [88.2060253032285, 27.912550764899404], [88.20622850635887, 27.912548985839884], [88.20623050928754, 27.91272949390596], [88.20663691615913, 27.91272593484369], [88.20663891977951, 27.912906442882818], [88.20684212352971, 27.912904662889048], [88.20684813550474, 27.913446186943556], [88.2070513402431, 27.913444406608427], [88.20705334460908, 27.91362491460264], [88.2074597547146, 27.913621353007116], [88.20746175977229, 27.9138018609654], [88.20766496513048, 27.913800079713987], [88.20766897598244, 27.914161095585634], [88.20787218199641, 27.914159314001846], [88.20787017622007, 27.9139788060795], [88.2080733818837, 27.91397702420825], [88.2080753879924, 27.914157532121617], [88.20827859397042, 27.914155749935958], [88.20828060042948, 27.914336257831355], [88.2084838067309, 27.914334475331287], [88.20848581354927, 27.914514983199737], [88.20868902016511, 27.914513200394243], [88.20869303453848, 27.914874216095207], [88.20909944906371, 27.914870649523017], [88.20910346485643, 27.91523166515212], [88.20930667276583, 27.91522988139441], [88.20931872261434, 27.91631292809307], [88.20911551268372, 27.916314711931626], [88.20911752071483, 27.916495219719227], [88.20871110012597, 27.916498786533964], [88.20870909275962, 27.916318278728394], [88.2085058827751, 27.91632006166864], [88.20850387576809, 27.916139553845106], [88.20748782723791, 27.91614846400983], [88.2074858219287, 27.91596795611443], [88.20667298411966, 27.91597507880242], [88.20667098018487, 27.915794570844138], [88.20585814342687, 27.915801688681224], [88.2058561408665, 27.915621180669042], [88.19935344690121, 27.915677950359193], [88.19935145514758, 27.91549744191582], [88.1985386184255, 27.915504516499027], [88.19854060883166, 27.91568502500528], [88.19610209282637, 27.91570622015254], [88.19610010647162, 27.915525711493572], [88.1942712207702, 27.9155415794156], [88.19426923746073, 27.91536107063087], [88.19325319089788, 27.91536987559389], [88.19325120929521, 27.91518936672831], [88.19203195483192, 27.915199922714432], [88.19202799573189, 27.914838904821575], [88.19182478726553, 27.914840663076117], [88.19182082891109, 27.91447964512936], [88.1916176211005, 27.914481403060506], [88.1916156422916, 27.91430089406916], [88.1914124348044, 27.914302651685897], [88.19141045634584, 27.914122142676586], [88.19120724917305, 27.91412389997891], [88.19120527107381, 27.913943390951637], [88.19100206422442, 27.91394514793955], [88.19100008647553, 27.913764638894307], [88.1905936733876, 27.913768151953857], [88.19059169633938, 27.91358764287268], [88.19038849010084, 27.91358939893533], [88.19038651341197, 27.913408889845172], [88.18998010155472, 27.913412401045207], [88.18997614956935, 27.913051382784044], [88.19017935482873, 27.913049627359197], [88.19017144973508, 27.912327590836867], [88.18976504189331, 27.912331101282316], [88.18976701746827, 27.91251161044434], [88.18875099586062, 27.912520381388163], [88.18875296976472, 27.912700890613067], [88.18834656031497, 27.912704396917285], [88.1883445870846, 27.91252388766543], [88.18814138267862, 27.912525640359398], [88.18813546410142, 27.911984112522983], [88.18833866750128, 27.91198235987393], [88.18833669435176, 27.91180185060411], [88.1885398973923, 27.911800097667594], [88.18853792391938, 27.911619588397773], [88.18792831573202, 27.911624846273064], [88.18792634329218, 27.91144433695833], [88.18772314086249, 27.911446088969576], [88.18772116877298, 27.911265579645857], [88.1875179666667, 27.911267331342692], [88.18751599492754, 27.911086822001007], [88.18731279314464, 27.911088573383434], [88.18731082175582, 27.91090806402378], [88.18690441880088, 27.91091156586337], [88.18691230173309, 27.911633603400798], [88.187115504576, 27.911631852575326], [88.1871214179789, 27.912173380627337], [88.18732462180995, 27.912171629469487], [88.18732659331556, 27.912352138793207], [88.18752979746102, 27.91235038732095], [88.18753571310971, 27.912891915238212], [88.18712930277063, 27.912895417976117], [88.18712338914315, 27.912353889978004], [88.18692018496175, 27.912355640857378], [88.18691821412989, 27.912175131497722], [88.18651180637795, 27.9121786323312], [88.18651377653607, 27.912359141717804], [88.18610736803853, 27.912362641374486], [88.1861093375409, 27.912543150779054], [88.18509331428932, 27.912551894755453], [88.1850913464758, 27.912371385288], [88.18488814210575, 27.912373133166998], [88.18487830497847, 27.91147058567703], [88.18508150765967, 27.911468837860916], [88.1850697016858, 27.910385780786715], [88.18527290232784, 27.91038403274602], [88.18526699858182, 27.90984250418197], [88.1850637989459, 27.909844252186733], [88.18505986388479, 27.909483233090135], [88.18526306283799, 27.909481485121304], [88.18525715936147, 27.90893995648539], [88.18505396141438, 27.908941704418286], [88.18505199396017, 27.908761194843038], [88.1852551915659, 27.90875944692811], [88.18524535289352, 27.907856899078812], [88.18463576507995, 27.907862141736643], [88.18463379840729, 27.90768163211648], [88.18443060276887, 27.907683379052244], [88.18442863645552, 27.907502869414113], [88.18605419835588, 27.90748888560958], [88.18605616736416, 27.907669395148897], [88.18625936285885, 27.90766764581463], [88.18625739350921, 27.90748713629328], [88.18646058864456, 27.90748538667155], [88.18646255832658, 27.907665896174933], [88.18707214463997, 27.907660645468198], [88.18707017394284, 27.907480136000746], [88.18686697886139, 27.90748188652079], [88.1868650085236, 27.907301377035374], [88.18706820326369, 27.907299626524313], [88.1870662326025, 27.90711911704788], [88.18726942699226, 27.90711736625834], [88.18727534003584, 27.907658894642726], [88.18747853542273, 27.907657143502846], [88.18748050681155, 27.907837652943346], [88.18788689819618, 27.907834149756283], [88.18788492613362, 27.90765364034273], [88.18808812145762, 27.907651888304535], [88.18808614907168, 27.907471378908948], [88.18828934404534, 27.90746962658329], [88.18828737134497, 27.907289117196687], [88.18849056595931, 27.907287364592552], [88.18848859294454, 27.90710685520595], [88.18869178720854, 27.90710510231435], [88.18869770733083, 27.90764663042026], [88.18890090258297, 27.907644877187302], [88.18889892884955, 27.90746436783663], [88.18910212375135, 27.907462614316216], [88.1891060719099, 27.907823632990606], [88.18930926745848, 27.907821879146795], [88.18931124190159, 27.908002388461533], [88.1901240252817, 27.907995370040997], [88.19012204950012, 27.90781486078016], [88.19093483123632, 27.907807837625505], [88.19093680837436, 27.907988346832443], [88.19154639550521, 27.907983076281923], [88.19154837366733, 27.908163585443948], [88.1921579616426, 27.908158312153567], [88.19215994083777, 27.908338821270675], [88.19236313713196, 27.908337062899356], [88.19236709625895, 27.908698081088655], [88.19277349013191, 27.908694563384817], [88.1927715098857, 27.908514054321607], [88.19297470645837, 27.908512295034008], [88.19297272589775, 27.908331785970798], [88.19317592211108, 27.908330026395735], [88.19317790301307, 27.90851053544098], [88.19358429606856, 27.90850701537457], [88.19358825928288, 27.90886803339319], [88.19379145645742, 27.90886627288388], [88.19378947450441, 27.908685763892535], [88.19419586812585, 27.908682241993567]], [[88.19419586812585, 27.908682241993567], [88.19439906490513, 27.908680480594924], [88.19440104786425, 27.908860989550334], [88.1941978507436, 27.908862750966943], [88.19419586812585, 27.908682241993567]], [[88.19480347479488, 27.90849644797086], [88.19480545840977, 27.90867695689932], [88.19460226166643, 27.908678718899836], [88.19460027838392, 27.908498209953407], [88.19480347479488, 27.90849644797086]]]]}, "id": "+848+626", "properties": {"area_m2": 1358316.4640203933, "count": 3389, "label": 1, "seed_distance_m": 0, "site_id": "south-lhonak", "recordId": "south-lhonak-lake", "kind": "lake", "status": "candidate", "observation_date": "2017-11-19", "scene_id": "COPERNICUS/S2_SR_HARMONIZED/20171119T045049_20171119T045853_T45RXL", "source": "Sentinel-2 spectral water baseline", "resolution_m": 20, "method": "NDWI > 0.05; MNDWI > 0.1; B8 < 2500; SCL rejects cloud, shadow, snow, invalid. Largest connected component >= 0.05 km2 within 1200 m of seed.", "limitations": "Candidate, not reviewed shoreline. Seasonal ice, terrain shadow and turbid water can cause omission or commission."}}]}