{"type": "FeatureCollection", "columns": {"area_m2": "Float", "count": "Long<0, 4294967295>", "label": "Integer", "seed_distance_m": "Float", "system:index": "String"}, "features": [{"type": "Feature", "geometry": {"geodesic": false, "type": "Polygon", "coordinates": [[[84.47846074498248, 28.49743328923569], [84.47847790335238, 28.496711859974493], [84.47868206163444, 28.49671564925701], [84.47869492894986, 28.49617457717187], [84.47889908623479, 28.496178366068108], [84.47891195215782, 28.49563729383924], [84.47911610843663, 28.495641082349202], [84.47912468483231, 28.49528036744911], [84.47932884045537, 28.495284155590763], [84.47934170371937, 28.49474308311935], [84.47954585834529, 28.494746870865747], [84.47955872020793, 28.494205798259586], [84.47976287382774, 28.494209585619707], [84.47977573429799, 28.4936685128788], [84.47997988692964, 28.49367229984366], [84.47998845968715, 28.493311584602203], [84.48019261165405, 28.49331537120774], [84.48020546945631, 28.492774298224287], [84.48040962043507, 28.492778084434562], [84.48041819140492, 28.49241736902243], [84.48062234172791, 28.49242115487338], [84.48063091185334, 28.49206043938938], [84.48083506152057, 28.49206422487202], [84.48083934617904, 28.49188386709409], [84.48104349554083, 28.491887652253336], [84.4810520640493, 28.491526936616626], [84.48125621275531, 28.491530721407564], [84.48126478041038, 28.491170005698987], [84.48146892846063, 28.491173790121614], [84.48148177860925, 28.490632716428493], [84.48168592566236, 28.49063650047383], [84.48169877441859, 28.490095426645958], [84.48190292047457, 28.490099210287053], [84.48191148541673, 28.489738494326946], [84.48211563081695, 28.489742277608716], [84.4821241949147, 28.48938156156776], [84.48232833965915, 28.48938534448122], [84.48233690291246, 28.48902462835942], [84.48254104700115, 28.489028410922536], [84.48255389053816, 28.488487336609577], [84.48275803363869, 28.488491118777432], [84.48276659510437, 28.488130402484952], [84.48297073754014, 28.488134184293482], [84.48297929816141, 28.487773467929134], [84.4831834399504, 28.487777249369355], [84.48318771985679, 28.48759689115125], [84.48339186134035, 28.487600672259095], [84.48339614085148, 28.487420314005057], [84.48360028202963, 28.487424094780526], [84.48360884025239, 28.48706337820058], [84.48381298077474, 28.48706715860774], [84.48381725948639, 28.486886800281837], [84.48402139969434, 28.48689058035662], [84.48402995630013, 28.486529863632946], [84.4842340958613, 28.4865336433484], [84.48423837376444, 28.48635328495063], [84.48444251302018, 28.48635706432473], [84.48444679052808, 28.48617670590001], [84.48465092947839, 28.48618048494173], [84.4846552066, 28.486000126472096], [84.48485934524489, 28.486003905190422], [84.48486789867962, 28.48564318817929], [84.48507203666874, 28.485646966529306], [84.48507631299086, 28.485466607996788], [84.48528045066557, 28.485470386005446], [84.4852847266014, 28.485290027437], [84.48548886397069, 28.48529380511328], [84.48549741502488, 28.48493308789553], [84.4857015517384, 28.484936865212486], [84.48570582686575, 28.48475650657217], [84.48590996327383, 28.48476028355675], [84.48591423800592, 28.484579924880503], [84.48611837411757, 28.48458370152372], [84.48612692277327, 28.48422298409936], [84.48633105822913, 28.484226760383255], [84.48633533215275, 28.48404640163514], [84.48653946730319, 28.484050177586656], [84.48654374084052, 28.483869818802614], [84.48674787567654, 28.483873594421752], [84.48675642194273, 28.483512876772814], [84.48696055613198, 28.483516652032627], [84.48696910154476, 28.48315593431182], [84.48717323507823, 28.483159709203324], [84.48717750738489, 28.48297935031148], [84.48738164061292, 28.48298312487061], [84.4873859125333, 28.482802765942836], [84.48759004544692, 28.482806540160603], [84.48759431698102, 28.482626181205877], [84.48779844959822, 28.482629955091266], [84.48780699184893, 28.482269237091984], [84.4882152558077, 28.48227678384767], [84.48821952618296, 28.482096424776163], [84.48842365788387, 28.482100197673407], [84.48843219781693, 28.481739479467514], [84.48863632886207, 28.48174325199645], [84.48864059842886, 28.481562892853077], [84.48884472915958, 28.481566665049634], [84.48884899834009, 28.481386305879315], [84.48946138974176, 28.48139762053761], [84.48946565783531, 28.481217261277457], [84.48966978803603, 28.481221032189424], [84.48967405575227, 28.48104067289334], [84.48987818564758, 28.481044443472932], [84.48988245297755, 28.480864084140915], [84.49008658255843, 28.480867854388126], [84.49009084951112, 28.48068749502916], [84.49029497878658, 28.480691264935015], [84.490299245344, 28.480510905540115], [84.49050337431403, 28.480514675113593], [84.49050764049417, 28.480334315691742], [84.49091589785931, 28.480341853859535], [84.49092016330282, 28.4801614943748], [84.49112429169793, 28.4801652629781], [84.49112855675517, 28.479984903448454], [84.49133268484485, 28.479988671719372], [84.49133694951581, 28.479808312162778], [84.49194933298536, 28.47981961504416], [84.49195359657834, 28.479639255397732], [84.49236185172465, 28.47964678906496], [84.49236611459, 28.479466429355654], [84.49297849656834, 28.479477727475963], [84.49298275835571, 28.47929736767682], [84.49379926682474, 28.47931242744747], [84.49379500642077, 28.47949278735441], [84.49359087889702, 28.47948902284743], [84.4935823572896, 28.47984974259843], [84.49337822911008, 28.47984597772314], [84.49336970664925, 28.48020669739329], [84.49316557782295, 28.480202932158672], [84.49316131618829, 28.480383291957814], [84.49377370382602, 28.480394586826225], [84.49376944318848, 28.480574946706213], [84.49397357283226, 28.480578711078447], [84.49396931250016, 28.480759070985386], [84.49417344252122, 28.48076283507914], [84.49416918250353, 28.480943195004045], [84.49457744335413, 28.480950722338154], [84.49457318398323, 28.481131082307975], [84.49477731482176, 28.48113484554833], [84.49476879665487, 28.48149556553289], [84.49456466513362, 28.481491802247618], [84.49456040564594, 28.481672162199473], [84.49394801026473, 28.481660870412284], [84.49394374969907, 28.48184123028329], [84.49373961763884, 28.48183746571343], [84.4937353566869, 28.482017825548503], [84.4933270919915, 28.482010295429617], [84.49332283031194, 28.48219065520181], [84.4931186976678, 28.48218688966177], [84.49311443560194, 28.482367249398028], [84.49291030266136, 28.482363483516625], [84.49290604020923, 28.482543843225937], [84.49270190696322, 28.482540077012157], [84.49269764412483, 28.482720436685533], [84.49228937704889, 28.482712903287798], [84.49228511348286, 28.482893262898294], [84.49187684586795, 28.482885728215965], [84.49187258156529, 28.48306608776358], [84.49166844747486, 28.483062319941816], [84.49165991806107, 28.483423038965178], [84.49145578332386, 28.483419270775105], [84.49145151821271, 28.483599630250854], [84.49124738315211, 28.483595861728404], [84.49124311766369, 28.4837762211772], [84.49103898229764, 28.483772452313396], [84.49103471642294, 28.48395281172626], [84.49083058075148, 28.483949042530075], [84.49082204817562, 28.484309761283942], [84.49061791185737, 28.48430599172843], [84.49060937843709, 28.48466671040145], [84.49040524146307, 28.48466294047763], [84.49040097434869, 28.484843299782696], [84.49019683706923, 28.4848395295265], [84.49018830202301, 28.485200248055786], [84.48998416408779, 28.485196477440265], [84.48997562819714, 28.485557195888703], [84.48977148961515, 28.485553424913856], [84.48976722126109, 28.48573378410214], [84.48956308236467, 28.485730012785933], [84.48955454485706, 28.48609073109064], [84.48935040530488, 28.486086959415108], [84.48934613614234, 28.486267318531528], [84.48914199629371, 28.486263546523617], [84.48913345716015, 28.486624264684597], [84.48892931665574, 28.486620492317357], [84.48892077666879, 28.486981210397488], [84.48871663550861, 28.486977437661942], [84.48871236511539, 28.487157796670566], [84.48850822364979, 28.487154023602642], [84.4885039528613, 28.487334382575334], [84.48829981109027, 28.487330609175032], [84.4882912687138, 28.487691327039567], [84.488087126287, 28.48768755327994], [84.48808285469902, 28.487867912171783], [84.4878787119578, 28.48786413807978], [84.48787443998354, 28.488044496944674], [84.4876702969459, 28.48804072251131], [84.48766602457637, 28.48822108134027], [84.48746188123329, 28.48821730657453], [84.48745760847748, 28.48839766536756], [84.48725346482898, 28.488393890269442], [84.48724491851789, 28.488754607792618], [84.48704077421361, 28.488750832326193], [84.48703650064932, 28.488931191056338], [84.48683235603963, 28.488927415257535], [84.48681953408015, 28.48946849131323], [84.48661538846434, 28.48946471512815], [84.48659829058698, 28.490186149680426], [84.48639414363268, 28.49018237307314], [84.48638131877165, 28.490723448850353], [84.48617717081123, 28.49071967184781], [84.4861643445578, 28.491260747490276], [84.48596019560027, 28.491256970101453], [84.48595164387233, 28.49161768711259], [84.48574749426798, 28.491613909364442], [84.48573894168665, 28.49197462629473], [84.48553479142655, 28.491970848187258], [84.48552196122951, 28.492511923461414], [84.48531780996329, 28.492508144958684], [84.48530925561228, 28.49286886171829], [84.48510510369029, 28.49286508285623], [84.48510082611054, 28.493045441200103], [84.48489667388311, 28.493041661996685], [84.48489239591709, 28.493222020313606], [84.48468824338426, 28.493218240777814], [84.4846796866437, 28.493578957330808], [84.4844755334551, 28.493575177435687], [84.4844712546716, 28.49375553567176], [84.48426710118655, 28.493751755444265], [84.48425854281108, 28.494112471853526], [84.48405438867024, 28.494108691257722], [84.48404582945035, 28.494469407586138], [84.48384167465376, 28.494465626631005], [84.48383311458046, 28.49482634287857], [84.4836289591281, 28.494822561564114], [84.4836246786917, 28.495002919647472], [84.48342052293391, 28.494999137991655], [84.48341196124365, 28.495359854104475], [84.48320780483009, 28.49535607208933], [84.48320352357622, 28.495536430100824], [84.48299936685723, 28.495532647753304], [84.48299080355001, 28.49589336371341], [84.48278664617524, 28.49588958099758], [84.48278236411291, 28.496069938946192], [84.48257820643272, 28.496066155897985], [84.48256964149954, 28.49642687171436], [84.48236548316358, 28.496423088297846], [84.48236120029274, 28.496603446174593], [84.48215704165136, 28.496599662425698], [84.48215275839426, 28.496780020266513], [84.48194859943847, 28.496776236185244], [84.48194003211577, 28.497136951786022], [84.48173587251318, 28.497133167345428], [84.48173158844759, 28.497313525105394], [84.48152742853958, 28.497309740332422], [84.48152314407874, 28.497490098065438], [84.4813189838653, 28.497486312951107], [84.48131469902715, 28.49766667064819], [84.48111053849931, 28.497662885201482], [84.48110625327489, 28.497843242871618], [84.48090209244162, 28.497839457083547], [84.48089780683092, 28.49801981471775], [84.48069364569223, 28.498016028606287], [84.48068935969526, 28.498196386195573], [84.48048519825113, 28.498192599751736], [84.48048091186789, 28.49837295731407], [84.48027675011834, 28.498369170528875], [84.48028532354058, 28.498008455449117], [84.47946867970444, 28.49799330547863], [84.47947296774058, 28.497812948051042], [84.47906464674777, 28.49780537128264], [84.47906893543968, 28.49762501389997], [84.47886477535201, 28.49762122508458], [84.47886906434935, 28.497440867728855], [84.47846074498248, 28.49743328923569]]]}, "id": "+2732+2358", "properties": {"area_m2": 883450.1052552899, "count": 2207, "label": 1, "seed_distance_m": 67.88894813414882, "site_id": "thulagi", "recordId": "thulagi-lake", "kind": "lake", "status": "candidate", "observation_date": "2016-11-22", "scene_id": "COPERNICUS/S2_SR_HARMONIZED/20161122T050122_20161122T050230_T45RTM", "source": "Sentinel-2 spectral water baseline", "resolution_m": 20, "method": "NDWI > 0.05; MNDWI > 0.1; B8 < 2500; SCL rejects cloud, shadow, snow, invalid. Largest connected component >= 0.05 km2 within 1200 m of seed.", "limitations": "Candidate, not reviewed shoreline. Seasonal ice, terrain shadow and turbid water can cause omission or commission."}}]}