{"type": "FeatureCollection", "columns": {"area_m2": "Float", "count": "Long<0, 4294967295>", "label": "Integer", "seed_distance_m": "Float", "system:index": "String"}, "features": [{"type": "Feature", "geometry": {"geodesic": false, "type": "Polygon", "coordinates": [[[84.47846074498248, 28.49743328923569], [84.47847790335238, 28.496711859974493], [84.47868206163444, 28.49671564925701], [84.47869492894986, 28.49617457717187], [84.47889908623479, 28.496178366068108], [84.47891195215782, 28.49563729383924], [84.47911610843663, 28.495641082349202], [84.47912468483231, 28.49528036744911], [84.47932884045537, 28.495284155590763], [84.47934170371937, 28.49474308311935], [84.47954585834529, 28.494746870865747], [84.47955443295332, 28.494386155803955], [84.47975858693245, 28.494389943191024], [84.47977573429799, 28.4936685128788], [84.47997988692964, 28.49367229984366], [84.47998845968715, 28.493311584602203], [84.48019261165405, 28.49331537120774], [84.48020546945631, 28.492774298224287], [84.48040962043507, 28.492778084434562], [84.48041819140492, 28.49241736902243], [84.48062234172791, 28.49242115487338], [84.48063091185334, 28.49206043938938], [84.48083506152057, 28.49206422487202], [84.48084363080159, 28.491703509307175], [84.48104777981303, 28.491707294439472], [84.4810520640493, 28.491526936616626], [84.48125621275531, 28.491530721407564], [84.48126478041038, 28.491170005698987], [84.48146892846063, 28.491173790121614], [84.48148177860925, 28.490632716428493], [84.48168592566236, 28.49063650047383], [84.48169877441859, 28.490095426645958], [84.48190292047457, 28.490099210287053], [84.48191148541673, 28.489738494326946], [84.48211563081695, 28.489742277608716], [84.48212847690517, 28.48920120352932], [84.48233262130826, 28.489204986424813], [84.48233690291246, 28.48902462835942], [84.48254104700115, 28.489028410922536], [84.48254960940108, 28.488667694719883], [84.48275375284297, 28.488671476914693], [84.48276659510437, 28.488130402484952], [84.48297073754014, 28.488134184293482], [84.48297929816141, 28.487773467929134], [84.4831834399504, 28.487777249369355], [84.48318771985679, 28.48759689115125], [84.48339186134035, 28.487600672259095], [84.48339614085148, 28.487420314005057], [84.48360028202963, 28.487424094780526], [84.48360456116346, 28.48724373649055], [84.48380870202719, 28.487247516933646], [84.48381725948639, 28.486886800281837], [84.48402139969434, 28.48689058035662], [84.48402995630013, 28.486529863632946], [84.4842340958613, 28.4865336433484], [84.48423837376444, 28.48635328495063], [84.48444251302018, 28.48635706432473], [84.48444679052808, 28.48617670590001], [84.48465092947839, 28.48618048494173], [84.48465948368568, 28.48581976800246], [84.48486362198022, 28.485823546684856], [84.48486789867962, 28.48564318817929], [84.48507203666874, 28.485646966529306], [84.48507631299086, 28.485466607996788], [84.48528045066557, 28.485470386005446], [84.4852847266014, 28.485290027437], [84.48548886397069, 28.48529380511328], [84.48549741502488, 28.48493308789553], [84.4857015517384, 28.484936865212486], [84.48570582686575, 28.48475650657217], [84.48590996327383, 28.48476028355675], [84.48591423800592, 28.484579924880503], [84.48611837411757, 28.48458370152372], [84.48612692277327, 28.48422298409936], [84.48633105822913, 28.484226760383255], [84.48633533215275, 28.48404640163514], [84.48653946730319, 28.484050177586656], [84.48654374084052, 28.483869818802614], [84.48674787567654, 28.483873594421752], [84.48675642194273, 28.483512876772814], [84.48696055613198, 28.483516652032627], [84.48696910154476, 28.48315593431182], [84.48717323507823, 28.483159709203324], [84.48717750738489, 28.48297935031148], [84.48738164061292, 28.48298312487061], [84.4873859125333, 28.482802765942836], [84.48759004544692, 28.482806540160603], [84.48759431698102, 28.482626181205877], [84.48779844959822, 28.482629955091266], [84.48780699184893, 28.482269237091984], [84.48801112381035, 28.48227301061805], [84.48801539453595, 28.482092651582477], [84.48842365788387, 28.482100197673407], [84.48842792787286, 28.481919838574953], [84.48863205925936, 28.481923611121854], [84.48864059842886, 28.481562892853077], [84.48884472915958, 28.481566665049634], [84.48884899834009, 28.481386305879315], [84.48925725923561, 28.481393849293266], [84.4892615276795, 28.481213490060064], [84.48946565783531, 28.481217261277457], [84.4894699259019, 28.481036902008324], [84.48967405575227, 28.48104067289334], [84.4896783234326, 28.480860313597255], [84.48988245297755, 28.480864084140915], [84.4898867202716, 28.480683724808895], [84.49009084951112, 28.48068749502916], [84.4900951164099, 28.48050713566121], [84.49050337431403, 28.480514675113593], [84.49050764049417, 28.480334315691742], [84.49071176915878, 28.480338084932843], [84.49071603494365, 28.48015772546608], [84.49092016330282, 28.4801614943748], [84.4909244287104, 28.47998113488109], [84.49133268484485, 28.479988671719372], [84.49133694951581, 28.479808312162778], [84.49174520512025, 28.479815847725455], [84.49174946906359, 28.479635488105973], [84.49215772413802, 28.47964302238406], [84.49216198734473, 28.4794626627017], [84.49277436920629, 28.479473961738293], [84.49277863133503, 28.479293601975083], [84.49359513965133, 28.47930866295846], [84.49359940035174, 28.47912830307847], [84.49441590791346, 28.479143359058227], [84.49442016719453, 28.47896299905247], [84.49503254723251, 28.478974287740474], [84.4950368054446, 28.478793927644887], [84.49564918479088, 28.478805213494212], [84.49565344192497, 28.478624853308794], [84.4960616943314, 28.478632375630305], [84.49606595072889, 28.478452015382004], [84.49647420259635, 28.478459536418924], [84.49646994689056, 28.478639896721123], [84.49667407322853, 28.47864365680839], [84.49664854025151, 28.47972581868446], [84.49685266870053, 28.47972957863698], [84.49684841341696, 28.479909938957146], [84.49705254226122, 28.479913698631186], [84.4970482872741, 28.480094058969318], [84.49725241650464, 28.480097818364882], [84.4972439071143, 28.480458539095043], [84.49744803707247, 28.48046229823908], [84.49744378266925, 28.480642658622127], [84.49723965236073, 28.48063889945114], [84.49723539757123, 28.480819259807237], [84.49682713638826, 28.4808117404861], [84.49682288087112, 28.480992100770333], [84.49600635758888, 28.480977058355137], [84.49600210064344, 28.481157418522585], [84.49538970755293, 28.48114613340988], [84.49538544952951, 28.481326493496482], [84.4949771869721, 28.481318968497995], [84.49497292822103, 28.481499328521714], [84.49436053363932, 28.481488038647935], [84.49435627381028, 28.481668398581824], [84.49394801026473, 28.481660870412284], [84.49394374969907, 28.48184123028329], [84.49353548561453, 28.481833700829156], [84.49353122432123, 28.482014060637283], [84.4933270919915, 28.482010295429617], [84.49332283031194, 28.48219065520181], [84.49291456507756, 28.482183123807314], [84.49291030266136, 28.482363483516625], [84.49270616975672, 28.482359717329796], [84.49270190696322, 28.482540077012157], [84.49249777375314, 28.48253631049295], [84.4924935105644, 28.48271667013938], [84.49208524356932, 28.482709136121805], [84.49208097965294, 28.48288949570535], [84.49187684586795, 28.482885728215965], [84.49187258156529, 28.48306608776358], [84.49166844747486, 28.483062319941816], [84.49166418278594, 28.483242679453497], [84.49146004839008, 28.483238911290375], [84.49145578332386, 28.483419270775105], [84.49125164861358, 28.483415502279605], [84.49124738315211, 28.483595861728404], [84.4910432481454, 28.48359209290053], [84.49103471642294, 28.48395281172626], [84.49083058075148, 28.483949042530075], [84.49082631448151, 28.48412940190701], [84.4906221785136, 28.484125632387432], [84.4906136451652, 28.48448635106943], [84.49040950854152, 28.48448258117256], [84.49040097434869, 28.484843299782696], [84.49019683706923, 28.4848395295265], [84.49019256956858, 28.485019888795637], [84.48998843197472, 28.485016118207064], [84.48997989616493, 28.485376836664486], [84.48977575792428, 28.485373065716583], [84.48976722126109, 28.48573378410214], [84.48956308236467, 28.485730012785933], [84.48955881363332, 28.48591037194727], [84.48935467443148, 28.485906600298684], [84.48934613614234, 28.486267318531528], [84.48914199629371, 28.486263546523617], [84.4891377267449, 28.48644390561309], [84.48893358658185, 28.48644013326382], [84.48892504668473, 28.486800851361913], [84.48872090586592, 28.486797078653318], [84.48871663550861, 28.486977437661942], [84.48851249439336, 28.48697366462995], [84.4885039528613, 28.487334382575334], [84.48829981109027, 28.487330609175032], [84.4882912687138, 28.487691327039567], [84.488087126287, 28.48768755327994], [84.48808285469902, 28.487867912171783], [84.4876745692705, 28.487860363673366], [84.48766602457637, 28.48822108134027], [84.48746188123329, 28.48821730657453], [84.48745760847748, 28.48839766536756], [84.48725346482898, 28.488393890269442], [84.4872491916959, 28.488574249035523], [84.48704504773298, 28.48857047360503], [84.48703650064932, 28.488931191056338], [84.48683235603963, 28.488927415257535], [84.48682380810257, 28.48928813263698], [84.4866196628371, 28.48928435647885], [84.48660256512146, 28.490005791049093], [84.48639841850851, 28.490002014468757], [84.48638131877165, 28.490723448850353], [84.48617717081123, 28.49071967184781], [84.48616862001754, 28.491080388948774], [84.48596447140136, 28.491076611586905], [84.48595164387233, 28.49161768711259], [84.48574749426798, 28.491613909364442], [84.48573894168665, 28.49197462629473], [84.48553479142655, 28.491970848187258], [84.48552623800079, 28.492331565036697], [84.48532208708491, 28.492327786560914], [84.48531353280575, 28.492688503338485], [84.48510938123411, 28.492684724503377], [84.48510082611054, 28.493045441200103], [84.48489667388311, 28.493041661996685], [84.48489239591709, 28.493222020313606], [84.48468824338426, 28.493218240777814], [84.48468396503195, 28.4933985990588], [84.48447981219368, 28.49339481919063], [84.4844712546716, 28.49375553567176], [84.48426710118655, 28.493751755444265], [84.48425854281108, 28.494112471853526], [84.48405438867024, 28.494108691257722], [84.48405010907827, 28.49428904942193], [84.48384595462304, 28.494285268493748], [84.48383739463956, 28.49464598475928], [84.48363323952856, 28.49464220346279], [84.4836246786917, 28.495002919647472], [84.48342052293391, 28.494999137991655], [84.48341624210225, 28.495179496048063], [84.48321208603903, 28.49517571405987], [84.48320352357622, 28.495536430100824], [84.48299936685723, 28.495532647753304], [84.48299080355001, 28.49589336371341], [84.48278664617524, 28.49588958099758], [84.48278236411291, 28.496069938946192], [84.48257820643272, 28.496066155897985], [84.48257392398409, 28.49624651380168], [84.48236976599847, 28.4962427304211], [84.48236120029274, 28.496603446174593], [84.48215704165136, 28.496599662425698], [84.48215275839426, 28.496780020266513], [84.48194859943847, 28.496776236185244], [84.48194003211577, 28.497136951786022], [84.48173587251318, 28.497133167345428], [84.48173158844759, 28.497313525105394], [84.48152742853958, 28.497309740332422], [84.48152314407874, 28.497490098065438], [84.4813189838653, 28.497486312951107], [84.48131469902715, 28.49766667064819], [84.48111053849931, 28.497662885201482], [84.48110625327489, 28.497843242871618], [84.48090209244162, 28.497839457083547], [84.48089780683092, 28.49801981471775], [84.48069364569223, 28.498016028606287], [84.48068935969526, 28.498196386195573], [84.48048519825113, 28.498192599751736], [84.48048091186789, 28.49837295731407], [84.48027675011834, 28.498369170528875], [84.48028532354058, 28.498008455449117], [84.48008116251867, 28.498004668421373], [84.48008544952175, 28.49782431090395], [84.47906464674777, 28.49780537128264], [84.47906893543968, 28.49762501389997], [84.47886477535201, 28.49762122508458], [84.47886906434935, 28.497440867728855], [84.47846074498248, 28.49743328923569]]]}, "id": "+2745+2363", "properties": {"area_m2": 955103.8710445662, "count": 2386, "label": 1, "seed_distance_m": 67.88894813414882, "site_id": "thulagi", "recordId": "thulagi-lake", "kind": "lake", "status": "candidate", "observation_date": "2022-11-26", "scene_id": "COPERNICUS/S2_SR_HARMONIZED/20221126T050129_20221126T051021_T45RTM", "source": "Sentinel-2 spectral water baseline", "resolution_m": 20, "method": "NDWI > 0.05; MNDWI > 0.1; B8 < 2500; SCL rejects cloud, shadow, snow, invalid. Largest connected component >= 0.05 km2 within 1200 m of seed.", "limitations": "Candidate, not reviewed shoreline. Seasonal ice, terrain shadow and turbid water can cause omission or commission."}}]}