{"type": "FeatureCollection", "columns": {"area_m2": "Float", "count": "Long<0, 4294967295>", "label": "Integer", "seed_distance_m": "Float", "system:index": "String"}, "features": [{"type": "Feature", "geometry": {"geodesic": false, "type": "Polygon", "coordinates": [[[84.47846074498248, 28.49743328923569], [84.47847790335238, 28.496711859974493], [84.47868206163444, 28.49671564925701], [84.47869492894986, 28.49617457717187], [84.47889908623479, 28.496178366068108], [84.47891195215782, 28.49563729383924], [84.47911610843663, 28.495641082349202], [84.47912468483231, 28.49528036744911], [84.47932884045537, 28.495284155590763], [84.47934170371937, 28.49474308311935], [84.47954585834529, 28.494746870865747], [84.47955443295332, 28.494386155803955], [84.47975858693245, 28.494389943191024], [84.47977573429799, 28.4936685128788], [84.47997988692964, 28.49367229984366], [84.47998845968715, 28.493311584602203], [84.48019261165405, 28.49331537120774], [84.48020546945631, 28.492774298224287], [84.48040962043507, 28.492778084434562], [84.48041819140492, 28.49241736902243], [84.48062234172791, 28.49242115487338], [84.48063091185334, 28.49206043938938], [84.48083506152057, 28.49206422487202], [84.48083934617904, 28.49188386709409], [84.48104349554083, 28.491887652253336], [84.4810520640493, 28.491526936616626], [84.48125621275531, 28.491530721407564], [84.48126478041038, 28.491170005698987], [84.48146892846063, 28.491173790121614], [84.48147749526231, 28.490813074332188], [84.48168164266576, 28.490816858404475], [84.48169877441859, 28.490095426645958], [84.48190292047457, 28.490099210287053], [84.48191148541673, 28.489738494326946], [84.48211563081695, 28.489742277608716], [84.4821241949147, 28.48938156156776], [84.48232833965915, 28.48938534448122], [84.48233690291246, 28.48902462835942], [84.48254104700115, 28.489028410922536], [84.48254960940108, 28.488667694719883], [84.48275375284297, 28.488671476914693], [84.48276659510437, 28.488130402484952], [84.48297073754014, 28.488134184293482], [84.48297501786874, 28.48795382611131], [84.48317916000808, 28.48795760758746], [84.48318771985679, 28.48759689115125], [84.48339186134035, 28.487600672259095], [84.48339614085148, 28.487420314005057], [84.48360028202963, 28.487424094780526], [84.48360456116346, 28.48724373649055], [84.48380870202719, 28.487247516933646], [84.48381725948639, 28.486886800281837], [84.48402139969434, 28.48689058035662], [84.48402567801969, 28.486710221994784], [84.48422981793121, 28.486714001746172], [84.48423837376444, 28.48635328495063], [84.48444251302018, 28.48635706432473], [84.48444679052808, 28.48617670590001], [84.48465092947839, 28.48618048494173], [84.4846552066, 28.486000126472096], [84.48485934524489, 28.486003905190422], [84.48486362198022, 28.485823546684856], [84.48506776031968, 28.485827325061823], [84.48507631299086, 28.485466607996788], [84.48528045066557, 28.485470386005446], [84.4852847266014, 28.485290027437], [84.48548886397069, 28.48529380511328], [84.48549741502488, 28.48493308789553], [84.4857015517384, 28.484936865212486], [84.48570582686575, 28.48475650657217], [84.48590996327383, 28.48476028355675], [84.48591423800592, 28.484579924880503], [84.48611837411757, 28.48458370152372], [84.48612692277327, 28.48422298409936], [84.48633105822913, 28.484226760383255], [84.48633533215275, 28.48404640163514], [84.48653946730319, 28.484050177586656], [84.48654374084052, 28.483869818802614], [84.48674787567654, 28.483873594421752], [84.48675642194273, 28.483512876772814], [84.48696055613198, 28.483516652032627], [84.48696910154476, 28.48315593431182], [84.48717323507823, 28.483159709203324], [84.48717750738489, 28.48297935031148], [84.48738164061292, 28.48298312487061], [84.4873859125333, 28.482802765942836], [84.48759004544692, 28.482806540160603], [84.48759431698102, 28.482626181205877], [84.48779844959822, 28.482629955091266], [84.48780272074603, 28.482449596091627], [84.4880068530488, 28.482453369653623], [84.48801112381035, 28.48227301061805], [84.4882152558077, 28.48227678384767], [84.48821952618296, 28.482096424776163], [84.48842365788387, 28.482100197673407], [84.48842792787286, 28.481919838574953], [84.48863205925936, 28.481923611121854], [84.48864059842886, 28.481562892853077], [84.48884472915958, 28.481566665049634], [84.48884899834009, 28.481386305879315], [84.48925725923561, 28.481393849293266], [84.4892615276795, 28.481213490060064], [84.48946565783531, 28.481217261277457], [84.4894699259019, 28.481036902008324], [84.48967405575227, 28.48104067289334], [84.4896783234326, 28.480860313597255], [84.48988245297755, 28.480864084140915], [84.4898867202716, 28.480683724808895], [84.49009084951112, 28.48068749502916], [84.4900951164099, 28.48050713566121], [84.49050337431403, 28.480514675113593], [84.49050764049417, 28.480334315691742], [84.49071176915878, 28.480338084932843], [84.49071603494365, 28.48015772546608], [84.49092016330282, 28.4801614943748], [84.4909244287104, 28.47998113488109], [84.49133268484485, 28.479988671719372], [84.49133694951581, 28.479808312162778], [84.49154107730007, 28.479812080092337], [84.49154534158475, 28.479631720499807], [84.49215772413802, 28.47964302238406], [84.49216198734473, 28.4794626627017], [84.49297849656834, 28.479477727475963], [84.49298275835571, 28.47929736767682], [84.49359513965133, 28.47930866295846], [84.49359940035174, 28.47912830307847], [84.49421178096465, 28.479139595521428], [84.49421604059606, 28.47895923554262], [84.4952366739927, 28.478978050028612], [84.49523241609502, 28.479158410142166], [84.49584479764218, 28.479169695245886], [84.49584054073266, 28.47935005544927], [84.49604466834623, 28.479353816560618], [84.49604041175112, 28.479534176781968], [84.496244539742, 28.47953793762382], [84.4962360271267, 28.479898658102453], [84.49644015585419, 28.479902418692777], [84.49643164377788, 28.48026313920734], [84.496635773233, 28.480266899546137], [84.49661874998769, 28.480988340629164], [84.49600635758888, 28.480977058355137], [84.49600210064344, 28.481157418522585], [84.49559383854417, 28.48114989541954], [84.4955895808621, 28.481330255533095], [84.49518131823284, 28.48132273114546], [84.49517705982313, 28.48150309119613], [84.49456466513362, 28.481491802247618], [84.49456040564594, 28.481672162199473], [84.49415214201954, 28.481664634649768], [84.49414788179524, 28.481844994547725], [84.49373961763884, 28.48183746571343], [84.4937353566869, 28.482017825548503], [84.4933270919915, 28.482010295429617], [84.49332283031194, 28.48219065520181], [84.4931186976678, 28.48218688966177], [84.49311443560194, 28.482367249398028], [84.49291030266136, 28.482363483516625], [84.49290604020923, 28.482543843225937], [84.49270190696322, 28.482540077012157], [84.49269764412483, 28.482720436685533], [84.49228937704889, 28.482712903287798], [84.49228511348286, 28.482893262898294], [84.49208097965294, 28.48288949570535], [84.49207671570063, 28.483069855288896], [84.49187258156529, 28.48306608776358], [84.4918683172267, 28.483246447311192], [84.49166418278594, 28.483242679453497], [84.49165991806107, 28.483423038965178], [84.49145578332386, 28.483419270775105], [84.49145151821271, 28.483599630250854], [84.49124738315211, 28.483595861728404], [84.49124311766369, 28.4837762211772], [84.49103898229764, 28.483772452313396], [84.49103471642294, 28.48395281172626], [84.49083058075148, 28.483949042530075], [84.49082204817562, 28.484309761283942], [84.49061791185737, 28.48430599172843], [84.49060937843709, 28.48466671040145], [84.49040524146307, 28.48466294047763], [84.49040097434869, 28.484843299782696], [84.49019683706923, 28.4848395295265], [84.49018830202301, 28.485200248055786], [84.48998416408779, 28.485196477440265], [84.48997562819714, 28.485557195888703], [84.48977148961515, 28.485553424913856], [84.48976722126109, 28.48573378410214], [84.48956308236467, 28.485730012785933], [84.48955881363332, 28.48591037194727], [84.48935467443148, 28.485906600298684], [84.48934613614234, 28.486267318531528], [84.48914199629371, 28.486263546523617], [84.48913345716015, 28.486624264684597], [84.48892931665574, 28.486620492317357], [84.48892077666879, 28.486981210397488], [84.48871663550861, 28.486977437661942], [84.48871236511539, 28.487157796670566], [84.48850822364979, 28.487154023602642], [84.4885039528613, 28.487334382575334], [84.48829981109027, 28.487330609175032], [84.4882912687138, 28.487691327039567], [84.488087126287, 28.48768755327994], [84.48808285469902, 28.487867912171783], [84.4878787119578, 28.48786413807978], [84.48787443998354, 28.488044496944674], [84.4876702969459, 28.48804072251131], [84.48766602457637, 28.48822108134027], [84.48746188123329, 28.48821730657453], [84.48745760847748, 28.48839766536756], [84.48725346482898, 28.488393890269442], [84.48724491851789, 28.488754607792618], [84.48704077421361, 28.488750832326193], [84.48703650064932, 28.488931191056338], [84.48683235603963, 28.488927415257535], [84.48681953408015, 28.48946849131323], [84.48661538846434, 28.48946471512815], [84.48660256512146, 28.490005791049093], [84.48639841850851, 28.490002014468757], [84.48638131877165, 28.490723448850353], [84.48617717081123, 28.49071967184781], [84.48616862001754, 28.491080388948774], [84.48596447140136, 28.491076611586905], [84.48595164387233, 28.49161768711259], [84.48574749426798, 28.491613909364442], [84.48573894168665, 28.49197462629473], [84.48553479142655, 28.491970848187258], [84.48552196122951, 28.492511923461414], [84.48531780996329, 28.492508144958684], [84.48530925561228, 28.49286886171829], [84.48510510369029, 28.49286508285623], [84.48510082611054, 28.493045441200103], [84.48489667388311, 28.493041661996685], [84.48489239591709, 28.493222020313606], [84.48468824338426, 28.493218240777814], [84.4846796866437, 28.493578957330808], [84.4844755334551, 28.493575177435687], [84.4844712546716, 28.49375553567176], [84.48426710118655, 28.493751755444265], [84.48425854281108, 28.494112471853526], [84.48405438867024, 28.494108691257722], [84.48404582945035, 28.494469407586138], [84.48384167465376, 28.494465626631005], [84.48383739463956, 28.49464598475928], [84.48363323952856, 28.49464220346279], [84.4836246786917, 28.495002919647472], [84.48342052293391, 28.494999137991655], [84.48341196124365, 28.495359854104475], [84.48320780483009, 28.49535607208933], [84.48320352357622, 28.495536430100824], [84.48299936685723, 28.495532647753304], [84.48299080355001, 28.49589336371341], [84.48278664617524, 28.49588958099758], [84.48277808201462, 28.49625029688582], [84.48257392398409, 28.49624651380168], [84.48256964149954, 28.49642687171436], [84.48236548316358, 28.496423088297846], [84.48236120029274, 28.496603446174593], [84.48215704165136, 28.496599662425698], [84.48214847509223, 28.496960378098343], [84.48194431579508, 28.496956593990124], [84.48194003211577, 28.497136951786022], [84.48173587251318, 28.497133167345428], [84.48172730433708, 28.49749388286536], [84.48152314407874, 28.497490098065438], [84.48151885959093, 28.49767045578947], [84.48111053849931, 28.497662885201482], [84.48110625327489, 28.497843242871618], [84.48090209244162, 28.497839457083547], [84.48089780683092, 28.49801981471775], [84.48069364569223, 28.498016028606287], [84.48068935969526, 28.498196386195573], [84.48048519825113, 28.498192599751736], [84.48048091186789, 28.49837295731407], [84.48027675011834, 28.498369170528875], [84.48028532354058, 28.498008455449117], [84.47926451884422, 28.497989517220194], [84.4792688072307, 28.497809159819557], [84.47906464674777, 28.49780537128264], [84.47906893543968, 28.49762501389997], [84.47886477535201, 28.49762122508458], [84.47886906434935, 28.497440867728855], [84.47846074498248, 28.49743328923569]]]}, "id": "+2739+2360", "properties": {"area_m2": 946297.1455905538, "count": 2364, "label": 1, "seed_distance_m": 67.88894813414882, "site_id": "thulagi", "recordId": "thulagi-lake", "kind": "lake", "status": "candidate", "observation_date": "2020-11-11", "scene_id": "COPERNICUS/S2_SR_HARMONIZED/20201111T050041_20201111T050036_T45RTM", "source": "Sentinel-2 spectral water baseline", "resolution_m": 20, "method": "NDWI > 0.05; MNDWI > 0.1; B8 < 2500; SCL rejects cloud, shadow, snow, invalid. Largest connected component >= 0.05 km2 within 1200 m of seed.", "limitations": "Candidate, not reviewed shoreline. Seasonal ice, terrain shadow and turbid water can cause omission or commission."}}]}