{"type": "FeatureCollection", "columns": {"area_m2": "Float", "count": "Long<0, 4294967295>", "label": "Integer", "seed_distance_m": "Float", "system:index": "String"}, "features": [{"type": "Feature", "geometry": {"geodesic": false, "type": "MultiPolygon", "coordinates": [[[[86.49117725401757, 27.846116408810463], [86.49138037034373, 27.846117157601167], [86.49137868584985, 27.846478243280895], [86.49158180285873, 27.846478991775154], [86.4915826447778, 27.846298448935293], [86.4917857614543, 27.846299197124125], [86.4917849198766, 27.846479739972974], [86.49198803690345, 27.846480487874345], [86.49198719565813, 27.846661030723194], [86.49219031302634, 27.84666177832812], [86.49218526737803, 27.84774503535832], [86.49198214798862, 27.847744287717457], [86.49198130668941, 27.847924830539355], [86.49177818697659, 27.847924082593067], [86.49177734532704, 27.848104625397], [86.49157422528185, 27.84810387714528], [86.49157338329094, 27.84828441994023], [86.49137026291338, 27.848283671383086], [86.49136942057211, 27.848464214169052], [86.49096317917919, 27.84846271615645], [86.49096233616419, 27.84864325892445], [86.49075921513985, 27.848642509460007], [86.4907583717745, 27.84882305221902], [86.49055525042677, 27.848822302449154], [86.49055356300438, 27.849183387940236], [86.49035044099189, 27.849182637855957], [86.49034959693485, 27.849363180597006], [86.49014647458998, 27.8493624302073], [86.4901447857752, 27.84972351564448], [86.48994166276557, 27.84972276495833], [86.48994081801683, 27.849903307663446], [86.48973769467483, 27.849902556662887], [86.48973684957575, 27.85008309935902], [86.48953372591035, 27.850082348062017], [86.48953203502047, 27.850443433427333], [86.48932891069032, 27.850442681815917], [86.48932806489054, 27.8506232244851], [86.489124940237, 27.850622472568258], [86.48912409409587, 27.85080301522846], [86.48892096910996, 27.85080226300619], [86.48891927613599, 27.851163348299643], [86.48871615047634, 27.85116259576296], [86.48871530364349, 27.851343138396214], [86.48851217766044, 27.85134238556309], [86.48851133048625, 27.851522928187357], [86.48830820417082, 27.851522175039822], [86.48830650912174, 27.851883260270395], [86.48810338214157, 27.851882506817432], [86.48810168638282, 27.852243592003084], [86.48789855874688, 27.852242838244695], [86.48789686227846, 27.8526039234034], [86.48769373397775, 27.852603169330603], [86.48769203680865, 27.852964254462357], [86.48748890783422, 27.85296350007515], [86.48748720996443, 27.853324585179955], [86.48728408032524, 27.85332383048732], [86.48728323104, 27.853504373021753], [86.48708010107741, 27.85350361802369], [86.48707840181524, 27.853864703074596], [86.4868752711879, 27.85386394776212], [86.48687357121605, 27.854225032777098], [86.48667043992396, 27.854224277159197], [86.48666958958769, 27.8544048196577], [86.48646645796323, 27.85440406373437], [86.48646560728561, 27.85458460621491], [86.48626247533774, 27.854583849986152], [86.48626077329078, 27.85494493492926], [86.48605764066919, 27.85494417839508], [86.48605678929987, 27.855124720848668], [86.48585365635486, 27.855123964009056], [86.4858528046352, 27.855304506453663], [86.48564967135782, 27.855303749308625], [86.4856488192968, 27.855484291744247], [86.48544568569604, 27.855483534293782], [86.48544483328466, 27.855664076720423], [86.4852416993605, 27.85566331896453], [86.48524084660777, 27.855843861382187], [86.48503771235123, 27.855843103311884], [86.48503600614508, 27.856204188120245], [86.4848328712238, 27.8562034297535], [86.48483116431696, 27.856564514525928], [86.48462802873092, 27.85656375584477], [86.48462717492716, 27.85674429821751], [86.48442403900874, 27.856743539230926], [86.48442318486362, 27.856924081594684], [86.48422004862181, 27.856923322302674], [86.48421919413532, 27.857103864657446], [86.48401605755215, 27.85710310506001], [86.48401434787851, 27.857464189742608], [86.48381121063957, 27.85746342983076], [86.4838103554524, 27.857643972167565], [86.48360721789007, 27.85764321195029], [86.48360550681504, 27.85800429658797], [86.48340236857898, 27.858003536056287], [86.48340151270011, 27.858184078366143], [86.48319837414064, 27.85818331752903], [86.48319751791144, 27.858363859820923], [86.48299437901959, 27.858363098687366], [86.48299352244902, 27.85854364097027], [86.4827903832248, 27.85854287953129], [86.48278952631287, 27.858723421805212], [86.48258638676525, 27.858722660060803], [86.48258552950298, 27.85890320231676], [86.482382389623, 27.858902440266924], [86.48238067440674, 27.859263524769858], [86.48217753387098, 27.859262762405606], [86.48217667590802, 27.8594433046436], [86.48197353503988, 27.859442541982908], [86.48197267673557, 27.859623084202934], [86.48176953553505, 27.859622321236813], [86.48176867688937, 27.859802863447857], [86.48156553536546, 27.85980210017631], [86.48156467636944, 27.85998264237837], [86.48136153451316, 27.859981878801396], [86.48135981583839, 27.860342963178564], [86.48115667331736, 27.860342199287178], [86.48115581362963, 27.86052274147127], [86.48095267077622, 27.86052197727446], [86.48095095070008, 27.860883061606714], [86.4807478071909, 27.860882297095493], [86.48074694680248, 27.861062839252636], [86.48054380296092, 27.86106207443599], [86.4805420814924, 27.861423158723326], [86.48033893698609, 27.861422393592267], [86.48033807590598, 27.86160293572246], [86.48013493106728, 27.861602170294955], [86.48013406963683, 27.86178271241617], [86.47993092447474, 27.861781946683237], [86.47993006270293, 27.86196248878648], [86.47972691720847, 27.861961722748124], [86.4797260550863, 27.862142264842387], [86.47952290926845, 27.8621414984986], [86.47952118434142, 27.86250258266916], [86.47931803784982, 27.862501816010962], [86.47931717503596, 27.862682358087255], [86.47911402822098, 27.862681591123632], [86.47911316506575, 27.862862133181963], [86.4789100179184, 27.862861365921894], [86.47890915441283, 27.86304190797124], [86.47870600694208, 27.863041140396763], [86.47870427923925, 27.86340222446851], [86.47850113109476, 27.8634014565886], [86.47850026689748, 27.86358199861998], [86.47829711842961, 27.86358123043465], [86.47829625389097, 27.863761772448065], [86.47809310509072, 27.863761003957304], [86.47809224020175, 27.863941545952752], [86.47768594196343, 27.863940008063935], [86.47768507639174, 27.864120550050398], [86.47748192694469, 27.86411978065234], [86.47748106103164, 27.864300322629823], [86.47727791125222, 27.864299552926337], [86.47727617872543, 27.864660636845368], [86.47707302829023, 27.864659866836455], [86.4770721616765, 27.864840408786986], [86.47686901090893, 27.864839638463664], [86.47686814395384, 27.865020180405214], [86.47666499285388, 27.865019409776462], [86.47666325824301, 27.86538049363261], [86.4764601064783, 27.86537972268945], [86.47645923883151, 27.86556026460405], [86.47625608673442, 27.865559493364444], [86.4762552187373, 27.86574003527006], [86.47584891390534, 27.86573849187457], [86.47584804522548, 27.86591903376222], [86.47564489249059, 27.865918261615317], [86.47564402346039, 27.866098803485002], [86.47544087039313, 27.86609803103267], [86.47544000103055, 27.86627857289337], [86.47523684763091, 27.866277800135617], [86.47523597791799, 27.866458341987332], [86.47503282418597, 27.866457568924147], [86.4750319541317, 27.866638110766882], [86.4748288000763, 27.86663733739827], [86.47482792967166, 27.86681787923202], [86.47462477529287, 27.86681710555798], [86.47462390453789, 27.86699764737377], [86.47442074982672, 27.866996873394303], [86.47441987873937, 27.867177415210087], [86.47421672369583, 27.867176640925194], [86.47421585225814, 27.867357182723012], [86.47380954153323, 27.867355633245925], [86.47380866941282, 27.86753617502578], [86.47360551372249, 27.86753539983359], [86.47360464126072, 27.867715941604455], [86.47319832923326, 27.867714390303792], [86.47319745608877, 27.867894932065678], [86.47258798709537, 27.867892602850926], [86.47258711293577, 27.86807314458586], [86.47177448638354, 27.868070034762077], [86.47177361085852, 27.868250576470064], [86.47136729696255, 27.86824901975256], [86.4713664207638, 27.86842956144258], [86.47096010622106, 27.86842800351235], [86.47095922933957, 27.868608545184404], [86.47055291415903, 27.86860698605043], [86.47055203659482, 27.868787527704516], [86.47014572076749, 27.86878596735782], [86.47014484252057, 27.86896650899394], [86.469941684288, 27.86896572836694], [86.46994080569972, 27.86914626999408], [86.46973764713478, 27.86914548906165], [86.46973676819616, 27.869326030679808], [86.46933045041948, 27.869324467907656], [86.46932957080712, 27.869505009507847], [86.46912641159538, 27.86950422766812], [86.46912553163268, 27.869684769259326], [86.46871921255345, 27.8696832046636], [86.46871833190802, 27.869863746236835], [86.4685151720495, 27.869862963489812], [86.46851429106272, 27.870043505045086], [86.46831113087183, 27.870042721992636], [86.4683102495347, 27.87022326354791], [86.46790392850612, 27.870221696517746], [86.46790304649527, 27.87040223805505], [86.4676998856486, 27.87040145408632], [86.46769900329637, 27.870581995614643], [86.46749584212631, 27.870581211340482], [86.46749495942375, 27.870761752859824], [86.46708863643684, 27.870760183404208], [86.46708775305156, 27.87094072490558], [86.46627510582908, 27.87093758238312], [86.46627422108735, 27.871118123848564], [86.46546157265215, 27.87111497652012], [86.46546068655395, 27.871295517958607], [86.46444487451427, 27.871291577031492], [86.46444576229231, 27.87111103561995], [86.46383627617702, 27.87110866749018], [86.4638371649522, 27.87092812608762], [86.46343084158799, 27.87092654585222], [86.4634317310369, 27.870746004458645], [86.46322856970515, 27.870745213896278], [86.46322945947746, 27.870564672511687], [86.46302629849605, 27.870563881652878], [86.46302807869642, 27.870202798874708], [86.4632312390041, 27.87020358971555], [86.46323479795858, 27.869481424078366], [86.46303163898939, 27.86948063325549], [86.46303252904916, 27.869300091843947], [86.46323568767698, 27.86930088265784], [86.4632383567783, 27.86875925836033], [86.463441514409, 27.868760048859812], [86.4634424037591, 27.86857950741234], [86.46364556105742, 27.86858029759741], [86.46364645005718, 27.868399756140953], [86.4638496070321, 27.868400546029584], [86.4638504956905, 27.86822000455516], [86.46405365233305, 27.86822079413836], [86.46405454065008, 27.868040252654954], [86.46425769696026, 27.868041041932727], [86.46425858492695, 27.867860500440337], [86.46446174091373, 27.867861289412684], [86.46446262853907, 27.86768074791131], [86.46466578419347, 27.86768153657823], [86.46466667147745, 27.867500995067875], [86.46486982680845, 27.867501783420384], [86.46487071374207, 27.867321241901045], [86.46527702374833, 27.86732281770775], [86.46527790999924, 27.867142276170444], [86.46548106468346, 27.86714306362464], [86.46548195058404, 27.866962522069365], [86.46568510494485, 27.866963309218132], [86.46568599050407, 27.866782767653877], [86.46609229856097, 27.86678434103513], [86.46609318343747, 27.866603799461892], [86.46629633714252, 27.86660458569438], [86.46629722167765, 27.866424044103173], [86.46670352844097, 27.86642561566983], [86.46670441229338, 27.866245074060657], [86.46690756535166, 27.866245859385845], [86.46690844885373, 27.86606531776769], [86.4673147543145, 27.866066887510765], [86.46731563714283, 27.865886345883627], [86.46751878955432, 27.86588713030152], [86.4675196720323, 27.865706588656412], [86.4679259761995, 27.86570815657591], [86.46792685800375, 27.865527614921824], [86.46813000975946, 27.865528398423432], [86.46813089121338, 27.865347856751377], [86.46853719407801, 27.865349422856276], [86.46853807485819, 27.86516888117524], [86.46874122596711, 27.86516966376955], [86.46874210639695, 27.864989122070547], [86.469148407968, 27.864990686360848], [86.46914928771511, 27.86481014464388], [86.46935243817725, 27.86481092633089], [86.469353317583, 27.864630384604936], [86.46955646771278, 27.86463116598652], [86.46955734676817, 27.864450624251585], [86.46976049657455, 27.864451405327742], [86.4697613752886, 27.864270863583823], [86.46996452476259, 27.864271644354552], [86.46996540313528, 27.86409110260165], [86.47037170143648, 27.86409266323581], [86.47037257911745, 27.863912121464942], [86.47057572794466, 27.863912901328373], [86.47057660529327, 27.863732359539537], [86.4707797537881, 27.86373313909754], [86.47078063078636, 27.863552597308704], [86.4709837789578, 27.86355337656128], [86.4709846556147, 27.86337283475448], [86.47118780345376, 27.86337361370163], [86.47118867976032, 27.863193071885846], [86.471391827276, 27.86319385052757], [86.4713927032412, 27.8630133087028], [86.47159585042448, 27.863014087039094], [86.4715976016542, 27.86265300336261], [86.47180074817273, 27.862653781384495], [86.47180162343724, 27.86247323953278], [86.47200476963239, 27.86247401725822], [86.47200564454656, 27.862293475388537], [86.47220879040933, 27.86229425280855], [86.47220966499113, 27.862113710929883], [86.4724128105215, 27.86211448804447], [86.47241455898441, 27.86175340426917], [86.47261770385005, 27.861754181069344], [86.47261945160328, 27.861393097267097], [86.47282259580417, 27.86139387375286], [86.47282346933494, 27.86121333183826], [86.47302661320344, 27.861214108027582], [86.47302835956428, 27.860853024171437], [86.47343464598976, 27.860854575615832], [86.4734363909672, 27.860493491714767], [86.47363953352416, 27.860494266978826], [86.47364040566255, 27.86031372501931], [86.47384354788713, 27.86031449997794], [86.47384441968416, 27.860133958000457], [86.47404756157637, 27.86013473265366], [86.47404843303202, 27.859954190676177], [86.47425157460084, 27.859954965023952], [86.47425331680249, 27.859593881024075], [86.47445645770655, 27.859594655066424], [86.47445732846153, 27.85941411305301], [86.47466046903321, 27.85941488678993], [86.47466133944683, 27.859234344767533], [86.47486447968613, 27.859235118199027], [86.47486621981268, 27.858874034127282], [86.47506935938723, 27.858874807244366], [86.47507022910017, 27.85869426519502], [86.47527336835132, 27.858695038006676], [86.4752742377229, 27.85851449595733], [86.47547737664168, 27.85851526846356], [86.4754782456719, 27.858334726396247], [86.47568138426729, 27.858335498597047], [86.47568225293817, 27.85815495651177], [86.47588539121017, 27.858155728416126], [86.47588712786921, 27.857794644227603], [86.47609026546748, 27.85779541581755], [86.47609113344666, 27.857614873714304], [86.47649740800539, 27.857616415977915], [86.47649827530184, 27.857435873856705], [86.4767014122623, 27.85743664453037], [86.47670314616352, 27.857075560261], [86.47690628245024, 27.857076330629237], [86.476907149055, 27.856895788481076], [86.47711028500935, 27.856896558543887], [86.47711115127274, 27.85671601638674], [86.47731428690369, 27.856716786144126], [86.47731515281674, 27.856536243978], [86.47751828811532, 27.856537013429953], [86.47751915368701, 27.856356471254845], [86.4777222886622, 27.856357240401373], [86.47772315388356, 27.856176698208298], [86.47792628852636, 27.8561774670494], [86.47792801828633, 27.85581638264528], [86.4781311522644, 27.855817151180954], [86.47813201679405, 27.85563660896093], [86.47833515043972, 27.855637377191176], [86.47833601462801, 27.855456834962165], [86.47874228128157, 27.85545837050638], [86.47874400828371, 27.85509728602141], [86.47915027361675, 27.85509882034392], [86.47915113643062, 27.854918278078976], [86.47935426878271, 27.85491904479107], [86.47935513124624, 27.854738502517147], [86.47955826326597, 27.85473926891483], [86.47955912538812, 27.85455872663192], [86.4799653887808, 27.854560258528977], [86.47996625022024, 27.854379716228102], [86.48016938159319, 27.85438048172747], [86.48017024269126, 27.85419993940863], [86.48057650478138, 27.854201469491088], [86.48057736519674, 27.854020927163265], [86.48098362664007, 27.854022456032997], [86.48098448638169, 27.85384191369619], [86.4813907471872, 27.853843441353195], [86.48139160624612, 27.853662898998422], [86.48159473632549, 27.853663662377766], [86.48159559503405, 27.853483120005027], [86.482001854546, 27.853484645847434], [86.48200271258082, 27.853304103465714], [86.48220584200442, 27.853304865928777], [86.48220669969788, 27.85312432353807], [86.48261295790728, 27.85312584756588], [86.48261381490904, 27.852945305148225], [86.48281694369484, 27.852946066712974], [86.48281780035524, 27.852765524286337], [86.48302092880866, 27.85276628554566], [86.48302178511872, 27.852585743110037], [86.48363116951778, 27.85258802506442], [86.48363202482172, 27.852407482601848], [86.48424140827754, 27.852409761852304], [86.48424311683728, 27.852048676891226], [86.48444624399713, 27.852049436030523], [86.48444709792665, 27.85186889353202], [86.4846502247631, 27.85186965236589], [86.48465107835126, 27.851689109858402], [86.48485420485534, 27.85168986839583], [86.48485505809316, 27.85150932587936], [86.48505818427384, 27.851510084102376], [86.48505989005778, 27.851148999042486], [86.48526301557371, 27.851149756960073], [86.48526386811983, 27.850969214416654], [86.48546699330338, 27.850969972028814], [86.48546869769494, 27.850608886915026], [86.48567182221373, 27.85060964422176], [86.48567267405916, 27.85042910165139], [86.48587579825457, 27.850429858643714], [86.48587664975864, 27.85024931606436], [86.48607977362167, 27.850250072760243], [86.48608062478438, 27.850069530171908], [86.48628374831503, 27.850070286553375], [86.4862845991274, 27.849889743956055], [86.48648772233466, 27.8498905000321], [86.48648857280567, 27.849709957425798], [86.48689481856441, 27.849711468679565], [86.48689566836168, 27.849530926055298], [86.48709879091318, 27.849531681224043], [86.48709964036011, 27.84935113859079], [86.4873027625882, 27.849351893454106], [86.48730361169378, 27.849171350811872], [86.48750673358948, 27.84917210536976], [86.48750758234472, 27.848991562718545], [86.48771070391705, 27.848992316971007], [86.4877124007358, 27.848631231632638], [86.48791552164336, 27.848631985579672], [86.4879163697069, 27.848451442901506], [86.48811949028209, 27.848452196543114], [86.48812118570845, 27.848091111150847], [86.48832430562787, 27.848091864487028], [86.48832515299071, 27.84791132177293], [86.48852827256877, 27.84791207480368], [86.48852911959924, 27.847731532080598], [86.48893535810858, 27.847733037234807], [86.48893620445632, 27.84755249449376], [86.4891393233876, 27.847553246617213], [86.48914101537342, 27.84719216111715], [86.48954725192444, 27.847193664438795], [86.48954809723013, 27.847013121670795], [86.48975121518224, 27.847013872877966], [86.48975206014659, 27.846833330100985], [86.48995517776632, 27.846834081002733], [86.48995602238031, 27.846653538216767], [86.49015913967665, 27.846654288813085], [86.49015998394928, 27.846473746009156], [86.4905662178862, 27.846475246294492], [86.4905670614851, 27.84629470348158], [86.49117641143376, 27.846296951650327], [86.49117725401757, 27.846116408810463]]], [[[86.49117725401757, 27.846116408810463], [86.49097413769141, 27.846115659732295], [86.49097498059861, 27.84593511689243], [86.4911780965834, 27.8459358659706], [86.49117725401757, 27.846116408810463]]]]}, "id": "+2496+988", "properties": {"area_m2": 1673826.3566537125, "count": 4175, "label": 1, "seed_distance_m": 0, "site_id": "tsho-rolpa", "recordId": "tsho-rolpa-lake", "kind": "lake", "status": "candidate", "observation_date": "2022-11-28", "scene_id": "COPERNICUS/S2_SR_HARMONIZED/20221128T045131_20221128T045133_T45RVL", "source": "Sentinel-2 spectral water baseline", "resolution_m": 20, "method": "NDWI > 0.05; MNDWI > 0.1; B8 < 2500; SCL rejects cloud, shadow, snow, invalid. Largest connected component >= 0.05 km2 within 1200 m of seed.", "limitations": "Candidate, not reviewed shoreline. Seasonal ice, terrain shadow and turbid water can cause omission or commission."}}]}