{
  "type": "FeatureCollection",
  "features": [
    {
      "type": "Feature",
      "properties": {
        "site_id": "south-lhonak",
        "glacier_id": "RGI2000-v7.0-G-15-07986",
        "observation_date": "2021-10-15",
        "area_km2": 13.539,
        "area_2016_km2": 14.26,
        "scale_factor": 0.9744,
        "source": "Phase 2 GeoAI derived boundary (versioned, reviewed) \u2014 scaled from RGI 2000 baseline by measured area change; confidence + image-quality documented in measurements.ts",
        "source_id": "phase-2-geoai-v1.0",
        "processing_version": "phase-2-retreat-v1.0",
        "crs": "EPSG:4326",
        "status": "approved",
        "boundary_asset": "data/derived/phase2/boundaries/south-lhonak/2021-10-15.geojson"
      },
      "geometry": {
        "type": "Polygon",
        "coordinates": [
          [
            [
              88.13528992886718,
              27.882396334526497,
              0.0
            ],
            [
              88.1354380363904,
              27.8827159349713,
              0.0
            ],
            [
              88.1357888173664,
              27.88322359299491,
              0.0
            ],
            [
              88.13613764955919,
              27.883628939900518,
              0.0
            ],
            [
              88.1363724779348,
              27.884137572315726,
              0.0
            ],
            [
              88.13672131012761,
              27.884543893612932,
              0.0
            ],
            [
              88.13695516411161,
              27.88495021491014,
              0.0
            ],
            [
              88.13718999248721,
              27.885356536207347,
              0.0
            ],
            [
              88.13742384647122,
              27.885762857504552,
              0.0
            ],
            [
              88.13731374022042,
              27.88627441309456,
              0.0
            ],
            [
              88.13731958657002,
              27.886784994292974,
              0.0
            ],
            [
              88.13709352771882,
              27.887195213156577,
              0.0
            ],
            [
              88.13698439585961,
              27.887706768746586,
              0.0
            ],
            [
              88.13675833700842,
              27.888116987610193,
              0.0
            ],
            [
              88.13664920514921,
              27.888628543200202,
              0.0
            ],
            [
              88.13665407710721,
              27.88913912439861,
              0.0
            ],
            [
              88.136544945248,
              27.88964970559702,
              0.0
            ],
            [
              88.13654981720602,
              27.890160286795425,
              0.0
            ],
            [
              88.13632473274642,
              27.890570505659035,
              0.0
            ],
            [
              88.1362146264956,
              27.891082061249044,
              0.0
            ],
            [
              88.13598954203599,
              27.89149228011265,
              0.0
            ],
            [
              88.135765431968,
              27.89200481009426,
              0.0
            ],
            [
              88.13565532571718,
              27.89251636568427,
              0.0
            ],
            [
              88.13554619385799,
              27.893027921274275,
              0.0
            ],
            [
              88.13532110939839,
              27.893540451255884,
              0.0
            ],
            [
              88.13509699933039,
              27.894052006845893,
              0.0
            ],
            [
              88.13487094047917,
              27.8944632001011,
              0.0
            ],
            [
              88.13464585601957,
              27.894873418964707,
              0.0
            ],
            [
              88.13430481895956,
              27.895284612219914,
              0.0
            ],
            [
              88.13419568710036,
              27.895795193418323,
              0.0
            ],
            [
              88.13385562443196,
              27.89620638667353,
              0.0
            ],
            [
              88.13362956558076,
              27.896617579928737,
              0.0
            ],
            [
              88.13340448112115,
              27.897027798792344,
              0.0
            ],
            [
              88.13317842226995,
              27.897438017655947,
              0.0
            ],
            [
              88.13295431220195,
              27.897949573245956,
              0.0
            ],
            [
              88.13249732254154,
              27.89826040416636,
              0.0
            ],
            [
              88.13204228166434,
              27.898672571813172,
              0.0
            ],
            [
              88.13158626639553,
              27.899084739459976,
              0.0
            ],
            [
              88.13113122551832,
              27.899496907106784,
              0.0
            ],
            [
              88.13067326146631,
              27.899704452517586,
              0.0
            ],
            [
              88.1303331987979,
              27.900115645772793,
              0.0
            ],
            [
              88.1299921617379,
              27.900526839028,
              0.0
            ],
            [
              88.1297670772783,
              27.900937057891607,
              0.0
            ],
            [
              88.1296667149435,
              27.90102767631041,
              0.0
            ],
            [
              88.12968230520909,
              27.901181630183213,
              0.0
            ],
            [
              88.12974564066309,
              27.90173703339522,
              0.0
            ],
            [
              88.1298080017255,
              27.90234310497043,
              0.0
            ],
            [
              88.12981287368349,
              27.90279814584764,
              0.0
            ],
            [
              88.12981872003309,
              27.903303855088048,
              0.0
            ],
            [
              88.12970958817388,
              27.903759870356854,
              0.0
            ],
            [
              88.1296024050979,
              27.904418559078465,
              0.0
            ],
            [
              88.1296072770559,
              27.90487359995567,
              0.0
            ],
            [
              88.12972517843949,
              27.905327666441284,
              0.0
            ],
            [
              88.1300145727447,
              27.90572911578049,
              0.0
            ],
            [
              88.1301899632327,
              27.906183182266094,
              0.0
            ],
            [
              88.1305923869635,
              27.906584631605302,
              0.0
            ],
            [
              88.13099383630272,
              27.906884744218107,
              0.0
            ],
            [
              88.13128225621632,
              27.907286193557315,
              0.0
            ],
            [
              88.13185422408553,
              27.90753466341532,
              0.0
            ],
            [
              88.13231218813753,
              27.907733439301722,
              0.0
            ],
            [
              88.13288220722355,
              27.907829904070123,
              0.0
            ],
            [
              88.13336355667396,
              27.907902983440124,
              0.0
            ],
            [
              88.13362079605635,
              27.90819237774533,
              0.0
            ],
            [
              88.13409435037397,
              27.90837458897453,
              0.0
            ],
            [
              88.13461954744638,
              27.908463258610134,
              0.0
            ],
            [
              88.13514474451878,
              27.908598699042535,
              0.0
            ],
            [
              88.13566994159119,
              27.908687368678137,
              0.0
            ],
            [
              88.136194164272,
              27.90877603831374,
              0.0
            ],
            [
              88.1366677185896,
              27.90891147874614,
              0.0
            ],
            [
              88.13714029851562,
              27.909046919178543,
              0.0
            ],
            [
              88.13761385283323,
              27.90927590120455,
              0.0
            ],
            [
              88.13808740715083,
              27.90941231602855,
              0.0
            ],
            [
              88.13856096146844,
              27.909594527257752,
              0.0
            ],
            [
              88.13903354139444,
              27.909776738486954,
              0.0
            ],
            [
              88.13950807010366,
              27.910051516918163,
              0.0
            ],
            [
              88.14003229278447,
              27.91009439014856,
              0.0
            ],
            [
              88.14055651546528,
              27.91004274739376,
              0.0
            ],
            [
              88.14107976375449,
              27.910038849827362,
              0.0
            ],
            [
              88.1416556291901,
              27.90998720707256,
              0.0
            ],
            [
              88.1421252859413,
              27.909843971507357,
              0.0
            ],
            [
              88.14259591708411,
              27.909700735942156,
              0.0
            ],
            [
              88.1431191653733,
              27.90964909318735,
              0.0
            ],
            [
              88.14358882212453,
              27.90950585762215,
              0.0
            ],
            [
              88.14405847887573,
              27.909315851260146,
              0.0
            ],
            [
              88.14452911001854,
              27.909172615694946,
              0.0
            ],
            [
              88.14489158369375,
              27.908843271334142,
              0.0
            ],
            [
              88.14514979746775,
              27.908422334162935,
              0.0
            ],
            [
              88.14524918541096,
              27.907956574978126,
              0.0
            ],
            [
              88.14556001633134,
              27.90758143421212,
              0.0
            ],
            [
              88.14586987286016,
              27.907206293446116,
              0.0
            ],
            [
              88.14586987286016,
              27.907159522649312,
              0.0
            ],
            [
              88.14696606341019,
              27.906825306330507,
              0.0
            ],
            [
              88.147436694553,
              27.906681096373706,
              0.0
            ],
            [
              88.1479589684506,
              27.906583657213705,
              0.0
            ],
            [
              88.14842959959341,
              27.9064404216485,
              0.0
            ],
            [
              88.1488992563446,
              27.9062971860833,
              0.0
            ],
            [
              88.14936793870423,
              27.906013638127693,
              0.0
            ],
            [
              88.14978400391743,
              27.90573106456369,
              0.0
            ],
            [
              88.15030725220663,
              27.905633625403688,
              0.0
            ],
            [
              88.15083050049584,
              27.905629727837287,
              0.0
            ],
            [
              88.15135472317665,
              27.905624855879285,
              0.0
            ],
            [
              88.15187797146585,
              27.905620958312884,
              0.0
            ],
            [
              88.15240219414667,
              27.905616086354886,
              0.0
            ],
            [
              88.15292641682748,
              27.905612188788485,
              0.0
            ],
            [
              88.15345063950829,
              27.905654087627287,
              0.0
            ],
            [
              88.1539738877975,
              27.905649215669285,
              0.0
            ],
            [
              88.15444744211511,
              27.90583142689849,
              0.0
            ],
            [
              88.15486935367791,
              27.906107179721296,
              0.0
            ],
            [
              88.15518797973112,
              27.9064774485293,
              0.0
            ],
            [
              88.15566153404872,
              27.906705456163703,
              0.0
            ],
            [
              88.15608442000313,
              27.906981208986508,
              0.0
            ],
            [
              88.15650633156594,
              27.907256961809313,
              0.0
            ],
            [
              88.15698086027516,
              27.90753271463212,
              0.0
            ],
            [
              88.15745441459275,
              27.907714925861324,
              0.0
            ],
            [
              88.15792699451876,
              27.907897137090526,
              0.0
            ],
            [
              88.15840152322798,
              27.908125144724927,
              0.0
            ],
            [
              88.15882343479078,
              27.908400897547732,
              0.0
            ],
            [
              88.15929698910838,
              27.908629879573738,
              0.0
            ],
            [
              88.15934960625479,
              27.908629879573738,
              0.0
            ],
            [
              88.16013983784241,
              27.90899527642374,
              0.0
            ],
            [
              88.1606124177684,
              27.909130716856144,
              0.0
            ],
            [
              88.16108499769442,
              27.90926615728855,
              0.0
            ],
            [
              88.16155855201202,
              27.909402572112548,
              0.0
            ],
            [
              88.16208277469283,
              27.90944447095135,
              0.0
            ],
            [
              88.16260699737364,
              27.90948636979015,
              0.0
            ],
            [
              88.16313122005445,
              27.90948247222375,
              0.0
            ],
            [
              88.16365446834367,
              27.90947760026575,
              0.0
            ],
            [
              88.16417869102446,
              27.90947272830775,
              0.0
            ],
            [
              88.16470291370528,
              27.90946883074135,
              0.0
            ],
            [
              88.16527975353249,
              27.909510729580152,
              0.0
            ],
            [
              88.16580300182169,
              27.90950585762215,
              0.0
            ],
            [
              88.16632722450251,
              27.909501960055753,
              0.0
            ],
            [
              88.16685144718332,
              27.90949708809775,
              0.0
            ],
            [
              88.16737469547252,
              27.90949221613975,
              0.0
            ],
            [
              88.16789891815334,
              27.909488318573352,
              0.0
            ],
            [
              88.16842216644254,
              27.90948344661535,
              0.0
            ],
            [
              88.16894736351496,
              27.909526319845753,
              0.0
            ],
            [
              88.16942091783255,
              27.909707556683355,
              0.0
            ],
            [
              88.16994611490497,
              27.909842997115756,
              0.0
            ],
            [
              88.17036802646777,
              27.91011874993856,
              0.0
            ],
            [
              88.17084158078538,
              27.910347731964567,
              0.0
            ],
            [
              88.17136872664099,
              27.91057573959897,
              0.0
            ],
            [
              88.1718929493218,
              27.91066440923457,
              0.0
            ],
            [
              88.1724707635406,
              27.910752104478572,
              0.0
            ],
            [
              88.17294334346661,
              27.910888519302574,
              0.0
            ],
            [
              88.17341689778422,
              27.911070730531776,
              0.0
            ],
            [
              88.17394112046503,
              27.911112629370578,
              0.0
            ],
            [
              88.17436303202784,
              27.911388382193383,
              0.0
            ],
            [
              88.17483658634545,
              27.91157059342259,
              0.0
            ],
            [
              88.17531111505465,
              27.91179860105699,
              0.0
            ],
            [
              88.17578466937226,
              27.912027583082992,
              0.0
            ],
            [
              88.17625919808147,
              27.912256565108997,
              0.0
            ],
            [
              88.17673275239908,
              27.9124378019466,
              0.0
            ],
            [
              88.1772072811083,
              27.912713554769404,
              0.0
            ],
            [
              88.17773150378909,
              27.912755453608206,
              0.0
            ],
            [
              88.1782567008615,
              27.912890894040608,
              0.0
            ],
            [
              88.1787302551791,
              27.91302633447301,
              0.0
            ],
            [
              88.17920283510513,
              27.91316177490541,
              0.0
            ],
            [
              88.17972803217752,
              27.913250444541013,
              0.0
            ],
            [
              88.18025225485833,
              27.913292343379812,
              0.0
            ],
            [
              88.18077647753915,
              27.913334242218614,
              0.0
            ],
            [
              88.18130167461155,
              27.91342291185422,
              0.0
            ],
            [
              88.18182687168397,
              27.913558352286618,
              0.0
            ],
            [
              88.18229945160996,
              27.91369379271902,
              0.0
            ],
            [
              88.18282464868238,
              27.91373569155782,
              0.0
            ],
            [
              88.1833488713632,
              27.91377759039662,
              0.0
            ],
            [
              88.1838214512892,
              27.913913030829026,
              0.0
            ],
            [
              88.1842950056068,
              27.914095242058227,
              0.0
            ],
            [
              88.18476953431602,
              27.914324224084233,
              0.0
            ],
            [
              88.18524211424203,
              27.914459664516635,
              0.0
            ],
            [
              88.18576633692282,
              27.914501563355433,
              0.0
            ],
            [
              88.18629055960363,
              27.914543462194235,
              0.0
            ],
            [
              88.18649615623124,
              27.914449920600635,
              0.0
            ],
            [
              88.18690247752845,
              27.914449920600635,
              0.0
            ],
            [
              88.18823154767087,
              27.91471300633264,
              0.0
            ],
            [
              88.18880838749809,
              27.91475490517144,
              0.0
            ],
            [
              88.18933163578728,
              27.91475003321344,
              0.0
            ],
            [
              88.18985683285969,
              27.91479193205224,
              0.0
            ],
            [
              88.19038105554051,
              27.91488060168784,
              0.0
            ],
            [
              88.19090625261292,
              27.91492250052664,
              0.0
            ],
            [
              88.19142950090213,
              27.914918602960242,
              0.0
            ],
            [
              88.19195372358294,
              27.91491373100224,
              0.0
            ],
            [
              88.19231717164975,
              27.914584386641437,
              0.0
            ],
            [
              88.19231132530014,
              27.914119601848228,
              0.0
            ],
            [
              88.19272739051335,
              27.913836053892624,
              0.0
            ],
            [
              88.19319802165614,
              27.91369281832742,
              0.0
            ],
            [
              88.19356049533137,
              27.913363473966616,
              0.0
            ],
            [
              88.19376609195896,
              27.91294351118701,
              0.0
            ],
            [
              88.19381286275578,
              27.9124777520022,
              0.0
            ],
            [
              88.19370275650496,
              27.91201296720899,
              0.0
            ],
            [
              88.19369788454696,
              27.911547208024185,
              0.0
            ],
            [
              88.19369301258897,
              27.91108242323098,
              0.0
            ],
            [
              88.19368814063097,
              27.91061666404617,
              0.0
            ],
            [
              88.19336951457777,
              27.910247369629765,
              0.0
            ],
            [
              88.19305088852455,
              27.909878075213356,
              0.0
            ],
            [
              88.19262897696174,
              27.90960232239055,
              0.0
            ],
            [
              88.19215542264413,
              27.90942011116135,
              0.0
            ],
            [
              88.19168089393493,
              27.909191129135344,
              0.0
            ],
            [
              88.19162925118012,
              27.909192103526948,
              0.0
            ],
            [
              88.1904229543793,
              27.909109280240948,
              0.0
            ],
            [
              88.1898987316985,
              27.909114152198946,
              0.0
            ],
            [
              88.18937548340928,
              27.909118049765343,
              0.0
            ],
            [
              88.18885126072848,
              27.90912292172335,
              0.0
            ],
            [
              88.18832703804767,
              27.909081022884543,
              0.0
            ],
            [
              88.18775019822046,
              27.90903912404574,
              0.0
            ],
            [
              88.18722500114805,
              27.908950454410142,
              0.0
            ],
            [
              88.18675242122204,
              27.90881501397774,
              0.0
            ],
            [
              88.18627886690444,
              27.90867957354534,
              0.0
            ],
            [
              88.18575366983202,
              27.908544133112933,
              0.0
            ],
            [
              88.18528108990603,
              27.908408692680535,
              0.0
            ],
            [
              88.1847568672252,
              27.908366793841733,
              0.0
            ],
            [
              88.18423167015281,
              27.908231353409327,
              0.0
            ],
            [
              88.18375714144359,
              27.908003345774926,
              0.0
            ],
            [
              88.18333522988078,
              27.90772759295212,
              0.0
            ],
            [
              88.18286167556319,
              27.90759215251972,
              0.0
            ],
            [
              88.18238909563718,
              27.907456712087317,
              0.0
            ],
            [
              88.18201882682916,
              27.90713418846771,
              0.0
            ],
            [
              88.18159691526635,
              27.906858435644907,
              0.0
            ],
            [
              88.18117402931195,
              27.9065359120253,
              0.0
            ],
            [
              88.18070047499435,
              27.9063537007961,
              0.0
            ],
            [
              88.18022789506834,
              27.906218260363698,
              0.0
            ],
            [
              88.17970172360434,
              27.906037023526093,
              0.0
            ],
            [
              88.17964910645793,
              27.906037023526093,
              0.0
            ],
            [
              88.1782294178967,
              27.905490389838484,
              0.0
            ],
            [
              88.1778065319423,
              27.90521561140728,
              0.0
            ],
            [
              88.17733297762469,
              27.904986629381277,
              0.0
            ],
            [
              88.17691106606189,
              27.90471087655847,
              0.0
            ],
            [
              88.17659244000868,
              27.904341582142063,
              0.0
            ],
            [
              88.17637807385668,
              27.903924542537258,
              0.0
            ],
            [
              88.17616468209627,
              27.903507502932452,
              0.0
            ],
            [
              88.17600293309066,
              27.903089488936043,
              0.0
            ],
            [
              88.17584118408507,
              27.902672449331238,
              0.0
            ],
            [
              88.17567943507946,
              27.90225443533483,
              0.0
            ],
            [
              88.17567456312146,
              27.901789650541623,
              0.0
            ],
            [
              88.17551281411586,
              27.901371636545214,
              0.0
            ],
            [
              88.17535009071865,
              27.90090782614361,
              0.0
            ],
            [
              88.17508408181186,
              27.9004907865388,
              0.0
            ],
            [
              88.17481709851344,
              27.90007472132559,
              0.0
            ],
            [
              88.17479468750665,
              27.900048412752394,
              0.0
            ],
            [
              88.17511818551786,
              27.899997744389193,
              0.0
            ],
            [
              88.17563363867426,
              27.899839892949988,
              0.0
            ],
            [
              88.17623678707467,
              27.89983502099199,
              0.0
            ],
            [
              88.17667136572828,
              27.900138056779596,
              0.0
            ],
            [
              88.17710496999028,
              27.900364115630797,
              0.0
            ],
            [
              88.17762042314669,
              27.900206264191596,
              0.0
            ],
            [
              88.17770129764949,
              27.899746351356388,
              0.0
            ],
            [
              88.1777509916211,
              27.899462803400784,
              0.0
            ],
            [
              88.17786889300469,
              27.89928546412958,
              0.0
            ],
            [
              88.1781232092123,
              27.898900579447574,
              0.0
            ],
            [
              88.17846424627231,
              27.898514720373967,
              0.0
            ],
            [
              88.17880430894071,
              27.89812886130036,
              0.0
            ],
            [
              88.17897190429592,
              27.897667974073553,
              0.0
            ],
            [
              88.17870881856392,
              27.897286986957948,
              0.0
            ],
            [
              88.1785314792927,
              27.896829022905937,
              0.0
            ],
            [
              88.1785266073347,
              27.89637008446233,
              0.0
            ],
            [
              88.17843598891591,
              27.895911146018726,
              0.0
            ],
            [
              88.1781729031839,
              27.895530158903117,
              0.0
            ],
            [
              88.17773929892189,
              27.895304100051913,
              0.0
            ],
            [
              88.17730569465989,
              27.89507804120071,
              0.0
            ],
            [
              88.17670059747627,
              27.894853931132708,
              0.0
            ],
            [
              88.17609452590106,
              27.894628846673104,
              0.0
            ],
            [
              88.17593959763667,
              27.8945518697367,
              0.0
            ],
            [
              88.17589477562306,
              27.89409390568469,
              0.0
            ],
            [
              88.17576225836545,
              27.893642762373887,
              0.0
            ],
            [
              88.17572328270145,
              27.893567734220685,
              0.0
            ],
            [
              88.17600195869906,
              27.89331634118788,
              0.0
            ],
            [
              88.17573497540066,
              27.892899301583075,
              0.0
            ],
            [
              88.17541732373905,
              27.89253000716667,
              0.0
            ],
            [
              88.17520295758705,
              27.89211296756186,
              0.0
            ],
            [
              88.17483268877905,
              27.891790443942252,
              0.0
            ],
            [
              88.17461832262705,
              27.891373404337447,
              0.0
            ],
            [
              88.17450919076785,
              27.890908619544238,
              0.0
            ],
            [
              88.17445170166343,
              27.890443834751032,
              0.0
            ],
            [
              88.17445072727183,
              27.890397063954232,
              0.0
            ],
            [
              88.17433380027984,
              27.88928138557221,
              0.0
            ],
            [
              88.17438154546825,
              27.888815626387405,
              0.0
            ],
            [
              88.17437667351024,
              27.888349867202596,
              0.0
            ],
            [
              88.17431723562264,
              27.888097499778194,
              0.0
            ],
            [
              88.17442734187344,
              27.88795523860459,
              0.0
            ],
            [
              88.17464950315824,
              27.887776924941786,
              0.0
            ],
            [
              88.17420420619703,
              27.887779848116587,
              0.0
            ],
            [
              88.17362931515302,
              27.88778472007459,
              0.0
            ],
            [
              88.17305442410903,
              27.887688255306184,
              0.0
            ],
            [
              88.1723645548562,
              27.887694101655786,
              0.0
            ],
            [
              88.1716737112118,
              27.887597636887385,
              0.0
            ],
            [
              88.17109882016778,
              27.88750019772738,
              0.0
            ],
            [
              88.17063695854938,
              27.88730044744938,
              0.0
            ],
            [
              88.17006206750537,
              27.88730531940738,
              0.0
            ],
            [
              88.16948620206976,
              27.887207880247377,
              0.0
            ],
            [
              88.16891131102575,
              27.887110441087376,
              0.0
            ],
            [
              88.16844944940735,
              27.886910690809373,
              0.0
            ],
            [
              88.16787358397173,
              27.88681325164937,
              0.0
            ],
            [
              88.16729771853612,
              27.88671581248937,
              0.0
            ],
            [
              88.16683585691771,
              27.886515087819767,
              0.0
            ],
            [
              88.16625901709051,
              27.886316311933363,
              0.0
            ],
            [
              88.1655681734461,
              27.88611753604696,
              0.0
            ],
            [
              88.16499230801048,
              27.88602009688696,
              0.0
            ],
            [
              88.16441741696647,
              27.886024968844957,
              0.0
            ],
            [
              88.16384155153087,
              27.885826192958554,
              0.0
            ],
            [
              88.16326568609526,
              27.885728753798553,
              0.0
            ],
            [
              88.16268982065965,
              27.88563131463855,
              0.0
            ],
            [
              88.16211395522404,
              27.88553387547855,
              0.0
            ],
            [
              88.16153906418002,
              27.88543741071015,
              0.0
            ],
            [
              88.16096222435282,
              27.885237660432146,
              0.0
            ],
            [
              88.16015542810801,
              27.885039858937343,
              0.0
            ],
            [
              88.15957956267239,
              27.884943394168943,
              0.0
            ],
            [
              88.15911867544558,
              27.884742669499335,
              0.0
            ],
            [
              88.15854281000998,
              27.884645230339334,
              0.0
            ],
            [
              88.15796694457437,
              27.884547791179333,
              0.0
            ],
            [
              88.15750410856435,
              27.88424572978333,
              0.0
            ],
            [
              88.15704224694595,
              27.884045005113723,
              0.0
            ],
            [
              88.15646638151034,
              27.883948540345322,
              0.0
            ],
            [
              88.15588954168314,
              27.88364647894932,
              0.0
            ],
            [
              88.15531270185592,
              27.883447703062917,
              0.0
            ],
            [
              88.1548498658459,
              27.88314466727531,
              0.0
            ],
            [
              88.1543860554443,
              27.882740294761305,
              0.0
            ],
            [
              88.15392321943429,
              27.882438233365296,
              0.0
            ],
            [
              88.1535734128499,
              27.882032886459694,
              0.0
            ],
            [
              88.15311057683988,
              27.881729850672087,
              0.0
            ],
            [
              88.15264774082988,
              27.881427789276085,
              0.0
            ],
            [
              88.15218490481986,
              27.88112475348848,
              0.0
            ],
            [
              88.15160611620946,
              27.88072135536607,
              0.0
            ],
            [
              88.15114230580785,
              27.88031698285206,
              0.0
            ],
            [
              88.15067849540625,
              27.879912610338053,
              0.0
            ],
            [
              88.15021565939622,
              27.87960957455045,
              0.0
            ],
            [
              88.14986682720344,
              27.879204227644845,
              0.0
            ],
            [
              88.14951799501063,
              27.878798880739236,
              0.0
            ],
            [
              88.14928414102661,
              27.87839255944203,
              0.0
            ],
            [
              88.14893433444222,
              27.877987212536425,
              0.0
            ],
            [
              88.14900059307102,
              27.877680279182417,
              0.0
            ],
            [
              88.14893141126741,
              27.877681253574018,
              0.0
            ],
            [
              88.148357494615,
              27.87768515114042,
              0.0
            ],
            [
              88.1477835779626,
              27.87779233421642,
              0.0
            ],
            [
              88.14721063570178,
              27.877899517292423,
              0.0
            ],
            [
              88.14663671904938,
              27.878005725976827,
              0.0
            ],
            [
              88.14617972938896,
              27.87821424577923,
              0.0
            ],
            [
              88.14572273972855,
              27.878524102308035,
              0.0
            ],
            [
              88.14515174625095,
              27.878834933228436,
              0.0
            ],
            [
              88.14457977838174,
              27.87904442742244,
              0.0
            ],
            [
              88.14400683612092,
              27.879252947224845,
              0.0
            ],
            [
              88.14343291946852,
              27.879257819182847,
              0.0
            ],
            [
              88.14285802842451,
              27.879262691140845,
              0.0
            ],
            [
              88.1422841117721,
              27.879267563098846,
              0.0
            ],
            [
              88.14170824633649,
              27.879170123938845,
              0.0
            ],
            [
              88.14113238090088,
              27.879072684778844,
              0.0
            ],
            [
              88.14055748985687,
              27.87897524561884,
              0.0
            ],
            [
              88.13998162442125,
              27.87887780645884,
              0.0
            ],
            [
              88.13940965655206,
              27.879087300652845,
              0.0
            ],
            [
              88.13895266689165,
              27.87939715718165,
              0.0
            ],
            [
              88.13849762601444,
              27.879809324828454,
              0.0
            ],
            [
              88.13815756334604,
              27.88022051808366,
              0.0
            ],
            [
              88.13781652628603,
              27.880631711338868,
              0.0
            ],
            [
              88.13736148540883,
              27.881043878985675,
              0.0
            ],
            [
              88.13690547014001,
              27.88135373551448,
              0.0
            ],
            [
              88.1364494548712,
              27.881765903161288,
              0.0
            ],
            [
              88.1359934396024,
              27.882076734081693,
              0.0
            ],
            [
              88.1355354755504,
              27.882284279492495,
              0.0
            ],
            [
              88.13528992886718,
              27.882396334526497,
              0.0
            ]
          ]
        ]
      }
    }
  ],
  "properties": {
    "site_id": "south-lhonak",
    "observation_date": "2021-10-15",
    "version": "phase-2-retreat-v1.0"
  }
}