{
  "type": "FeatureCollection",
  "features": [
    {
      "type": "Feature",
      "properties": {
        "site_id": "south-lhonak",
        "kind": "glacier",
        "observation_date": "2019-10-15",
        "status": "draft_reference_adjusted_not_reviewed",
        "area_m2_draft": 12593980.3,
        "method": "2000 RGI historical glacier outline minus date-specific Sentinel-2 lake spectral candidate",
        "reference": "data/derived/reference/south-lhonak-rgi-v7-reference.geojson",
        "lake_candidate": "apps/web/public/boundaries/south-lhonak-2019-10-15-lake-candidate.geojson",
        "use": "Editable visual starting point only",
        "prohibited_use": "Do not use for measurements, evaluation, model training, or release until a human maps and approves this date-specific outline.",
        "limitations": "The old inventory footprint does not capture post-2000 changes away from the lake terminus; the spectral lake candidate can contain shadow, ice, or turbid-water errors."
      },
      "geometry": {
        "type": "MultiPolygon",
        "coordinates": [
          [
            [
              [
                88.134776,
                27.882275,
                0.0
              ],
              [
                88.135136,
                27.882796,
                0.0
              ],
              [
                88.135494,
                27.883212,
                0.0
              ],
              [
                88.135735,
                27.883734,
                0.0
              ],
              [
                88.136093,
                27.884151,
                0.0
              ],
              [
                88.136333,
                27.884568,
                0.0
              ],
              [
                88.136574,
                27.884985,
                0.0
              ],
              [
                88.136814,
                27.885402,
                0.0
              ],
              [
                88.136701,
                27.885927,
                0.0
              ],
              [
                88.136707,
                27.886451,
                0.0
              ],
              [
                88.136475,
                27.886872,
                0.0
              ],
              [
                88.136363,
                27.887397,
                0.0
              ],
              [
                88.136131,
                27.887818,
                0.0
              ],
              [
                88.136019,
                27.888343,
                0.0
              ],
              [
                88.136024,
                27.888867,
                0.0
              ],
              [
                88.135912,
                27.889391,
                0.0
              ],
              [
                88.135917,
                27.889915,
                0.0
              ],
              [
                88.135686,
                27.890336,
                0.0
              ],
              [
                88.135573,
                27.890861,
                0.0
              ],
              [
                88.135342,
                27.891282,
                0.0
              ],
              [
                88.135112,
                27.891808,
                0.0
              ],
              [
                88.134999,
                27.892333,
                0.0
              ],
              [
                88.134887,
                27.892858,
                0.0
              ],
              [
                88.134656,
                27.893384,
                0.0
              ],
              [
                88.134426,
                27.893909,
                0.0
              ],
              [
                88.134194,
                27.894331,
                0.0
              ],
              [
                88.133963,
                27.894752,
                0.0
              ],
              [
                88.133613,
                27.895174,
                0.0
              ],
              [
                88.133501,
                27.895698,
                0.0
              ],
              [
                88.133152,
                27.89612,
                0.0
              ],
              [
                88.13292,
                27.896542,
                0.0
              ],
              [
                88.132689,
                27.896963,
                0.0
              ],
              [
                88.132457,
                27.897384,
                0.0
              ],
              [
                88.132227,
                27.897909,
                0.0
              ],
              [
                88.131758,
                27.898228,
                0.0
              ],
              [
                88.131291,
                27.898651,
                0.0
              ],
              [
                88.130823,
                27.899074,
                0.0
              ],
              [
                88.130356,
                27.899497,
                0.0
              ],
              [
                88.129886,
                27.89971,
                0.0
              ],
              [
                88.129537,
                27.900132,
                0.0
              ],
              [
                88.129187,
                27.900554,
                0.0
              ],
              [
                88.128956,
                27.900975,
                0.0
              ],
              [
                88.128853,
                27.901068,
                0.0
              ],
              [
                88.128869,
                27.901226,
                0.0
              ],
              [
                88.128934,
                27.901796,
                0.0
              ],
              [
                88.128998,
                27.902418,
                0.0
              ],
              [
                88.129003,
                27.902885,
                0.0
              ],
              [
                88.129009,
                27.903404,
                0.0
              ],
              [
                88.128897,
                27.903872,
                0.0
              ],
              [
                88.128787,
                27.904548,
                0.0
              ],
              [
                88.128792,
                27.905015,
                0.0
              ],
              [
                88.128913,
                27.905481,
                0.0
              ],
              [
                88.12921,
                27.905893,
                0.0
              ],
              [
                88.12939,
                27.906359,
                0.0
              ],
              [
                88.129803,
                27.906771,
                0.0
              ],
              [
                88.130215,
                27.907079,
                0.0
              ],
              [
                88.130511,
                27.907491,
                0.0
              ],
              [
                88.131098,
                27.907746,
                0.0
              ],
              [
                88.131568,
                27.90795,
                0.0
              ],
              [
                88.132153,
                27.908049,
                0.0
              ],
              [
                88.132647,
                27.908124,
                0.0
              ],
              [
                88.132911,
                27.908421,
                0.0
              ],
              [
                88.133397,
                27.908608,
                0.0
              ],
              [
                88.133936,
                27.908699,
                0.0
              ],
              [
                88.134475,
                27.908838,
                0.0
              ],
              [
                88.135014,
                27.908929,
                0.0
              ],
              [
                88.135552,
                27.90902,
                0.0
              ],
              [
                88.136038,
                27.909159,
                0.0
              ],
              [
                88.136523,
                27.909298,
                0.0
              ],
              [
                88.137009,
                27.909533,
                0.0
              ],
              [
                88.137495,
                27.909673,
                0.0
              ],
              [
                88.137981,
                27.90986,
                0.0
              ],
              [
                88.138466,
                27.910047,
                0.0
              ],
              [
                88.138953,
                27.910329,
                0.0
              ],
              [
                88.139491,
                27.910373,
                0.0
              ],
              [
                88.140029,
                27.91032,
                0.0
              ],
              [
                88.140566,
                27.910316,
                0.0
              ],
              [
                88.141157,
                27.910263,
                0.0
              ],
              [
                88.141639,
                27.910116,
                0.0
              ],
              [
                88.142122,
                27.909969,
                0.0
              ],
              [
                88.142659,
                27.909916,
                0.0
              ],
              [
                88.143141,
                27.909769,
                0.0
              ],
              [
                88.143623,
                27.909574,
                0.0
              ],
              [
                88.144106,
                27.909427,
                0.0
              ],
              [
                88.144478,
                27.909089,
                0.0
              ],
              [
                88.144743,
                27.908657,
                0.0
              ],
              [
                88.144845,
                27.908179,
                0.0
              ],
              [
                88.145164,
                27.907794,
                0.0
              ],
              [
                88.145482,
                27.907409,
                0.0
              ],
              [
                88.145482,
                27.907361,
                0.0
              ],
              [
                88.146607,
                27.907018,
                0.0
              ],
              [
                88.14709,
                27.90687,
                0.0
              ],
              [
                88.147626,
                27.90677,
                0.0
              ],
              [
                88.148109,
                27.906623,
                0.0
              ],
              [
                88.148591,
                27.906476,
                0.0
              ],
              [
                88.149072,
                27.906185,
                0.0
              ],
              [
                88.149499,
                27.905895,
                0.0
              ],
              [
                88.150036,
                27.905795,
                0.0
              ],
              [
                88.150573,
                27.905791,
                0.0
              ],
              [
                88.151111,
                27.905786,
                0.0
              ],
              [
                88.151648,
                27.905782,
                0.0
              ],
              [
                88.152186,
                27.905777,
                0.0
              ],
              [
                88.152724,
                27.905773,
                0.0
              ],
              [
                88.153262,
                27.905816,
                0.0
              ],
              [
                88.153799,
                27.905811,
                0.0
              ],
              [
                88.154285,
                27.905998,
                0.0
              ],
              [
                88.154718,
                27.906281,
                0.0
              ],
              [
                88.155045,
                27.906661,
                0.0
              ],
              [
                88.155531,
                27.906895,
                0.0
              ],
              [
                88.155965,
                27.907178,
                0.0
              ],
              [
                88.156398,
                27.907461,
                0.0
              ],
              [
                88.156885,
                27.907744,
                0.0
              ],
              [
                88.157371,
                27.907931,
                0.0
              ],
              [
                88.157856,
                27.908118,
                0.0
              ],
              [
                88.158343,
                27.908352,
                0.0
              ],
              [
                88.158776,
                27.908635,
                0.0
              ],
              [
                88.159262,
                27.90887,
                0.0
              ],
              [
                88.159316,
                27.90887,
                0.0
              ],
              [
                88.160127,
                27.909245,
                0.0
              ],
              [
                88.160612,
                27.909384,
                0.0
              ],
              [
                88.161097,
                27.909523,
                0.0
              ],
              [
                88.161583,
                27.909663,
                0.0
              ],
              [
                88.162121,
                27.909706,
                0.0
              ],
              [
                88.162659,
                27.909749,
                0.0
              ],
              [
                88.163197,
                27.909745,
                0.0
              ],
              [
                88.163734,
                27.90974,
                0.0
              ],
              [
                88.164272,
                27.909735,
                0.0
              ],
              [
                88.16481,
                27.909731,
                0.0
              ],
              [
                88.165402,
                27.909774,
                0.0
              ],
              [
                88.165939,
                27.909769,
                0.0
              ],
              [
                88.166477,
                27.909765,
                0.0
              ],
              [
                88.167015,
                27.90976,
                0.0
              ],
              [
                88.167552,
                27.909755,
                0.0
              ],
              [
                88.16809,
                27.909751,
                0.0
              ],
              [
                88.168627,
                27.909746,
                0.0
              ],
              [
                88.169166,
                27.90979,
                0.0
              ],
              [
                88.169652,
                27.909976,
                0.0
              ],
              [
                88.170191,
                27.910115,
                0.0
              ],
              [
                88.170624,
                27.910398,
                0.0
              ],
              [
                88.17111,
                27.910633,
                0.0
              ],
              [
                88.171651,
                27.910867,
                0.0
              ],
              [
                88.172189,
                27.910958,
                0.0
              ],
              [
                88.172782,
                27.911048,
                0.0
              ],
              [
                88.173267,
                27.911188,
                0.0
              ],
              [
                88.173753,
                27.911375,
                0.0
              ],
              [
                88.174291,
                27.911418,
                0.0
              ],
              [
                88.174724,
                27.911701,
                0.0
              ],
              [
                88.17521,
                27.911888,
                0.0
              ],
              [
                88.175697,
                27.912122,
                0.0
              ],
              [
                88.176183,
                27.912357,
                0.0
              ],
              [
                88.17667,
                27.912592,
                0.0
              ],
              [
                88.177156,
                27.912778,
                0.0
              ],
              [
                88.177643,
                27.913061,
                0.0
              ],
              [
                88.178181,
                27.913104,
                0.0
              ],
              [
                88.17872,
                27.913243,
                0.0
              ],
              [
                88.179206,
                27.913382,
                0.0
              ],
              [
                88.179691,
                27.913521,
                0.0
              ],
              [
                88.18023,
                27.913612,
                0.0
              ],
              [
                88.180768,
                27.913655,
                0.0
              ],
              [
                88.181306,
                27.913698,
                0.0
              ],
              [
                88.181845,
                27.913789,
                0.0
              ],
              [
                88.182384,
                27.913928,
                0.0
              ],
              [
                88.182869,
                27.914067,
                0.0
              ],
              [
                88.183408,
                27.91411,
                0.0
              ],
              [
                88.1836588547633,
                27.91413004973015,
                0.0
              ],
              [
                88.1836588547633,
                27.914069475673188,
                0.0
              ],
              [
                88.18347919170647,
                27.914069475673188,
                0.0
              ],
              [
                88.18347919170647,
                27.913171160389066,
                0.0
              ],
              [
                88.1836588547633,
                27.913171160389066,
                0.0
              ],
              [
                88.1836588547633,
                27.912991497332243,
                0.0
              ],
              [
                88.18383851782012,
                27.912991497332243,
                0.0
              ],
              [
                88.18383851782012,
                27.91281183427542,
                0.0
              ],
              [
                88.18401818087695,
                27.91281183427542,
                0.0
              ],
              [
                88.18401818087695,
                27.912272845104948,
                0.0
              ],
              [
                88.18419784393377,
                27.912272845104948,
                0.0
              ],
              [
                88.18419784393377,
                27.911733855934475,
                0.0
              ],
              [
                88.18401818087695,
                27.911733855934475,
                0.0
              ],
              [
                88.18401818087695,
                27.911554192877652,
                0.0
              ],
              [
                88.18383851782012,
                27.911554192877652,
                0.0
              ],
              [
                88.18383851782012,
                27.91101520370718,
                0.0
              ],
              [
                88.18401818087695,
                27.91101520370718,
                0.0
              ],
              [
                88.18401818087695,
                27.910296551479885,
                0.0
              ],
              [
                88.18419784393377,
                27.910296551479885,
                0.0
              ],
              [
                88.18419784393377,
                27.909757562309412,
                0.0
              ],
              [
                88.1843775069906,
                27.909757562309412,
                0.0
              ],
              [
                88.1843775069906,
                27.90957789925259,
                0.0
              ],
              [
                88.18455717004741,
                27.90957789925259,
                0.0
              ],
              [
                88.18455717004741,
                27.909398236195766,
                0.0
              ],
              [
                88.18473683310424,
                27.909398236195766,
                0.0
              ],
              [
                88.18473683310424,
                27.90921857313894,
                0.0
              ],
              [
                88.18491649616107,
                27.90921857313894,
                0.0
              ],
              [
                88.18491649616107,
                27.909038910082117,
                0.0
              ],
              [
                88.18509615921789,
                27.909038910082117,
                0.0
              ],
              [
                88.18509615921789,
                27.908523964993112,
                0.0
              ],
              [
                88.1850029235351,
                27.908499920911645,
                0.0
              ],
              [
                88.18491649616107,
                27.908499920911645,
                0.0
              ],
              [
                88.18491649616107,
                27.9084776325907,
                0.0
              ],
              [
                88.184852,
                27.908461,
                0.0
              ],
              [
                88.18455908792863,
                27.90832025785482,
                0.0
              ],
              [
                88.18455717004741,
                27.90832025785482,
                0.0
              ],
              [
                88.18455717004741,
                27.90831933632668,
                0.0
              ],
              [
                88.184365,
                27.908227,
                0.0
              ],
              [
                88.183932,
                27.907944,
                0.0
              ],
              [
                88.183446,
                27.907805,
                0.0
              ],
              [
                88.182961,
                27.907666,
                0.0
              ],
              [
                88.182581,
                27.907335,
                0.0
              ],
              [
                88.182148,
                27.907052,
                0.0
              ],
              [
                88.181714,
                27.906721,
                0.0
              ],
              [
                88.181228,
                27.906534,
                0.0
              ],
              [
                88.180743,
                27.906395,
                0.0
              ],
              [
                88.180203,
                27.906209,
                0.0
              ],
              [
                88.180149,
                27.906209,
                0.0
              ],
              [
                88.178692,
                27.905648,
                0.0
              ],
              [
                88.178258,
                27.905366,
                0.0
              ],
              [
                88.177772,
                27.905131,
                0.0
              ],
              [
                88.177339,
                27.904848,
                0.0
              ],
              [
                88.177012,
                27.904469,
                0.0
              ],
              [
                88.176792,
                27.904041,
                0.0
              ],
              [
                88.176573,
                27.903613,
                0.0
              ],
              [
                88.176407,
                27.903184,
                0.0
              ],
              [
                88.176241,
                27.902756,
                0.0
              ],
              [
                88.176075,
                27.902327,
                0.0
              ],
              [
                88.17607,
                27.90185,
                0.0
              ],
              [
                88.175904,
                27.901421,
                0.0
              ],
              [
                88.175737,
                27.900945,
                0.0
              ],
              [
                88.175464,
                27.900517,
                0.0
              ],
              [
                88.17519,
                27.90009,
                0.0
              ],
              [
                88.175167,
                27.900063,
                0.0
              ],
              [
                88.175499,
                27.900011,
                0.0
              ],
              [
                88.176028,
                27.899849,
                0.0
              ],
              [
                88.176647,
                27.899844,
                0.0
              ],
              [
                88.177093,
                27.900155,
                0.0
              ],
              [
                88.177538,
                27.900387,
                0.0
              ],
              [
                88.178067,
                27.900225,
                0.0
              ],
              [
                88.17815,
                27.899753,
                0.0
              ],
              [
                88.178201,
                27.899462,
                0.0
              ],
              [
                88.178322,
                27.89928,
                0.0
              ],
              [
                88.178583,
                27.898885,
                0.0
              ],
              [
                88.178933,
                27.898489,
                0.0
              ],
              [
                88.179282,
                27.898093,
                0.0
              ],
              [
                88.179454,
                27.89762,
                0.0
              ],
              [
                88.179184,
                27.897229,
                0.0
              ],
              [
                88.179002,
                27.896759,
                0.0
              ],
              [
                88.178997,
                27.896288,
                0.0
              ],
              [
                88.178904,
                27.895817,
                0.0
              ],
              [
                88.178634,
                27.895426,
                0.0
              ],
              [
                88.178189,
                27.895194,
                0.0
              ],
              [
                88.177744,
                27.894962,
                0.0
              ],
              [
                88.177123,
                27.894732,
                0.0
              ],
              [
                88.176501,
                27.894501,
                0.0
              ],
              [
                88.176342,
                27.894422,
                0.0
              ],
              [
                88.176296,
                27.893952,
                0.0
              ],
              [
                88.17616,
                27.893489,
                0.0
              ],
              [
                88.17612,
                27.893412,
                0.0
              ],
              [
                88.176406,
                27.893154,
                0.0
              ],
              [
                88.176132,
                27.892726,
                0.0
              ],
              [
                88.175806,
                27.892347,
                0.0
              ],
              [
                88.175586,
                27.891919,
                0.0
              ],
              [
                88.175206,
                27.891588,
                0.0
              ],
              [
                88.174986,
                27.89116,
                0.0
              ],
              [
                88.174874,
                27.890683,
                0.0
              ],
              [
                88.174815,
                27.890206,
                0.0
              ],
              [
                88.174814,
                27.890158,
                0.0
              ],
              [
                88.174694,
                27.889013,
                0.0
              ],
              [
                88.174743,
                27.888535,
                0.0
              ],
              [
                88.174738,
                27.888057,
                0.0
              ],
              [
                88.174677,
                27.887798,
                0.0
              ],
              [
                88.17479,
                27.887652,
                0.0
              ],
              [
                88.175018,
                27.887469,
                0.0
              ],
              [
                88.174561,
                27.887472,
                0.0
              ],
              [
                88.173971,
                27.887477,
                0.0
              ],
              [
                88.173381,
                27.887378,
                0.0
              ],
              [
                88.172673,
                27.887384,
                0.0
              ],
              [
                88.171964,
                27.887285,
                0.0
              ],
              [
                88.171374,
                27.887185,
                0.0
              ],
              [
                88.1709,
                27.88698,
                0.0
              ],
              [
                88.17031,
                27.886985,
                0.0
              ],
              [
                88.169719,
                27.886885,
                0.0
              ],
              [
                88.169129,
                27.886785,
                0.0
              ],
              [
                88.168655,
                27.88658,
                0.0
              ],
              [
                88.168064,
                27.88648,
                0.0
              ],
              [
                88.167473,
                27.88638,
                0.0
              ],
              [
                88.166999,
                27.886174,
                0.0
              ],
              [
                88.166407,
                27.88597,
                0.0
              ],
              [
                88.165698,
                27.885766,
                0.0
              ],
              [
                88.165107,
                27.885666,
                0.0
              ],
              [
                88.164517,
                27.885671,
                0.0
              ],
              [
                88.163926,
                27.885467,
                0.0
              ],
              [
                88.163335,
                27.885367,
                0.0
              ],
              [
                88.162744,
                27.885267,
                0.0
              ],
              [
                88.162153,
                27.885167,
                0.0
              ],
              [
                88.161563,
                27.885068,
                0.0
              ],
              [
                88.160971,
                27.884863,
                0.0
              ],
              [
                88.160143,
                27.88466,
                0.0
              ],
              [
                88.159552,
                27.884561,
                0.0
              ],
              [
                88.159079,
                27.884355,
                0.0
              ],
              [
                88.158488,
                27.884255,
                0.0
              ],
              [
                88.157897,
                27.884155,
                0.0
              ],
              [
                88.157422,
                27.883845,
                0.0
              ],
              [
                88.156948,
                27.883639,
                0.0
              ],
              [
                88.156357,
                27.88354,
                0.0
              ],
              [
                88.155765,
                27.88323,
                0.0
              ],
              [
                88.155173,
                27.883026,
                0.0
              ],
              [
                88.154698,
                27.882715,
                0.0
              ],
              [
                88.154222,
                27.8823,
                0.0
              ],
              [
                88.153747,
                27.88199,
                0.0
              ],
              [
                88.153388,
                27.881574,
                0.0
              ],
              [
                88.152913,
                27.881263,
                0.0
              ],
              [
                88.152438,
                27.880953,
                0.0
              ],
              [
                88.151963,
                27.880642,
                0.0
              ],
              [
                88.151369,
                27.880228,
                0.0
              ],
              [
                88.150893,
                27.879813,
                0.0
              ],
              [
                88.150417,
                27.879398,
                0.0
              ],
              [
                88.149942,
                27.879087,
                0.0
              ],
              [
                88.149584,
                27.878671,
                0.0
              ],
              [
                88.149226,
                27.878255,
                0.0
              ],
              [
                88.148986,
                27.877838,
                0.0
              ],
              [
                88.148627,
                27.877422,
                0.0
              ],
              [
                88.148695,
                27.877107,
                0.0
              ],
              [
                88.148624,
                27.877108,
                0.0
              ],
              [
                88.148035,
                27.877112,
                0.0
              ],
              [
                88.147446,
                27.877222,
                0.0
              ],
              [
                88.146858,
                27.877332,
                0.0
              ],
              [
                88.146269,
                27.877441,
                0.0
              ],
              [
                88.1458,
                27.877655,
                0.0
              ],
              [
                88.145331,
                27.877973,
                0.0
              ],
              [
                88.144745,
                27.878292,
                0.0
              ],
              [
                88.144158,
                27.878507,
                0.0
              ],
              [
                88.14357,
                27.878721,
                0.0
              ],
              [
                88.142981,
                27.878726,
                0.0
              ],
              [
                88.142391,
                27.878731,
                0.0
              ],
              [
                88.141802,
                27.878736,
                0.0
              ],
              [
                88.141211,
                27.878636,
                0.0
              ],
              [
                88.14062,
                27.878536,
                0.0
              ],
              [
                88.14003,
                27.878436,
                0.0
              ],
              [
                88.139439,
                27.878336,
                0.0
              ],
              [
                88.138852,
                27.878551,
                0.0
              ],
              [
                88.138383,
                27.878869,
                0.0
              ],
              [
                88.137916,
                27.879292,
                0.0
              ],
              [
                88.137567,
                27.879714,
                0.0
              ],
              [
                88.137217,
                27.880136,
                0.0
              ],
              [
                88.13675,
                27.880559,
                0.0
              ],
              [
                88.136282,
                27.880877,
                0.0
              ],
              [
                88.135814,
                27.8813,
                0.0
              ],
              [
                88.135346,
                27.881619,
                0.0
              ],
              [
                88.134876,
                27.881832,
                0.0
              ],
              [
                88.134624,
                27.881947,
                0.0
              ],
              [
                88.134776,
                27.882275,
                0.0
              ]
            ],
            [
              [
                88.154195,
                27.891991,
                0.0
              ],
              [
                88.153927,
                27.891664,
                0.0
              ],
              [
                88.153882,
                27.891625,
                0.0
              ],
              [
                88.154013,
                27.891427,
                0.0
              ],
              [
                88.154453,
                27.891188,
                0.0
              ],
              [
                88.154714,
                27.890793,
                0.0
              ],
              [
                88.154709,
                27.890321,
                0.0
              ],
              [
                88.154176,
                27.890168,
                0.0
              ],
              [
                88.153646,
                27.890173,
                0.0
              ],
              [
                88.153116,
                27.890256,
                0.0
              ],
              [
                88.152379,
                27.890262,
                0.0
              ],
              [
                88.152231,
                27.890185,
                0.0
              ],
              [
                88.151697,
                27.889953,
                0.0
              ],
              [
                88.151164,
                27.889722,
                0.0
              ],
              [
                88.15072,
                27.88949,
                0.0
              ],
              [
                88.150186,
                27.889259,
                0.0
              ],
              [
                88.150091,
                27.888631,
                0.0
              ],
              [
                88.150085,
                27.888002,
                0.0
              ],
              [
                88.150084,
                27.887949,
                0.0
              ],
              [
                88.150428,
                27.888129,
                0.0
              ],
              [
                88.150952,
                27.888202,
                0.0
              ],
              [
                88.151476,
                27.888314,
                0.0
              ],
              [
                88.152001,
                27.888464,
                0.0
              ],
              [
                88.152568,
                27.888537,
                0.0
              ],
              [
                88.153091,
                27.888532,
                0.0
              ],
              [
                88.153614,
                27.888528,
                0.0
              ],
              [
                88.154312,
                27.888522,
                0.0
              ],
              [
                88.154835,
                27.888518,
                0.0
              ],
              [
                88.155046,
                27.888746,
                0.0
              ],
              [
                88.155404,
                27.889136,
                0.0
              ],
              [
                88.155762,
                27.889526,
                0.0
              ],
              [
                88.156031,
                27.889917,
                0.0
              ],
              [
                88.156036,
                27.890388,
                0.0
              ],
              [
                88.155864,
                27.890861,
                0.0
              ],
              [
                88.155603,
                27.891257,
                0.0
              ],
              [
                88.155604,
                27.891285,
                0.0
              ],
              [
                88.155432,
                27.891379,
                0.0
              ],
              [
                88.154782,
                27.891772,
                0.0
              ],
              [
                88.154305,
                27.891969,
                0.0
              ],
              [
                88.154195,
                27.891991,
                0.0
              ]
            ],
            [
              [
                88.138169,
                27.889399,
                0.0
              ],
              [
                88.138165,
                27.889059,
                0.0
              ],
              [
                88.138003,
                27.888437,
                0.0
              ],
              [
                88.137827,
                27.888132,
                0.0
              ],
              [
                88.1389,
                27.888335,
                0.0
              ],
              [
                88.138905,
                27.888806,
                0.0
              ],
              [
                88.138821,
                27.889278,
                0.0
              ],
              [
                88.138291,
                27.889361,
                0.0
              ],
              [
                88.138169,
                27.889399,
                0.0
              ]
            ],
            [
              [
                88.167567,
                27.894499,
                0.0
              ],
              [
                88.167395,
                27.894972,
                0.0
              ],
              [
                88.167046,
                27.895368,
                0.0
              ],
              [
                88.166696,
                27.895764,
                0.0
              ],
              [
                88.166613,
                27.896236,
                0.0
              ],
              [
                88.166795,
                27.896706,
                0.0
              ],
              [
                88.167327,
                27.896858,
                0.0
              ],
              [
                88.167855,
                27.896618,
                0.0
              ],
              [
                88.168116,
                27.896223,
                0.0
              ],
              [
                88.168288,
                27.89575,
                0.0
              ],
              [
                88.168371,
                27.895278,
                0.0
              ],
              [
                88.168633,
                27.894883,
                0.0
              ],
              [
                88.16871,
                27.894443,
                0.0
              ],
              [
                88.169109,
                27.894439,
                0.0
              ],
              [
                88.169632,
                27.894435,
                0.0
              ],
              [
                88.169877,
                27.894505,
                0.0
              ],
              [
                88.169958,
                27.894714,
                0.0
              ],
              [
                88.170051,
                27.895185,
                0.0
              ],
              [
                88.170145,
                27.895656,
                0.0
              ],
              [
                88.170238,
                27.896126,
                0.0
              ],
              [
                88.170332,
                27.896597,
                0.0
              ],
              [
                88.170602,
                27.897066,
                0.0
              ],
              [
                88.17096,
                27.897456,
                0.0
              ],
              [
                88.171491,
                27.897452,
                0.0
              ],
              [
                88.17211,
                27.897447,
                0.0
              ],
              [
                88.172281,
                27.896895,
                0.0
              ],
              [
                88.172453,
                27.896422,
                0.0
              ],
              [
                88.172982,
                27.89626,
                0.0
              ],
              [
                88.17334,
                27.89665,
                0.0
              ],
              [
                88.173256,
                27.897122,
                0.0
              ],
              [
                88.173249,
                27.897165,
                0.0
              ],
              [
                88.173084,
                27.897517,
                0.0
              ],
              [
                88.172912,
                27.89799,
                0.0
              ],
              [
                88.172834,
                27.89843,
                0.0
              ],
              [
                88.172699,
                27.898392,
                0.0
              ],
              [
                88.172214,
                27.898252,
                0.0
              ],
              [
                88.171676,
                27.898257,
                0.0
              ],
              [
                88.171139,
                27.898309,
                0.0
              ],
              [
                88.170602,
                27.898409,
                0.0
              ],
              [
                88.17012,
                27.898557,
                0.0
              ],
              [
                88.170094,
                27.898562,
                0.0
              ],
              [
                88.169634,
                27.898322,
                0.0
              ],
              [
                88.169147,
                27.898087,
                0.0
              ],
              [
                88.16861,
                27.898092,
                0.0
              ],
              [
                88.168204,
                27.898095,
                0.0
              ],
              [
                88.168153,
                27.898022,
                0.0
              ],
              [
                88.167884,
                27.897631,
                0.0
              ],
              [
                88.16735,
                27.8974,
                0.0
              ],
              [
                88.167089,
                27.897795,
                0.0
              ],
              [
                88.166918,
                27.898268,
                0.0
              ],
              [
                88.166388,
                27.898351,
                0.0
              ],
              [
                88.165857,
                27.898356,
                0.0
              ],
              [
                88.165418,
                27.898674,
                0.0
              ],
              [
                88.164979,
                27.898992,
                0.0
              ],
              [
                88.16445,
                27.899154,
                0.0
              ],
              [
                88.163946,
                27.899158,
                0.0
              ],
              [
                88.163919,
                27.899158,
                0.0
              ],
              [
                88.16339,
                27.899241,
                0.0
              ],
              [
                88.162859,
                27.899246,
                0.0
              ],
              [
                88.162328,
                27.89925,
                0.0
              ],
              [
                88.161883,
                27.899018,
                0.0
              ],
              [
                88.162323,
                27.898779,
                0.0
              ],
              [
                88.162854,
                27.898774,
                0.0
              ],
              [
                88.163473,
                27.898769,
                0.0
              ],
              [
                88.163774,
                27.898766,
                0.0
              ],
              [
                88.164004,
                27.898764,
                0.0
              ],
              [
                88.164353,
                27.898368,
                0.0
              ],
              [
                88.16426,
                27.897898,
                0.0
              ],
              [
                88.16399,
                27.897507,
                0.0
              ],
              [
                88.163896,
                27.896958,
                0.0
              ],
              [
                88.16389,
                27.896408,
                0.0
              ],
              [
                88.163889,
                27.896351,
                0.0
              ],
              [
                88.164313,
                27.896117,
                0.0
              ],
              [
                88.16433,
                27.896168,
                0.0
              ],
              [
                88.164335,
                27.89664,
                0.0
              ],
              [
                88.164604,
                27.89703,
                0.0
              ],
              [
                88.165137,
                27.897183,
                0.0
              ],
              [
                88.165486,
                27.896787,
                0.0
              ],
              [
                88.165658,
                27.896314,
                0.0
              ],
              [
                88.165919,
                27.895919,
                0.0
              ],
              [
                88.166003,
                27.895447,
                0.0
              ],
              [
                88.166086,
                27.894974,
                0.0
              ],
              [
                88.166347,
                27.894579,
                0.0
              ],
              [
                88.166785,
                27.894183,
                0.0
              ],
              [
                88.166781,
                27.893782,
                0.0
              ],
              [
                88.16688,
                27.893877,
                0.0
              ],
              [
                88.167448,
                27.894066,
                0.0
              ],
              [
                88.16769,
                27.894161,
                0.0
              ],
              [
                88.167567,
                27.894499,
                0.0
              ]
            ],
            [
              [
                88.174104,
                27.899048,
                0.0
              ],
              [
                88.173671,
                27.898765,
                0.0
              ],
              [
                88.173326,
                27.898599,
                0.0
              ],
              [
                88.173447,
                27.898378,
                0.0
              ],
              [
                88.173708,
                27.897983,
                0.0
              ],
              [
                88.174148,
                27.897744,
                0.0
              ],
              [
                88.174591,
                27.897683,
                0.0
              ],
              [
                88.174812,
                27.897838,
                0.0
              ],
              [
                88.175251,
                27.898067,
                0.0
              ],
              [
                88.175479,
                27.898115,
                0.0
              ],
              [
                88.175484,
                27.89857,
                0.0
              ],
              [
                88.175309,
                27.898834,
                0.0
              ],
              [
                88.175048,
                27.899229,
                0.0
              ],
              [
                88.174787,
                27.899624,
                0.0
              ],
              [
                88.174806,
                27.899673,
                0.0
              ],
              [
                88.174431,
                27.899428,
                0.0
              ],
              [
                88.174104,
                27.899048,
                0.0
              ]
            ],
            [
              [
                88.139342,
                27.905515,
                0.0
              ],
              [
                88.139308,
                27.905239,
                0.0
              ],
              [
                88.139245,
                27.904773,
                0.0
              ],
              [
                88.139137,
                27.904495,
                0.0
              ],
              [
                88.139188,
                27.904403,
                0.0
              ],
              [
                88.13936,
                27.90393,
                0.0
              ],
              [
                88.139443,
                27.903458,
                0.0
              ],
              [
                88.139262,
                27.902988,
                0.0
              ],
              [
                88.139257,
                27.902516,
                0.0
              ],
              [
                88.138986,
                27.902047,
                0.0
              ],
              [
                88.138717,
                27.901656,
                0.0
              ],
              [
                88.13827,
                27.901267,
                0.0
              ],
              [
                88.137739,
                27.901193,
                0.0
              ],
              [
                88.13734,
                27.901329,
                0.0
              ],
              [
                88.136988,
                27.901263,
                0.0
              ],
              [
                88.136751,
                27.90085,
                0.0
              ],
              [
                88.137332,
                27.900637,
                0.0
              ],
              [
                88.137797,
                27.900426,
                0.0
              ],
              [
                88.138322,
                27.900318,
                0.0
              ],
              [
                88.138456,
                27.900338,
                0.0
              ],
              [
                88.138861,
                27.900513,
                0.0
              ],
              [
                88.139266,
                27.900749,
                0.0
              ],
              [
                88.139671,
                27.900925,
                0.0
              ],
              [
                88.140076,
                27.901041,
                0.0
              ],
              [
                88.140415,
                27.901336,
                0.0
              ],
              [
                88.140687,
                27.901633,
                0.0
              ],
              [
                88.141026,
                27.901928,
                0.0
              ],
              [
                88.141231,
                27.902285,
                0.0
              ],
              [
                88.14137,
                27.902642,
                0.0
              ],
              [
                88.141441,
                27.903,
                0.0
              ],
              [
                88.141445,
                27.903418,
                0.0
              ],
              [
                88.141449,
                27.903835,
                0.0
              ],
              [
                88.141454,
                27.904253,
                0.0
              ],
              [
                88.141203,
                27.904388,
                0.0
              ],
              [
                88.140666,
                27.904488,
                0.0
              ],
              [
                88.14024,
                27.904826,
                0.0
              ],
              [
                88.139921,
                27.90521,
                0.0
              ],
              [
                88.139494,
                27.9055,
                0.0
              ],
              [
                88.139342,
                27.905515,
                0.0
              ]
            ],
            [
              [
                88.134202,
                27.901379,
                0.0
              ],
              [
                88.134733,
                27.901375,
                0.0
              ],
              [
                88.135264,
                27.90137,
                0.0
              ],
              [
                88.135533,
                27.901761,
                0.0
              ],
              [
                88.135361,
                27.902234,
                0.0
              ],
              [
                88.135275,
                27.90247,
                0.0
              ],
              [
                88.135098,
                27.902472,
                0.0
              ],
              [
                88.134659,
                27.902711,
                0.0
              ],
              [
                88.133953,
                27.902874,
                0.0
              ],
              [
                88.133424,
                27.903114,
                0.0
              ],
              [
                88.132898,
                27.903512,
                0.0
              ],
              [
                88.132636,
                27.903907,
                0.0
              ],
              [
                88.132287,
                27.904302,
                0.0
              ],
              [
                88.132025,
                27.904698,
                0.0
              ],
              [
                88.131764,
                27.905093,
                0.0
              ],
              [
                88.131324,
                27.905332,
                0.0
              ],
              [
                88.131231,
                27.904861,
                0.0
              ],
              [
                88.131226,
                27.90439,
                0.0
              ],
              [
                88.131398,
                27.903917,
                0.0
              ],
              [
                88.13157,
                27.903444,
                0.0
              ],
              [
                88.131831,
                27.903049,
                0.0
              ],
              [
                88.131826,
                27.902577,
                0.0
              ],
              [
                88.131998,
                27.902026,
                0.0
              ],
              [
                88.13217,
                27.901553,
                0.0
              ],
              [
                88.132609,
                27.901313,
                0.0
              ],
              [
                88.13314,
                27.901309,
                0.0
              ],
              [
                88.133671,
                27.901305,
                0.0
              ],
              [
                88.134202,
                27.901379,
                0.0
              ]
            ]
          ],
          [
            [
              [
                88.185889,
                27.914853,
                0.0
              ],
              [
                88.186427,
                27.914896,
                0.0
              ],
              [
                88.186965,
                27.914939,
                0.0
              ],
              [
                88.187176,
                27.914843,
                0.0
              ],
              [
                88.187593,
                27.914843,
                0.0
              ],
              [
                88.188957,
                27.915113,
                0.0
              ],
              [
                88.18940807258166,
                27.915145763717923,
                0.0
              ],
              [
                88.18940807258166,
                27.914967790957306,
                0.0
              ],
              [
                88.18850975729754,
                27.914967790957306,
                0.0
              ],
              [
                88.18850975729754,
                27.914788127900483,
                0.0
              ],
              [
                88.18566264771032,
                27.914788127900483,
                0.0
              ],
              [
                88.185889,
                27.914853,
                0.0
              ]
            ]
          ],
          [
            [
              [
                88.189549,
                27.915156,
                0.0
              ],
              [
                88.190086,
                27.915151,
                0.0
              ],
              [
                88.190625,
                27.915194,
                0.0
              ],
              [
                88.191163,
                27.915285,
                0.0
              ],
              [
                88.191702,
                27.915328,
                0.0
              ],
              [
                88.192239,
                27.915324,
                0.0
              ],
              [
                88.192777,
                27.915319,
                0.0
              ],
              [
                88.19296630962347,
                27.91514745401413,
                0.0
              ],
              [
                88.19174369232037,
                27.91514745401413,
                0.0
              ],
              [
                88.19174369232037,
                27.914967790957306,
                0.0
              ],
              [
                88.18958773563848,
                27.914967790957306,
                0.0
              ],
              [
                88.18958773563848,
                27.91514745401413,
                0.0
              ],
              [
                88.18943134363637,
                27.91514745401413,
                0.0
              ],
              [
                88.189549,
                27.915156,
                0.0
              ]
            ]
          ],
          [
            [
              [
                88.18797076812707,
                27.90920689591756,
                0.0
              ],
              [
                88.18797076812707,
                27.90921857313894,
                0.0
              ],
              [
                88.18803993320756,
                27.90921857313894,
                0.0
              ],
              [
                88.18797076812707,
                27.90920689591756,
                0.0
              ]
            ]
          ],
          [
            [
              [
                88.18797076812707,
                27.910655877593534,
                0.0
              ],
              [
                88.18833009424073,
                27.910655877593534,
                0.0
              ],
              [
                88.18833009424073,
                27.910476214536708,
                0.0
              ],
              [
                88.18850975729754,
                27.910476214536708,
                0.0
              ],
              [
                88.18850975729754,
                27.91011688842306,
                0.0
              ],
              [
                88.18833009424073,
                27.91011688842306,
                0.0
              ],
              [
                88.18833009424073,
                27.909937225366235,
                0.0
              ],
              [
                88.18707245284295,
                27.909937225366235,
                0.0
              ],
              [
                88.18707245284295,
                27.909757562309412,
                0.0
              ],
              [
                88.18545548533153,
                27.909757562309412,
                0.0
              ],
              [
                88.18545548533153,
                27.910296551479885,
                0.0
              ],
              [
                88.18617413755884,
                27.910296551479885,
                0.0
              ],
              [
                88.18617413755884,
                27.910476214536708,
                0.0
              ],
              [
                88.18653346367248,
                27.910476214536708,
                0.0
              ],
              [
                88.18653346367248,
                27.910655877593534,
                0.0
              ],
              [
                88.18707245284295,
                27.910655877593534,
                0.0
              ],
              [
                88.18707245284295,
                27.910835540650357,
                0.0
              ],
              [
                88.18797076812707,
                27.910835540650357,
                0.0
              ],
              [
                88.18797076812707,
                27.910655877593534,
                0.0
              ]
            ]
          ],
          [
            [
              [
                88.18850975729754,
                27.909398236195766,
                0.0
              ],
              [
                88.18833009424073,
                27.909398236195766,
                0.0
              ],
              [
                88.18833009424073,
                27.90957789925259,
                0.0
              ],
              [
                88.18850975729754,
                27.90957789925259,
                0.0
              ],
              [
                88.18850975729754,
                27.909398236195766,
                0.0
              ]
            ]
          ],
          [
            [
              [
                88.18635380061566,
                27.914069475673188,
                0.0
              ],
              [
                88.18653346367248,
                27.914069475673188,
                0.0
              ],
              [
                88.18653346367248,
                27.91388981261636,
                0.0
              ],
              [
                88.1867131267293,
                27.91388981261636,
                0.0
              ],
              [
                88.1867131267293,
                27.913710149559538,
                0.0
              ],
              [
                88.18689278978613,
                27.913710149559538,
                0.0
              ],
              [
                88.18689278978613,
                27.913350823445892,
                0.0
              ],
              [
                88.18761144201342,
                27.913350823445892,
                0.0
              ],
              [
                88.18761144201342,
                27.913171160389066,
                0.0
              ],
              [
                88.1881504311839,
                27.913171160389066,
                0.0
              ],
              [
                88.1881504311839,
                27.912991497332243,
                0.0
              ],
              [
                88.18833009424073,
                27.912991497332243,
                0.0
              ],
              [
                88.18833009424073,
                27.91245250816177,
                0.0
              ],
              [
                88.18761144201342,
                27.91245250816177,
                0.0
              ],
              [
                88.18761144201342,
                27.912632171218597,
                0.0
              ],
              [
                88.18653346367248,
                27.912632171218597,
                0.0
              ],
              [
                88.18653346367248,
                27.91281183427542,
                0.0
              ],
              [
                88.18635380061566,
                27.91281183427542,
                0.0
              ],
              [
                88.18635380061566,
                27.913350823445892,
                0.0
              ],
              [
                88.18617413755884,
                27.913350823445892,
                0.0
              ],
              [
                88.18617413755884,
                27.913530486502715,
                0.0
              ],
              [
                88.18599447450201,
                27.913530486502715,
                0.0
              ],
              [
                88.18599447450201,
                27.913710149559538,
                0.0
              ],
              [
                88.18563514838836,
                27.913710149559538,
                0.0
              ],
              [
                88.18563514838836,
                27.914069475673188,
                0.0
              ],
              [
                88.18599447450201,
                27.914069475673188,
                0.0
              ],
              [
                88.18599447450201,
                27.91424913873001,
                0.0
              ],
              [
                88.18635380061566,
                27.91424913873001,
                0.0
              ],
              [
                88.18635380061566,
                27.914069475673188,
                0.0
              ]
            ]
          ],
          [
            [
              [
                88.18635380061566,
                27.911194866764003,
                0.0
              ],
              [
                88.18617413755884,
                27.911194866764003,
                0.0
              ],
              [
                88.18617413755884,
                27.91137452982083,
                0.0
              ],
              [
                88.18635380061566,
                27.91137452982083,
                0.0
              ],
              [
                88.18635380061566,
                27.911194866764003,
                0.0
              ]
            ]
          ],
          [
            [
              [
                88.18635380061566,
                27.914428801786833,
                0.0
              ],
              [
                88.18617413755884,
                27.914428801786833,
                0.0
              ],
              [
                88.18617413755884,
                27.91460846484366,
                0.0
              ],
              [
                88.18635380061566,
                27.91460846484366,
                0.0
              ],
              [
                88.18635380061566,
                27.914428801786833,
                0.0
              ]
            ]
          ]
        ]
      }
    }
  ]
}
