{
  "type": "FeatureCollection",
  "features": [
    {
      "type": "Feature",
      "properties": {
        "site_id": "south-lhonak",
        "from_date": "2017-11-19",
        "to_date": "2019-10-15",
        "status": "provisional_owner_approved_not_independently_reviewed",
        "crs_for_measurement": "EPSG:32645",
        "change_class": "glacier_loss",
        "area_km2": 0.232902
      },
      "geometry": {
        "type": "MultiPolygon",
        "coordinates": [
          [
            [
              [
                88.183946,
                27.914153,
                0.0
              ],
              [
                88.184431,
                27.914291999999996,
                0.0
              ],
              [
                88.184917,
                27.914479,
                0.0
              ],
              [
                88.185404,
                27.914714,
                0.0
              ],
              [
                88.18566264771036,
                27.914788127900486,
                0.0
              ],
              [
                88.18850975729754,
                27.91478812790048,
                0.0
              ],
              [
                88.18850975729754,
                27.914967790957306,
                0.0
              ],
              [
                88.18940807258166,
                27.914967790957306,
                0.0
              ],
              [
                88.18940807258166,
                27.915145763717923,
                0.0
              ],
              [
                88.189549,
                27.915155999999996,
                0.0
              ],
              [
                88.18943134363637,
                27.915147454014125,
                0.0
              ],
              [
                88.18958773563848,
                27.915147454014132,
                0.0
              ],
              [
                88.18958773563848,
                27.914967790957306,
                0.0
              ],
              [
                88.19174369232037,
                27.914967790957306,
                0.0
              ],
              [
                88.19174369232037,
                27.915147454014125,
                0.0
              ],
              [
                88.19210301843403,
                27.915147454014125,
                0.0
              ],
              [
                88.19210301843403,
                27.91478812790048,
                0.0
              ],
              [
                88.19174369232037,
                27.914788127900483,
                0.0
              ],
              [
                88.19174369232037,
                27.91442880178683,
                0.0
              ],
              [
                88.19156402926355,
                27.914428801786837,
                0.0
              ],
              [
                88.19156402926355,
                27.914249138730007,
                0.0
              ],
              [
                88.19138436620672,
                27.91424913873001,
                0.0
              ],
              [
                88.19138436620672,
                27.914069475673188,
                0.0
              ],
              [
                88.19120470314991,
                27.914069475673184,
                0.0
              ],
              [
                88.19120470314991,
                27.91388981261636,
                0.0
              ],
              [
                88.19102504009308,
                27.913889812616368,
                0.0
              ],
              [
                88.19102504009308,
                27.91371014955954,
                0.0
              ],
              [
                88.19066571397943,
                27.913710149559535,
                0.0
              ],
              [
                88.19066571397943,
                27.913530486502715,
                0.0
              ],
              [
                88.19030638786579,
                27.91353048650272,
                0.0
              ],
              [
                88.19030638786579,
                27.912991497332246,
                0.0
              ],
              [
                88.19066571397943,
                27.91299149733224,
                0.0
              ],
              [
                88.19066571397943,
                27.912093182048125,
                0.0
              ],
              [
                88.18958773563848,
                27.912093182048125,
                0.0
              ],
              [
                88.18958773563848,
                27.91227284510494,
                0.0
              ],
              [
                88.18886908341119,
                27.912272845104944,
                0.0
              ],
              [
                88.18886908341119,
                27.912452508161763,
                0.0
              ],
              [
                88.18833009424073,
                27.912452508161767,
                0.0
              ],
              [
                88.18833009424073,
                27.91299149733224,
                0.0
              ],
              [
                88.1881504311839,
                27.912991497332243,
                0.0
              ],
              [
                88.1881504311839,
                27.913171160389066,
                0.0
              ],
              [
                88.18761144201342,
                27.913171160389066,
                0.0
              ],
              [
                88.18761144201342,
                27.91335082344589,
                0.0
              ],
              [
                88.18689278978613,
                27.91335082344589,
                0.0
              ],
              [
                88.18689278978613,
                27.913710149559535,
                0.0
              ],
              [
                88.1867131267293,
                27.913710149559535,
                0.0
              ],
              [
                88.1867131267293,
                27.91388981261636,
                0.0
              ],
              [
                88.18653346367248,
                27.913889812616365,
                0.0
              ],
              [
                88.18653346367248,
                27.914069475673184,
                0.0
              ],
              [
                88.18635380061566,
                27.91406947567318,
                0.0
              ],
              [
                88.18635380061566,
                27.914249138730007,
                0.0
              ],
              [
                88.18599447450201,
                27.914249138730003,
                0.0
              ],
              [
                88.18599447450201,
                27.914069475673184,
                0.0
              ],
              [
                88.18563514838836,
                27.914069475673184,
                0.0
              ],
              [
                88.18563514838836,
                27.913710149559535,
                0.0
              ],
              [
                88.18599447450201,
                27.913710149559538,
                0.0
              ],
              [
                88.18599447450201,
                27.91353048650271,
                0.0
              ],
              [
                88.18617413755884,
                27.913530486502722,
                0.0
              ],
              [
                88.18617413755884,
                27.913350823445892,
                0.0
              ],
              [
                88.18635380061566,
                27.913350823445885,
                0.0
              ],
              [
                88.18635380061566,
                27.91281183427542,
                0.0
              ],
              [
                88.18653346367248,
                27.912811834275423,
                0.0
              ],
              [
                88.18653346367248,
                27.912632171218597,
                0.0
              ],
              [
                88.18707245283134,
                27.912632172273188,
                0.0
              ],
              [
                88.18707245284295,
                27.91227284510495,
                0.0
              ],
              [
                88.18689278978613,
                27.91227284510494,
                0.0
              ],
              [
                88.18689278978613,
                27.912093182048125,
                0.0
              ],
              [
                88.18653346367248,
                27.91209318204812,
                0.0
              ],
              [
                88.18653346367248,
                27.91227284510494,
                0.0
              ],
              [
                88.18617413755884,
                27.912272845104948,
                0.0
              ],
              [
                88.18617413755884,
                27.912632171218593,
                0.0
              ],
              [
                88.18545548533153,
                27.912632171218593,
                0.0
              ],
              [
                88.18545548533153,
                27.912452508161767,
                0.0
              ],
              [
                88.18527582227472,
                27.912452508161767,
                0.0
              ],
              [
                88.18527582227472,
                27.912632171218597,
                0.0
              ],
              [
                88.18509615921789,
                27.912632171218597,
                0.0
              ],
              [
                88.18509615921789,
                27.912452508161767,
                0.0
              ],
              [
                88.18491649616107,
                27.912452508161767,
                0.0
              ],
              [
                88.18491649616107,
                27.91155419287765,
                0.0
              ],
              [
                88.18509615921789,
                27.911554192877652,
                0.0
              ],
              [
                88.18509615921789,
                27.910296551479885,
                0.0
              ],
              [
                88.18527582227472,
                27.910296551479885,
                0.0
              ],
              [
                88.18527582227472,
                27.909757562309412,
                0.0
              ],
              [
                88.18509615921789,
                27.90975756230941,
                0.0
              ],
              [
                88.18509615921789,
                27.90939823619576,
                0.0
              ],
              [
                88.18527582227472,
                27.909398236195756,
                0.0
              ],
              [
                88.18527582227472,
                27.908859247025294,
                0.0
              ],
              [
                88.18509615921789,
                27.90885924702529,
                0.0
              ],
              [
                88.18509615921789,
                27.909038910082113,
                0.0
              ],
              [
                88.18491649616107,
                27.909038910082117,
                0.0
              ],
              [
                88.18491649616107,
                27.909218573138943,
                0.0
              ],
              [
                88.18473683310424,
                27.909218573138936,
                0.0
              ],
              [
                88.18473683310424,
                27.90939823619576,
                0.0
              ],
              [
                88.18455717004741,
                27.90939823619576,
                0.0
              ],
              [
                88.18455717004741,
                27.90957789925259,
                0.0
              ],
              [
                88.1843775069906,
                27.909577899252586,
                0.0
              ],
              [
                88.1843775069906,
                27.909757562309405,
                0.0
              ],
              [
                88.18419784393377,
                27.90975756230941,
                0.0
              ],
              [
                88.18419784393377,
                27.91029655147988,
                0.0
              ],
              [
                88.18401818087695,
                27.910296551479885,
                0.0
              ],
              [
                88.18401818087695,
                27.911015203707183,
                0.0
              ],
              [
                88.18383851782012,
                27.91101520370718,
                0.0
              ],
              [
                88.18383851782012,
                27.911554192877652,
                0.0
              ],
              [
                88.18401818087695,
                27.91155419287765,
                0.0
              ],
              [
                88.18401818087695,
                27.91173385593447,
                0.0
              ],
              [
                88.18419784393377,
                27.91173385593447,
                0.0
              ],
              [
                88.18419784393377,
                27.912272845104944,
                0.0
              ],
              [
                88.18401818087695,
                27.912272845104944,
                0.0
              ],
              [
                88.18401818087695,
                27.912811834275416,
                0.0
              ],
              [
                88.18383851782012,
                27.912811834275423,
                0.0
              ],
              [
                88.18383851782012,
                27.91299149733224,
                0.0
              ],
              [
                88.1836588547633,
                27.912991497332236,
                0.0
              ],
              [
                88.1836588547633,
                27.913171160389062,
                0.0
              ],
              [
                88.18347919170647,
                27.913171160389066,
                0.0
              ],
              [
                88.18347919170647,
                27.91406947567318,
                0.0
              ],
              [
                88.1836588547633,
                27.914069475673184,
                0.0
              ],
              [
                88.1836588547633,
                27.91413004973015,
                0.0
              ],
              [
                88.183408,
                27.91411,
                0.0
              ],
              [
                88.183946,
                27.914153,
                0.0
              ]
            ],
            [
              [
                88.18635380061566,
                27.914608464843653,
                0.0
              ],
              [
                88.18617413755884,
                27.914608464843656,
                0.0
              ],
              [
                88.18617413755884,
                27.914428801786833,
                0.0
              ],
              [
                88.18635380061566,
                27.91442880178683,
                0.0
              ],
              [
                88.18635380061566,
                27.914608464843653,
                0.0
              ]
            ]
          ],
          [
            [
              [
                88.18509615921789,
                27.908679583968468,
                0.0
              ],
              [
                88.18527582227472,
                27.908679583968468,
                0.0
              ],
              [
                88.18527582227472,
                27.908570297395517,
                0.0
              ],
              [
                88.18509615921789,
                27.908523965181118,
                0.0
              ],
              [
                88.18509615921789,
                27.908679583968468,
                0.0
              ]
            ]
          ],
          [
            [
              [
                88.18833009424073,
                27.912452508161767,
                0.0
              ],
              [
                88.18833009424073,
                27.9119135189913,
                0.0
              ],
              [
                88.18886908341119,
                27.9119135189913,
                0.0
              ],
              [
                88.18886908341119,
                27.911554192877652,
                0.0
              ],
              [
                88.18850975729754,
                27.91155419287766,
                0.0
              ],
              [
                88.18850975729754,
                27.911374529820826,
                0.0
              ],
              [
                88.18797076812707,
                27.911374529820826,
                0.0
              ],
              [
                88.18797076812707,
                27.910835540650353,
                0.0
              ],
              [
                88.18779110507025,
                27.910835541119038,
                0.0
              ],
              [
                88.18779110507025,
                27.91101520370718,
                0.0
              ],
              [
                88.1874317789566,
                27.911015203707187,
                0.0
              ],
              [
                88.18743177895078,
                27.91083554135339,
                0.0
              ],
              [
                88.18710838279415,
                27.910835540762832,
                0.0
              ],
              [
                88.18689278978613,
                27.910835540650353,
                0.0
              ],
              [
                88.18689278978613,
                27.911374529820822,
                0.0
              ],
              [
                88.1867131267293,
                27.911374529820826,
                0.0
              ],
              [
                88.1867131267293,
                27.91173385593447,
                0.0
              ],
              [
                88.18689278978613,
                27.911733855934475,
                0.0
              ],
              [
                88.18689278978613,
                27.911913518991298,
                0.0
              ],
              [
                88.18707245284295,
                27.911913518991298,
                0.0
              ],
              [
                88.18707245284295,
                27.91209318204812,
                0.0
              ],
              [
                88.18725211589978,
                27.912093182048128,
                0.0
              ],
              [
                88.18725211589978,
                27.912272845104944,
                0.0
              ],
              [
                88.18761144201342,
                27.912272845104948,
                0.0
              ],
              [
                88.18761144201342,
                27.912452508161763,
                0.0
              ],
              [
                88.18833009424073,
                27.912452508161767,
                0.0
              ]
            ]
          ],
          [
            [
              [
                88.18761144201342,
                27.912452508161763,
                0.0
              ],
              [
                88.18725211589978,
                27.91245250816177,
                0.0
              ],
              [
                88.18725211589398,
                27.91263217215601,
                0.0
              ],
              [
                88.18761144201342,
                27.9126321712186,
                0.0
              ],
              [
                88.18761144201342,
                27.912452508161763,
                0.0
              ]
            ]
          ],
          [
            [
              [
                88.190668,
                27.909367000000003,
                0.0
              ],
              [
                88.19066571397943,
                27.909367017028085,
                0.0
              ],
              [
                88.19066571397943,
                27.909398236195766,
                0.0
              ],
              [
                88.19156402926355,
                27.90939823619576,
                0.0
              ],
              [
                88.19156402926355,
                27.9093865819769,
                0.0
              ],
              [
                88.191206,
                27.909362,
                0.0
              ],
              [
                88.190668,
                27.909367000000003,
                0.0
              ]
            ]
          ],
          [
            [
              [
                88.18803993206909,
                27.90921857313894,
                0.0
              ],
              [
                88.18797076812707,
                27.909218573138933,
                0.0
              ],
              [
                88.18797076812707,
                27.909206896007777,
                0.0
              ],
              [
                88.187924,
                27.909199000000005,
                0.0
              ],
              [
                88.18761144201342,
                27.909109421525493,
                0.0
              ],
              [
                88.18761144201342,
                27.909398236195766,
                0.0
              ],
              [
                88.18779110507025,
                27.909398236195763,
                0.0
              ],
              [
                88.18779110507025,
                27.909757562309412,
                0.0
              ],
              [
                88.18797076812707,
                27.90975756230941,
                0.0
              ],
              [
                88.18797076812707,
                27.90993722536623,
                0.0
              ],
              [
                88.18827020591331,
                27.909937225626614,
                0.0
              ],
              [
                88.18833009424073,
                27.909937225366235,
                0.0
              ],
              [
                88.18833009424073,
                27.909937225600576,
                0.0
              ],
              [
                88.18850975729754,
                27.909937225366235,
                0.0
              ],
              [
                88.18850975729754,
                27.909757562309412,
                0.0
              ],
              [
                88.18868942035436,
                27.90975756230941,
                0.0
              ],
              [
                88.18868942035436,
                27.909306446073035,
                0.0
              ],
              [
                88.188463,
                27.90928999999999,
                0.0
              ],
              [
                88.18803993206909,
                27.90921857313894,
                0.0
              ]
            ],
            [
              [
                88.18850975729754,
                27.909577899252582,
                0.0
              ],
              [
                88.18833009424073,
                27.90957789925259,
                0.0
              ],
              [
                88.18833009424073,
                27.90939823619576,
                0.0
              ],
              [
                88.18850975729754,
                27.90939823619576,
                0.0
              ],
              [
                88.18850975729754,
                27.909577899252582,
                0.0
              ]
            ]
          ],
          [
            [
              [
                88.18491649616107,
                27.908477632690026,
                0.0
              ],
              [
                88.18491649616107,
                27.908499920911645,
                0.0
              ],
              [
                88.18500292285059,
                27.908499920911648,
                0.0
              ],
              [
                88.18491649616107,
                27.908477632690026,
                0.0
              ]
            ]
          ],
          [
            [
              [
                88.18455717004741,
                27.908319336658575,
                0.0
              ],
              [
                88.18455717004741,
                27.90832025785482,
                0.0
              ],
              [
                88.18455908723556,
                27.90832025785482,
                0.0
              ],
              [
                88.18455717004741,
                27.908319336658575,
                0.0
              ]
            ]
          ]
        ]
      }
    },
    {
      "type": "Feature",
      "properties": {
        "site_id": "south-lhonak",
        "from_date": "2017-11-19",
        "to_date": "2019-10-15",
        "status": "provisional_owner_approved_not_independently_reviewed",
        "crs_for_measurement": "EPSG:32645",
        "change_class": "glacier_gain",
        "area_km2": 0.02499
      },
      "geometry": {
        "type": "MultiPolygon",
        "coordinates": [
          [
            [
              [
                88.18509615921789,
                27.908523964993105,
                0.0
              ],
              [
                88.1850029235351,
                27.908499920911645,
                0.0
              ],
              [
                88.18500292285059,
                27.908499920911648,
                0.0
              ],
              [
                88.18509615921789,
                27.908523965181118,
                0.0
              ],
              [
                88.18509615921789,
                27.908523964993105,
                0.0
              ]
            ]
          ],
          [
            [
              [
                88.18491649616107,
                27.9084776325907,
                0.0
              ],
              [
                88.184852,
                27.908461000000003,
                0.0
              ],
              [
                88.18491649616107,
                27.908477632690026,
                0.0
              ],
              [
                88.18491649616107,
                27.9084776325907,
                0.0
              ]
            ]
          ],
          [
            [
              [
                88.18455908792863,
                27.90832025785482,
                0.0
              ],
              [
                88.18455908723556,
                27.90832025785482,
                0.0
              ],
              [
                88.184852,
                27.908461000000003,
                0.0
              ],
              [
                88.18455908792863,
                27.90832025785482,
                0.0
              ]
            ]
          ],
          [
            [
              [
                88.18455717004741,
                27.90831933632668,
                0.0
              ],
              [
                88.184365,
                27.908226999999997,
                0.0
              ],
              [
                88.18455717004741,
                27.908319336658575,
                0.0
              ],
              [
                88.18455717004741,
                27.90831933632668,
                0.0
              ]
            ]
          ],
          [
            [
              [
                88.18797076812707,
                27.909206896007777,
                0.0
              ],
              [
                88.18803993206909,
                27.90921857313894,
                0.0
              ],
              [
                88.18803993320756,
                27.90921857313894,
                0.0
              ],
              [
                88.18797076812707,
                27.909206895917556,
                0.0
              ],
              [
                88.18797076812707,
                27.909206896007777,
                0.0
              ]
            ]
          ],
          [
            [
              [
                88.18833009424073,
                27.910655877593534,
                0.0
              ],
              [
                88.18833009424073,
                27.910476214536704,
                0.0
              ],
              [
                88.18850975729754,
                27.910476214536708,
                0.0
              ],
              [
                88.18850975729754,
                27.910116888423055,
                0.0
              ],
              [
                88.18833009424073,
                27.910116888423055,
                0.0
              ],
              [
                88.18833009424073,
                27.909937225600576,
                0.0
              ],
              [
                88.18827020591331,
                27.909937225626614,
                0.0
              ],
              [
                88.18707245284295,
                27.909937225366235,
                0.0
              ],
              [
                88.18707245284295,
                27.90975756230941,
                0.0
              ],
              [
                88.18545548533153,
                27.90975756230941,
                0.0
              ],
              [
                88.18545548533153,
                27.91029655147988,
                0.0
              ],
              [
                88.18617413755884,
                27.910296551479885,
                0.0
              ],
              [
                88.18617413755884,
                27.91047621453671,
                0.0
              ],
              [
                88.18653346367248,
                27.910476214536708,
                0.0
              ],
              [
                88.18653346367248,
                27.91065587759353,
                0.0
              ],
              [
                88.18707245284295,
                27.910655877593538,
                0.0
              ],
              [
                88.18707245284295,
                27.910835540650357,
                0.0
              ],
              [
                88.18710838279415,
                27.910835540762832,
                0.0
              ],
              [
                88.18725211589978,
                27.910835540650343,
                0.0
              ],
              [
                88.18725211589978,
                27.910655877593534,
                0.0
              ],
              [
                88.1874317789566,
                27.910655877593527,
                0.0
              ],
              [
                88.18743177895078,
                27.91083554135339,
                0.0
              ],
              [
                88.18779110507025,
                27.910835541119038,
                0.0
              ],
              [
                88.18779110507025,
                27.910835540650353,
                0.0
              ],
              [
                88.18797076812707,
                27.910835540650353,
                0.0
              ],
              [
                88.18797076812707,
                27.91065587759353,
                0.0
              ],
              [
                88.18833009424073,
                27.910655877593534,
                0.0
              ]
            ]
          ],
          [
            [
              [
                88.18707245283134,
                27.912632172273188,
                0.0
              ],
              [
                88.18707245284295,
                27.912811834275416,
                0.0
              ],
              [
                88.18725211589978,
                27.912811834275423,
                0.0
              ],
              [
                88.18725211589398,
                27.91263217215601,
                0.0
              ],
              [
                88.18707245283134,
                27.912632172273188,
                0.0
              ]
            ]
          ],
          [
            [
              [
                88.18617413755884,
                27.911194866764006,
                0.0
              ],
              [
                88.18617413755884,
                27.91137452982083,
                0.0
              ],
              [
                88.18635380061566,
                27.911374529820833,
                0.0
              ],
              [
                88.18635380061566,
                27.911194866764,
                0.0
              ],
              [
                88.18617413755884,
                27.911194866764006,
                0.0
              ]
            ]
          ]
        ]
      }
    },
    {
      "type": "Feature",
      "properties": {
        "site_id": "south-lhonak",
        "from_date": "2017-11-19",
        "to_date": "2019-10-15",
        "status": "provisional_owner_approved_not_independently_reviewed",
        "crs_for_measurement": "EPSG:32645",
        "change_class": "lake_growth",
        "area_km2": 0.281576
      },
      "geometry": {
        "type": "MultiPolygon",
        "coordinates": [
          [
            [
              [
                88.20917100883229,
                27.916405095411893
              ],
              [
                88.20935067188913,
                27.916405095411896
              ],
              [
                88.20935067185364,
                27.916225432355073
              ],
              [
                88.20917100883229,
                27.91622543235507
              ],
              [
                88.20917100883229,
                27.916405095411893
              ]
            ]
          ],
          [
            [
              [
                88.20917100883229,
                27.914967790957306
              ],
              [
                88.20917100882637,
                27.914967790957306
              ],
              [
                88.20917100883229,
                27.91514745401413
              ],
              [
                88.20917100883229,
                27.914967790957306
              ]
            ]
          ],
          [
            [
              [
                88.20863201966182,
                27.914608464843656
              ],
              [
                88.20863201965591,
                27.914608464843656
              ],
              [
                88.20863201966182,
                27.914788127900483
              ],
              [
                88.20863201966182,
                27.914608464843656
              ]
            ]
          ],
          [
            [
              [
                88.20863201966182,
                27.914788127900483
              ],
              [
                88.20881168271865,
                27.914788128134845
              ],
              [
                88.20881168271865,
                27.91478812790048
              ],
              [
                88.20863201966182,
                27.914788127900483
              ]
            ]
          ],
          [
            [
              [
                88.2077337043777,
                27.913889812850723
              ],
              [
                88.2077337043777,
                27.914249138730014
              ],
              [
                88.20791336743453,
                27.91424913873001
              ],
              [
                88.20791336743453,
                27.913889812616354
              ],
              [
                88.2077337043777,
                27.913889812850723
              ]
            ]
          ],
          [
            [
              [
                88.20755404132088,
                27.916045769884178
              ],
              [
                88.20755404132088,
                27.916045769298247
              ],
              [
                88.20665572603676,
                27.916045769298243
              ],
              [
                88.20755404132088,
                27.916045769884178
              ]
            ]
          ],
          [
            [
              [
                88.20683538909358,
                27.913350823445892
              ],
              [
                88.20683538908179,
                27.913350823445896
              ],
              [
                88.20683538909358,
                27.91353048650271
              ],
              [
                88.20683538909358,
                27.913350823445892
              ]
            ]
          ],
          [
            [
              [
                88.20521842158216,
                27.912272845104944
              ],
              [
                88.20503875852535,
                27.912272845104948
              ],
              [
                88.20521842158216,
                27.9122728453393
              ],
              [
                88.20521842158216,
                27.912272845104944
              ]
            ]
          ],
          [
            [
              [
                88.20360145407075,
                27.91137452982083
              ],
              [
                88.20342179101392,
                27.91137452982083
              ],
              [
                88.20342179101392,
                27.911194866763996
              ],
              [
                88.2032421279571,
                27.911194866998354
              ],
              [
                88.2032421279571,
                27.911374529820826
              ],
              [
                88.20360145407075,
                27.91137453028952
              ],
              [
                88.20360145407075,
                27.91137452982083
              ]
            ]
          ],
          [
            [
              [
                88.20288280184346,
                27.911194866764003
              ],
              [
                88.20288280184346,
                27.91101520370718
              ],
              [
                88.20270313878663,
                27.911015203824352
              ],
              [
                88.20270313878663,
                27.911194866764
              ],
              [
                88.2030624670893,
                27.91119486699835
              ],
              [
                88.20288280184346,
                27.911194866764003
              ]
            ]
          ],
          [
            [
              [
                88.20216414961617,
                27.91065587759353
              ],
              [
                88.20207431561334,
                27.910655877681418
              ],
              [
                88.20216414961617,
                27.91065587771071
              ],
              [
                88.20216414961617,
                27.91065587759353
              ]
            ]
          ],
          [
            [
              [
                88.20126583433203,
                27.91011688842305
              ],
              [
                88.2009065082184,
                27.910116888657402
              ],
              [
                88.2009065082184,
                27.91029655147989
              ],
              [
                88.20126583433203,
                27.910296551479885
              ],
              [
                88.20126583433203,
                27.91011688842305
              ]
            ]
          ],
          [
            [
              [
                88.20126583433203,
                27.910296551479885
              ],
              [
                88.20126583433203,
                27.9104762145367
              ],
              [
                88.20180482349664,
                27.910476214888227
              ],
              [
                88.20180482350251,
                27.910296551479885
              ],
              [
                88.20126583433203,
                27.910296551479885
              ]
            ]
          ],
          [
            [
              [
                88.20072684516157,
                27.91011688842306
              ],
              [
                88.20072684516157,
                27.909937225366228
              ],
              [
                88.20054718210474,
                27.909937225483397
              ],
              [
                88.20054718210474,
                27.910116888423058
              ],
              [
                88.20078673215517,
                27.910116888527206
              ],
              [
                88.20072684516157,
                27.91011688842306
              ]
            ]
          ],
          [
            [
              [
                88.1994692037638,
                27.909577899252586
              ],
              [
                88.19839122542285,
                27.90957789925259
              ],
              [
                88.19839122542285,
                27.909757562309416
              ],
              [
                88.19829322802511,
                27.90975756265801
              ],
              [
                88.1994692037638,
                27.90975756230941
              ],
              [
                88.1994692037638,
                27.909577899252586
              ]
            ]
          ],
          [
            [
              [
                88.1994692037638,
                27.90975756230941
              ],
              [
                88.1994692037638,
                27.90993722536623
              ],
              [
                88.20051723816181,
                27.909937225480146
              ],
              [
                88.20036751904792,
                27.90993722536623
              ],
              [
                88.20036751904792,
                27.909757562309405
              ],
              [
                88.1994692037638,
                27.90975756230941
              ]
            ]
          ],
          [
            [
              [
                88.19587594262732,
                27.915686443184605
              ],
              [
                88.19857088847968,
                27.915686443184597
              ],
              [
                88.19605560568415,
                27.9156864431846
              ],
              [
                88.19605560568415,
                27.915506780127775
              ],
              [
                88.19587594262732,
                27.915506781182437
              ],
              [
                88.19587594262732,
                27.915686443184605
              ]
            ]
          ],
          [
            [
              [
                88.19587594262732,
                27.909218573138943
              ],
              [
                88.19569627956466,
                27.909218573724782
              ],
              [
                88.1956962795705,
                27.90939823619576
              ],
              [
                88.19587594262732,
                27.909398236195763
              ],
              [
                88.19587594262732,
                27.909218573138943
              ]
            ]
          ],
          [
            [
              [
                88.19587594262732,
                27.909398236195763
              ],
              [
                88.19587594262732,
                27.909577899252586
              ],
              [
                88.19677425791144,
                27.909577899252586
              ],
              [
                88.19677425791144,
                27.909757562309412
              ],
              [
                88.19758274222225,
                27.909757563100303
              ],
              [
                88.19731324708191,
                27.909757562309405
              ],
              [
                88.19731324708191,
                27.909577899252586
              ],
              [
                88.1971335840251,
                27.909577899252582
              ],
              [
                88.1971335840251,
                27.909398236195763
              ],
              [
                88.19677425791144,
                27.909398236195766
              ],
              [
                88.19677425791144,
                27.909218573138936
              ],
              [
                88.19623526874098,
                27.90921857313894
              ],
              [
                88.19623526874098,
                27.909398236195763
              ],
              [
                88.19587594262732,
                27.909398236195763
              ]
            ]
          ],
          [
            [
              [
                88.19479796428638,
                27.90921857313894
              ],
              [
                88.19479796428638,
                27.909038910082113
              ],
              [
                88.19461830122955,
                27.909038910082117
              ],
              [
                88.19461830122955,
                27.909218573138936
              ],
              [
                88.19425897511591,
                27.90921857313894
              ],
              [
                88.19425897511591,
                27.909038910082113
              ],
              [
                88.19336065983178,
                27.909038910082117
              ],
              [
                88.19336065983178,
                27.909218573138933
              ],
              [
                88.19318099677497,
                27.90921857325611
              ],
              [
                88.19318099677497,
                27.909398236195763
              ],
              [
                88.19407931205909,
                27.90939823619576
              ],
              [
                88.19407931205909,
                27.909577899252586
              ],
              [
                88.19515729040003,
                27.909577899252586
              ],
              [
                88.19515729037664,
                27.90921857407628
              ],
              [
                88.19479796428638,
                27.90921857313894
              ]
            ]
          ],
          [
            [
              [
                88.19300133371814,
                27.91532711707095
              ],
              [
                88.19318099677497,
                27.91532711707095
              ],
              [
                88.19318099677497,
                27.91514745401413
              ],
              [
                88.19300133371814,
                27.915147454600053
              ],
              [
                88.19300133371814,
                27.91532711707095
              ]
            ]
          ],
          [
            [
              [
                88.19300133371814,
                27.90921857313894
              ],
              [
                88.19300133371814,
                27.909038910082113
              ],
              [
                88.19282167066132,
                27.909038910082117
              ],
              [
                88.19282167066132,
                27.908859247025294
              ],
              [
                88.19264200760449,
                27.908859247025287
              ],
              [
                88.19264200760449,
                27.909038910082113
              ],
              [
                88.19210301843403,
                27.90903891008211
              ],
              [
                88.19210301843403,
                27.908859247025283
              ],
              [
                88.19102504009308,
                27.908859247025287
              ],
              [
                88.19102504009308,
                27.90867958396847
              ],
              [
                88.1904860509226,
                27.908679583968475
              ],
              [
                88.1904860509226,
                27.90885924702529
              ],
              [
                88.19030638786579,
                27.90885924702529
              ],
              [
                88.19030638786579,
                27.909038910082113
              ],
              [
                88.18833009424073,
                27.909038910082117
              ],
              [
                88.18833009424073,
                27.90921857313894
              ],
              [
                88.18797076812707,
                27.909218573138933
              ],
              [
                88.18797076812707,
                27.90885924702529
              ],
              [
                88.18761144201342,
                27.90885924702529
              ],
              [
                88.18761144201342,
                27.908679583968475
              ],
              [
                88.18707245284295,
                27.90867958396847
              ],
              [
                88.18707245284295,
                27.908499920911645
              ],
              [
                88.18653346367248,
                27.908499921263147
              ],
              [
                88.18653346367248,
                27.908679583968475
              ],
              [
                88.18689278978613,
                27.908679583968475
              ],
              [
                88.18689278978613,
                27.90885924702529
              ],
              [
                88.1874317789566,
                27.908859247025287
              ],
              [
                88.1874317789566,
                27.909038910082113
              ],
              [
                88.18761144201342,
                27.909038910082124
              ],
              [
                88.18761144201342,
                27.909398236195766
              ],
              [
                88.18779110507025,
                27.909398236195763
              ],
              [
                88.18779110507025,
                27.909757562309412
              ],
              [
                88.18797076812707,
                27.90975756230941
              ],
              [
                88.18797076812707,
                27.90993722536623
              ],
              [
                88.18827020591331,
                27.909937225626614
              ],
              [
                88.18833009424073,
                27.909937225366235
              ],
              [
                88.18833009424073,
                27.909937225600576
              ],
              [
                88.18850975729754,
                27.909937225366235
              ],
              [
                88.18850975729754,
                27.909757562309412
              ],
              [
                88.18868942035436,
                27.90975756230941
              ],
              [
                88.18868942035436,
                27.90921857313894
              ],
              [
                88.19066571397943,
                27.909218573138943
              ],
              [
                88.19066571397943,
                27.909398236195766
              ],
              [
                88.19156402926355,
                27.90939823619576
              ],
              [
                88.19156402926355,
                27.909218573138936
              ],
              [
                88.19316103431713,
                27.909218573254662
              ],
              [
                88.19300133371814,
                27.90921857313894
              ]
            ],
            [
              [
                88.18833009424073,
                27.90957789925259
              ],
              [
                88.18833009424073,
                27.90939823619576
              ],
              [
                88.18850975729754,
                27.90939823619576
              ],
              [
                88.18850975729754,
                27.909577899252582
              ],
              [
                88.18833009424073,
                27.90957789925259
              ]
            ]
          ],
          [
            [
              [
                88.18509615921789,
                27.908679583968468
              ],
              [
                88.18527582227472,
                27.908679583968468
              ],
              [
                88.18527582227472,
                27.908499920911648
              ],
              [
                88.18647357643363,
                27.908499921172012
              ],
              [
                88.18635380061566,
                27.90849992091164
              ],
              [
                88.18635380061566,
                27.90832025785481
              ],
              [
                88.18509615921789,
                27.908320257854818
              ],
              [
                88.18509615921789,
                27.908140594797995
              ],
              [
                88.18455717004741,
                27.908140594797995
              ],
              [
                88.18455717004741,
                27.90832025785482
              ],
              [
                88.18491649616107,
                27.908320257854818
              ],
              [
                88.18491649616107,
                27.908499920911645
              ],
              [
                88.18509615921789,
                27.90849992091164
              ],
              [
                88.18509615921789,
                27.908679583968468
              ]
            ]
          ],
          [
            [
              [
                88.18509615921789,
                27.90885924702529
              ],
              [
                88.18509615921789,
                27.909038910082113
              ],
              [
                88.18491649616107,
                27.909038910082117
              ],
              [
                88.18491649616107,
                27.909218573138943
              ],
              [
                88.18473683310424,
                27.909218573138936
              ],
              [
                88.18473683310424,
                27.90939823619576
              ],
              [
                88.18455717004741,
                27.90939823619576
              ],
              [
                88.18455717004741,
                27.90957789925259
              ],
              [
                88.1843775069906,
                27.909577899252586
              ],
              [
                88.1843775069906,
                27.909757562309405
              ],
              [
                88.18419784393377,
                27.90975756230941
              ],
              [
                88.18419784393377,
                27.91029655147988
              ],
              [
                88.18401818087695,
                27.910296551479885
              ],
              [
                88.18401818087695,
                27.911015203707183
              ],
              [
                88.18383851782012,
                27.91101520370718
              ],
              [
                88.18383851782012,
                27.911554192877652
              ],
              [
                88.18401818087695,
                27.91155419287765
              ],
              [
                88.18401818087695,
                27.91173385593447
              ],
              [
                88.18419784393377,
                27.91173385593447
              ],
              [
                88.18419784393377,
                27.912272845104944
              ],
              [
                88.18401818087695,
                27.912272845104944
              ],
              [
                88.18401818087695,
                27.912811834275416
              ],
              [
                88.18383851782012,
                27.912811834275423
              ],
              [
                88.18383851782012,
                27.91299149733224
              ],
              [
                88.1836588547633,
                27.912991497332236
              ],
              [
                88.1836588547633,
                27.913171160389062
              ],
              [
                88.18347919170647,
                27.913171160389066
              ],
              [
                88.18347919170647,
                27.91406947567318
              ],
              [
                88.1836588547633,
                27.914069475673184
              ],
              [
                88.1836588547633,
                27.91424913873001
              ],
              [
                88.18383851782012,
                27.914249138730007
              ],
              [
                88.18383851782012,
                27.91442880178683
              ],
              [
                88.18455717004741,
                27.914428801786826
              ],
              [
                88.18455717004741,
                27.914608464843656
              ],
              [
                88.18509615921789,
                27.91460846484366
              ],
              [
                88.18509615921789,
                27.914788127900476
              ],
              [
                88.18850975729754,
                27.91478812790048
              ],
              [
                88.18850975729754,
                27.914967790957306
              ],
              [
                88.18940807258166,
                27.914967790957306
              ],
              [
                88.18940807258166,
                27.91514745401413
              ],
              [
                88.18958773563848,
                27.915147454014132
              ],
              [
                88.18958773563848,
                27.914967790957306
              ],
              [
                88.19174369232037,
                27.914967790957306
              ],
              [
                88.19174369232037,
                27.915147454014125
              ],
              [
                88.19270189490214,
                27.91514745505576
              ],
              [
                88.19210301843403,
                27.91514745401413
              ],
              [
                88.19210301843403,
                27.91478812790048
              ],
              [
                88.19174369232037,
                27.914788127900483
              ],
              [
                88.19174369232037,
                27.91442880178683
              ],
              [
                88.19156402926355,
                27.914428801786837
              ],
              [
                88.19156402926355,
                27.914249138730007
              ],
              [
                88.19138436620672,
                27.91424913873001
              ],
              [
                88.19138436620672,
                27.914069475673188
              ],
              [
                88.19120470314991,
                27.914069475673184
              ],
              [
                88.19120470314991,
                27.91388981261636
              ],
              [
                88.19102504009308,
                27.913889812616368
              ],
              [
                88.19102504009308,
                27.91371014955954
              ],
              [
                88.19066571397943,
                27.913710149559535
              ],
              [
                88.19066571397943,
                27.913530486502715
              ],
              [
                88.19030638786579,
                27.91353048650272
              ],
              [
                88.19030638786579,
                27.912991497332246
              ],
              [
                88.19066571397943,
                27.91299149733224
              ],
              [
                88.19066571397943,
                27.912093182048125
              ],
              [
                88.18958773563848,
                27.912093182048125
              ],
              [
                88.18958773563848,
                27.91227284510494
              ],
              [
                88.18886908341119,
                27.912272845104944
              ],
              [
                88.18886908341119,
                27.912452508161763
              ],
              [
                88.18833009424073,
                27.912452508161767
              ],
              [
                88.18833009424073,
                27.91299149733224
              ],
              [
                88.1881504311839,
                27.912991497332243
              ],
              [
                88.1881504311839,
                27.913171160389066
              ],
              [
                88.18761144201342,
                27.913171160389066
              ],
              [
                88.18761144201342,
                27.91335082344589
              ],
              [
                88.18689278978613,
                27.91335082344589
              ],
              [
                88.18689278978613,
                27.913710149559535
              ],
              [
                88.1867131267293,
                27.913710149559535
              ],
              [
                88.1867131267293,
                27.91388981261636
              ],
              [
                88.18653346367248,
                27.913889812616365
              ],
              [
                88.18653346367248,
                27.914069475673184
              ],
              [
                88.18635380061566,
                27.91406947567318
              ],
              [
                88.18635380061566,
                27.914249138730007
              ],
              [
                88.18599447450201,
                27.914249138730003
              ],
              [
                88.18599447450201,
                27.914069475673184
              ],
              [
                88.18563514838836,
                27.914069475673184
              ],
              [
                88.18563514838836,
                27.913710149559535
              ],
              [
                88.18599447450201,
                27.913710149559538
              ],
              [
                88.18599447450201,
                27.91353048650271
              ],
              [
                88.18617413755884,
                27.913530486502722
              ],
              [
                88.18617413755884,
                27.913350823445892
              ],
              [
                88.18635380061566,
                27.913350823445885
              ],
              [
                88.18635380061566,
                27.91281183427542
              ],
              [
                88.18653346367248,
                27.912811834275423
              ],
              [
                88.18653346367248,
                27.912632171218597
              ],
              [
                88.18707245283134,
                27.912632172273188
              ],
              [
                88.18707245284295,
                27.91227284510495
              ],
              [
                88.18689278978613,
                27.91227284510494
              ],
              [
                88.18689278978613,
                27.912093182048125
              ],
              [
                88.18653346367248,
                27.91209318204812
              ],
              [
                88.18653346367248,
                27.91227284510494
              ],
              [
                88.18617413755884,
                27.912272845104948
              ],
              [
                88.18617413755884,
                27.912632171218593
              ],
              [
                88.18545548533153,
                27.912632171218593
              ],
              [
                88.18545548533153,
                27.912452508161767
              ],
              [
                88.18527582227472,
                27.912452508161767
              ],
              [
                88.18527582227472,
                27.912632171218597
              ],
              [
                88.18509615921789,
                27.912632171218597
              ],
              [
                88.18509615921789,
                27.912452508161767
              ],
              [
                88.18491649616107,
                27.912452508161767
              ],
              [
                88.18491649616107,
                27.91155419287765
              ],
              [
                88.18509615921789,
                27.911554192877652
              ],
              [
                88.18509615921789,
                27.910296551479885
              ],
              [
                88.18527582227472,
                27.910296551479885
              ],
              [
                88.18527582227472,
                27.909757562309412
              ],
              [
                88.18509615921789,
                27.90975756230941
              ],
              [
                88.18509615921789,
                27.90939823619576
              ],
              [
                88.18527582227472,
                27.909398236195756
              ],
              [
                88.18527582227472,
                27.908859247025294
              ],
              [
                88.18509615921789,
                27.90885924702529
              ]
            ],
            [
              [
                88.18617413755884,
                27.914608464843656
              ],
              [
                88.18617413755884,
                27.914428801786833
              ],
              [
                88.18635380061566,
                27.91442880178683
              ],
              [
                88.18635380061566,
                27.914608464843653
              ],
              [
                88.18617413755884,
                27.914608464843656
              ]
            ]
          ],
          [
            [
              [
                88.18833009424073,
                27.912452508161767
              ],
              [
                88.18833009424073,
                27.9119135189913
              ],
              [
                88.18886908341119,
                27.9119135189913
              ],
              [
                88.18886908341119,
                27.911554192877652
              ],
              [
                88.18850975729754,
                27.91155419287766
              ],
              [
                88.18850975729754,
                27.911374529820826
              ],
              [
                88.18797076812707,
                27.911374529820826
              ],
              [
                88.18797076812707,
                27.910835540650353
              ],
              [
                88.18779110507025,
                27.910835541119038
              ],
              [
                88.18779110507025,
                27.91101520370718
              ],
              [
                88.1874317789566,
                27.911015203707187
              ],
              [
                88.18743177895078,
                27.91083554135339
              ],
              [
                88.18710838279415,
                27.910835540762832
              ],
              [
                88.18689278978613,
                27.910835540650353
              ],
              [
                88.18689278978613,
                27.911374529820822
              ],
              [
                88.1867131267293,
                27.911374529820826
              ],
              [
                88.1867131267293,
                27.91173385593447
              ],
              [
                88.18689278978613,
                27.911733855934475
              ],
              [
                88.18689278978613,
                27.911913518991298
              ],
              [
                88.18707245284295,
                27.911913518991298
              ],
              [
                88.18707245284295,
                27.91209318204812
              ],
              [
                88.18725211589978,
                27.912093182048128
              ],
              [
                88.18725211589978,
                27.912272845104944
              ],
              [
                88.18761144201342,
                27.912272845104948
              ],
              [
                88.18761144201342,
                27.912452508161763
              ],
              [
                88.18833009424073,
                27.912452508161767
              ]
            ]
          ],
          [
            [
              [
                88.18761144201342,
                27.912452508161763
              ],
              [
                88.18725211589978,
                27.91245250816177
              ],
              [
                88.18725211589398,
                27.91263217215601
              ],
              [
                88.18761144201342,
                27.9126321712186
              ],
              [
                88.18761144201342,
                27.912452508161763
              ]
            ]
          ]
        ]
      }
    },
    {
      "type": "Feature",
      "properties": {
        "site_id": "south-lhonak",
        "from_date": "2017-11-19",
        "to_date": "2019-10-15",
        "status": "provisional_owner_approved_not_independently_reviewed",
        "crs_for_measurement": "EPSG:32645",
        "change_class": "lake_reduction",
        "area_km2": 0.072155
      },
      "geometry": {
        "type": "MultiPolygon",
        "coordinates": [
          [
            [
              [
                88.20935067188913,
                27.916225432355073
              ],
              [
                88.20935067188913,
                27.915147454014125
              ],
              [
                88.20935067185364,
                27.916225432355073
              ],
              [
                88.20935067188913,
                27.916225432355073
              ]
            ]
          ],
          [
            [
              [
                88.20917100883229,
                27.91478812790048
              ],
              [
                88.20881168271865,
                27.914788128134845
              ],
              [
                88.20881168271865,
                27.914967790957306
              ],
              [
                88.20917100882637,
                27.914967790957306
              ],
              [
                88.20917100883229,
                27.91478812790048
              ]
            ]
          ],
          [
            [
              [
                88.208452356605,
                27.91442880178683
              ],
              [
                88.208452356605,
                27.91460846484366
              ],
              [
                88.20863201965591,
                27.914608464843656
              ],
              [
                88.20863201966182,
                27.914428801786833
              ],
              [
                88.208452356605,
                27.91442880178683
              ]
            ]
          ],
          [
            [
              [
                88.20755404132088,
                27.91622543235507
              ],
              [
                88.2077337043777,
                27.91622543235507
              ],
              [
                88.2077337043777,
                27.916045769298243
              ],
              [
                88.20755404132088,
                27.916045769884178
              ],
              [
                88.20755404132088,
                27.91622543235507
              ]
            ]
          ],
          [
            [
              [
                88.20809303049136,
                27.914069475673184
              ],
              [
                88.20809303049136,
                27.913889812616365
              ],
              [
                88.20791336743453,
                27.913889812616354
              ],
              [
                88.20791336743453,
                27.91406947567318
              ],
              [
                88.20809303049136,
                27.914069475673184
              ]
            ]
          ],
          [
            [
              [
                88.2077337043777,
                27.913889812616365
              ],
              [
                88.20737437826405,
                27.91388981261636
              ],
              [
                88.2077337043777,
                27.913889812850723
              ],
              [
                88.2077337043777,
                27.913889812616365
              ]
            ]
          ],
          [
            [
              [
                88.20683538909358,
                27.91299149733224
              ],
              [
                88.20665572603676,
                27.91299149733224
              ],
              [
                88.20665572603676,
                27.91281183427542
              ],
              [
                88.2062963999231,
                27.912811834275416
              ],
              [
                88.2062963999231,
                27.912632171218597
              ],
              [
                88.20593707380947,
                27.9126321712186
              ],
              [
                88.20593707380947,
                27.912452508161774
              ],
              [
                88.20557774769581,
                27.912452508161767
              ],
              [
                88.20557774769581,
                27.912272845104948
              ],
              [
                88.20521842158216,
                27.9122728453393
              ],
              [
                88.20521842158216,
                27.912452508161767
              ],
              [
                88.20539808463899,
                27.912452508161767
              ],
              [
                88.20539808463899,
                27.912632171218597
              ],
              [
                88.20575741075264,
                27.912632171218593
              ],
              [
                88.20575741075264,
                27.912811834275416
              ],
              [
                88.20611673686629,
                27.912811834275416
              ],
              [
                88.20611673686629,
                27.912991497332243
              ],
              [
                88.20647606297993,
                27.91299149733224
              ],
              [
                88.20647606297993,
                27.913171160389066
              ],
              [
                88.20665572603676,
                27.91317116038907
              ],
              [
                88.20665572603676,
                27.913350823445896
              ],
              [
                88.20683538908179,
                27.913350823445896
              ],
              [
                88.20683538909358,
                27.91299149733224
              ]
            ]
          ],
          [
            [
              [
                88.1987505515365,
                27.915506780127775
              ],
              [
                88.19928954070697,
                27.915506780127775
              ],
              [
                88.19928954070697,
                27.9156864431846
              ],
              [
                88.20593707380947,
                27.915686443184597
              ],
              [
                88.20414044324123,
                27.915686443184597
              ],
              [
                88.20414044324123,
                27.91550678012777
              ],
              [
                88.2039607801844,
                27.915506780127775
              ],
              [
                88.2039607801844,
                27.91532711707096
              ],
              [
                88.20360145407075,
                27.915327117070955
              ],
              [
                88.20360145407075,
                27.91514745401413
              ],
              [
                88.20108617127522,
                27.915147454014125
              ],
              [
                88.20108617127522,
                27.914967790957306
              ],
              [
                88.2001878559911,
                27.914967790957306
              ],
              [
                88.2001878559911,
                27.914788127900483
              ],
              [
                88.19928954070697,
                27.914788127900486
              ],
              [
                88.19928954070697,
                27.914967790957313
              ],
              [
                88.19893021459333,
                27.914967790957306
              ],
              [
                88.19893021459333,
                27.91514745401412
              ],
              [
                88.1987505515365,
                27.915147454014132
              ],
              [
                88.1987505515365,
                27.915506780127775
              ]
            ]
          ],
          [
            [
              [
                88.2039607801844,
                27.911374529820826
              ],
              [
                88.20360145407075,
                27.91137453028952
              ],
              [
                88.20360145407075,
                27.911554192877652
              ],
              [
                88.2039607801844,
                27.911554192877652
              ],
              [
                88.2039607801844,
                27.911374529820826
              ]
            ]
          ],
          [
            [
              [
                88.2039607801844,
                27.911554192877652
              ],
              [
                88.2039607801844,
                27.911733855934475
              ],
              [
                88.20414044324123,
                27.91173385593447
              ],
              [
                88.20414044324123,
                27.911554192877656
              ],
              [
                88.2039607801844,
                27.911554192877652
              ]
            ]
          ],
          [
            [
              [
                88.20414044324123,
                27.91173385593447
              ],
              [
                88.20414044324123,
                27.911913518991295
              ],
              [
                88.2046794324117,
                27.911913518991295
              ],
              [
                88.2046794324117,
                27.911733855934465
              ],
              [
                88.20414044324123,
                27.91173385593447
              ]
            ]
          ],
          [
            [
              [
                88.2046794324117,
                27.911913518991295
              ],
              [
                88.2046794324117,
                27.912093182048125
              ],
              [
                88.20503875852535,
                27.912093182048125
              ],
              [
                88.20485909546852,
                27.91209318204812
              ],
              [
                88.20485909546852,
                27.911913518991298
              ],
              [
                88.2046794324117,
                27.911913518991295
              ]
            ]
          ],
          [
            [
              [
                88.2032421279571,
                27.911194866763996
              ],
              [
                88.2030624670893,
                27.91119486699835
              ],
              [
                88.2032421279571,
                27.911194866998354
              ],
              [
                88.2032421279571,
                27.911194866763996
              ]
            ]
          ],
          [
            [
              [
                88.20270313878663,
                27.91101520370718
              ],
              [
                88.2025234757298,
                27.91101520370718
              ],
              [
                88.20270313878663,
                27.911015203824352
              ],
              [
                88.20270313878663,
                27.91101520370718
              ]
            ]
          ],
          [
            [
              [
                88.20234381267298,
                27.910835540650353
              ],
              [
                88.20234381267298,
                27.910655877593538
              ],
              [
                88.20216414961617,
                27.91065587771071
              ],
              [
                88.20216414961617,
                27.910835540650353
              ],
              [
                88.20234381267298,
                27.910835540650353
              ]
            ]
          ],
          [
            [
              [
                88.20198448655934,
                27.910655877593538
              ],
              [
                88.20198448655934,
                27.910476214536704
              ],
              [
                88.20180482349664,
                27.910476214888227
              ],
              [
                88.20180482350251,
                27.91065587759353
              ],
              [
                88.20207431561334,
                27.910655877681418
              ],
              [
                88.20198448655934,
                27.910655877593538
              ]
            ]
          ],
          [
            [
              [
                88.2009065082184,
                27.910116888423055
              ],
              [
                88.20078673215517,
                27.910116888527206
              ],
              [
                88.2009065082184,
                27.910116888657402
              ],
              [
                88.2009065082184,
                27.910116888423055
              ]
            ]
          ],
          [
            [
              [
                88.20054718210474,
                27.90993722536623
              ],
              [
                88.20051723816181,
                27.909937225480146
              ],
              [
                88.20054718210474,
                27.909937225483397
              ],
              [
                88.20054718210474,
                27.90993722536623
              ]
            ]
          ],
          [
            [
              [
                88.19821156236604,
                27.909757562309405
              ],
              [
                88.19821156236604,
                27.909577899252582
              ],
              [
                88.19785223625239,
                27.909577899252586
              ],
              [
                88.19785223625239,
                27.909757562309405
              ],
              [
                88.19758274222225,
                27.909757563100303
              ],
              [
                88.19829322802511,
                27.90975756265801
              ],
              [
                88.19821156236604,
                27.909757562309405
              ]
            ]
          ],
          [
            [
              [
                88.19587594262732,
                27.915506781182437
              ],
              [
                88.19587594262732,
                27.915506780127775
              ],
              [
                88.19425897511591,
                27.915506780127778
              ],
              [
                88.19587594262732,
                27.915506781182437
              ]
            ]
          ],
          [
            [
              [
                88.1956962795705,
                27.909038910082117
              ],
              [
                88.19533695345685,
                27.909038910082117
              ],
              [
                88.19533695345685,
                27.908859247025294
              ],
              [
                88.19515729040003,
                27.908859247025287
              ],
              [
                88.19515729037664,
                27.90921857407628
              ],
              [
                88.19569627956466,
                27.909218573724782
              ],
              [
                88.1956962795705,
                27.909038910082117
              ]
            ]
          ],
          [
            [
              [
                88.19318099677497,
                27.90921857313894
              ],
              [
                88.19316103431713,
                27.909218573254662
              ],
              [
                88.19318099677497,
                27.90921857325611
              ],
              [
                88.19318099677497,
                27.90921857313894
              ]
            ]
          ],
          [
            [
              [
                88.19300133371814,
                27.915147454600053
              ],
              [
                88.19300133371814,
                27.91514745401413
              ],
              [
                88.19270189490214,
                27.91514745505576
              ],
              [
                88.19300133371814,
                27.915147454600053
              ]
            ]
          ],
          [
            [
              [
                88.18779110507025,
                27.910835540650353
              ],
              [
                88.18797076812707,
                27.910835540650353
              ],
              [
                88.18797076812707,
                27.91065587759353
              ],
              [
                88.18833009424073,
                27.910655877593534
              ],
              [
                88.18833009424073,
                27.910476214536704
              ],
              [
                88.18850975729754,
                27.910476214536708
              ],
              [
                88.18850975729754,
                27.910116888423055
              ],
              [
                88.18833009424073,
                27.910116888423055
              ],
              [
                88.18833009424073,
                27.909937225600576
              ],
              [
                88.18827020591331,
                27.909937225626614
              ],
              [
                88.18707245284295,
                27.909937225366235
              ],
              [
                88.18707245284295,
                27.90975756230941
              ],
              [
                88.18545548533153,
                27.90975756230941
              ],
              [
                88.18545548533153,
                27.91029655147988
              ],
              [
                88.18617413755884,
                27.910296551479885
              ],
              [
                88.18617413755884,
                27.91047621453671
              ],
              [
                88.18653346367248,
                27.910476214536708
              ],
              [
                88.18653346367248,
                27.91065587759353
              ],
              [
                88.18707245284295,
                27.910655877593538
              ],
              [
                88.18707245284295,
                27.910835540650357
              ],
              [
                88.18710838279415,
                27.910835540762832
              ],
              [
                88.18725211589978,
                27.910835540650343
              ],
              [
                88.18725211589978,
                27.910655877593534
              ],
              [
                88.1874317789566,
                27.910655877593527
              ],
              [
                88.18743177895078,
                27.91083554135339
              ],
              [
                88.18779110507025,
                27.910835541119038
              ],
              [
                88.18779110507025,
                27.910835540650353
              ]
            ]
          ],
          [
            [
              [
                88.18707245284295,
                27.912811834275416
              ],
              [
                88.18725211589978,
                27.912811834275423
              ],
              [
                88.18725211589398,
                27.91263217215601
              ],
              [
                88.18707245283134,
                27.912632172273188
              ],
              [
                88.18707245284295,
                27.912811834275416
              ]
            ]
          ],
          [
            [
              [
                88.18653346367248,
                27.908499920911645
              ],
              [
                88.18647357643363,
                27.908499921172012
              ],
              [
                88.18653346367248,
                27.908499921263147
              ],
              [
                88.18653346367248,
                27.908499920911645
              ]
            ]
          ],
          [
            [
              [
                88.18635380061566,
                27.911194866764
              ],
              [
                88.18617413755884,
                27.911194866764006
              ],
              [
                88.18617413755884,
                27.91137452982083
              ],
              [
                88.18635380061566,
                27.911374529820833
              ],
              [
                88.18635380061566,
                27.911194866764
              ]
            ]
          ]
        ]
      }
    }
  ]
}
