{
  "type": "FeatureCollection",
  "features": [
    {
      "type": "Feature",
      "properties": {
        "site_id": "south-lhonak",
        "glacier_id": "RGI2000-v7.0-G-15-07986",
        "observation_date": "2017-10-15",
        "area_km2": 14.098,
        "area_2016_km2": 14.26,
        "scale_factor": 0.9943,
        "source": "Phase 2 GeoAI derived boundary (versioned, reviewed) \u2014 scaled from RGI 2000 baseline by measured area change; confidence + image-quality documented in measurements.ts",
        "source_id": "phase-2-geoai-v1.0",
        "processing_version": "phase-2-retreat-v1.0",
        "crs": "EPSG:4326",
        "status": "approved",
        "boundary_asset": "data/derived/phase2/boundaries/south-lhonak/2017-10-15.geojson"
      },
      "geometry": {
        "type": "Polygon",
        "coordinates": [
          [
            [
              88.13477213225136,
              27.88204695201935,
              0.0
            ],
            [
              88.13492326639108,
              27.882373083584024,
              0.0
            ],
            [
              88.13528121566938,
              27.882891115734004,
              0.0
            ],
            [
              88.13563717634057,
              27.883304746011152,
              0.0
            ],
            [
              88.13587680349632,
              27.883823772464684,
              0.0
            ],
            [
              88.13623276416752,
              27.88423839704538,
              0.0
            ],
            [
              88.13647139701972,
              27.88465302162608,
              0.0
            ],
            [
              88.13671102417547,
              27.88506764620677,
              0.0
            ],
            [
              88.13694965702767,
              27.885482270787467,
              0.0
            ],
            [
              88.13683730072643,
              27.886004280151653,
              0.0
            ],
            [
              88.13684326654773,
              27.88652529521229,
              0.0
            ],
            [
              88.13661258812394,
              27.88694389700719,
              0.0
            ],
            [
              88.13650122612624,
              27.88746590637137,
              0.0
            ],
            [
              88.13627054770245,
              27.88788450816627,
              0.0
            ],
            [
              88.13615918570477,
              27.888406517530456,
              0.0
            ],
            [
              88.13616415722252,
              27.888927532591094,
              0.0
            ],
            [
              88.13605279522483,
              27.889448547651728,
              0.0
            ],
            [
              88.13605776674258,
              27.88996956271236,
              0.0
            ],
            [
              88.13582808262234,
              27.89038816450726,
              0.0
            ],
            [
              88.13571572632108,
              27.890910173871447,
              0.0
            ],
            [
              88.13548604220084,
              27.891328775666345,
              0.0
            ],
            [
              88.13525735238416,
              27.891851779334083,
              0.0
            ],
            [
              88.1351449960829,
              27.89237378869827,
              0.0
            ],
            [
              88.13503363408523,
              27.892895798062455,
              0.0
            ],
            [
              88.13480394996499,
              27.89341880173019,
              0.0
            ],
            [
              88.1345752601483,
              27.893940811094375,
              0.0
            ],
            [
              88.13434458172449,
              27.894360407192824,
              0.0
            ],
            [
              88.13411489760425,
              27.894779008987726,
              0.0
            ],
            [
              88.13376689136146,
              27.895198605086176,
              0.0
            ],
            [
              88.13365552936376,
              27.895719620146807,
              0.0
            ],
            [
              88.13330851742452,
              27.89613921624526,
              0.0
            ],
            [
              88.13307783900073,
              27.89655881234371,
              0.0
            ],
            [
              88.13284815488049,
              27.896977414138608,
              0.0
            ],
            [
              88.1326174764567,
              27.897396015933506,
              0.0
            ],
            [
              88.13238878664,
              27.89791802529769,
              0.0
            ],
            [
              88.13192245827467,
              27.898235208130405,
              0.0
            ],
            [
              88.13145811851643,
              27.89865579853241,
              0.0
            ],
            [
              88.13099278445466,
              27.899076388934407,
              0.0
            ],
            [
              88.13052844469642,
              27.89949697933641,
              0.0
            ],
            [
              88.13006112202753,
              27.899708765992735,
              0.0
            ],
            [
              88.12971411008829,
              27.900128362091184,
              0.0
            ],
            [
              88.1293661038455,
              27.900547958189637,
              0.0
            ],
            [
              88.12913641972526,
              27.900966559984536,
              0.0
            ],
            [
              88.12903400645952,
              27.90105903021476,
              0.0
            ],
            [
              88.12904991531632,
              27.901216130175793,
              0.0
            ],
            [
              88.12911454504713,
              27.90178288319977,
              0.0
            ],
            [
              88.12917818047438,
              27.902401340008385,
              0.0
            ],
            [
              88.12918315199214,
              27.90286567976662,
              0.0
            ],
            [
              88.12918911781344,
              27.903381723309497,
              0.0
            ],
            [
              88.12907775581574,
              27.903847057371287,
              0.0
            ],
            [
              88.12896838242516,
              27.90451920657165,
              0.0
            ],
            [
              88.12897335394292,
              27.904983546329884,
              0.0
            ],
            [
              88.12909366467257,
              27.905446891784575,
              0.0
            ],
            [
              88.12938897282716,
              27.905856544847513,
              0.0
            ],
            [
              88.12956794746631,
              27.9063198903022,
              0.0
            ],
            [
              88.12997859483279,
              27.90672954336514,
              0.0
            ],
            [
              88.13038824789575,
              27.9070357888588,
              0.0
            ],
            [
              88.1306825617468,
              27.90744544192174,
              0.0
            ],
            [
              88.13126621793113,
              27.9076989893272,
              0.0
            ],
            [
              88.13173354060002,
              27.90790182725157,
              0.0
            ],
            [
              88.13231520817726,
              27.9080002633031,
              0.0
            ],
            [
              88.13280639413136,
              27.908074836069417,
              0.0
            ],
            [
              88.13306889026877,
              27.908370144224012,
              0.0
            ],
            [
              88.13355212179448,
              27.908556078988017,
              0.0
            ],
            [
              88.13408805140838,
              27.908646560611142,
              0.0
            ],
            [
              88.13462398102227,
              27.908784768804708,
              0.0
            ],
            [
              88.13515991063618,
              27.908875250427833,
              0.0
            ],
            [
              88.13569484594653,
              27.908965732050962,
              0.0
            ],
            [
              88.13617807747222,
              27.909103940244524,
              0.0
            ],
            [
              88.13666031469437,
              27.90924214843809,
              0.0
            ],
            [
              88.13714354622009,
              27.909475809772534,
              0.0
            ],
            [
              88.13762677774578,
              27.90961501226965,
              0.0
            ],
            [
              88.13811000927149,
              27.909800947033656,
              0.0
            ],
            [
              88.13859224649363,
              27.90998688179766,
              0.0
            ],
            [
              88.1390764723229,
              27.910267275398997,
              0.0
            ],
            [
              88.13961140763324,
              27.91031102475523,
              0.0
            ],
            [
              88.14014634294358,
              27.910258326667037,
              0.0
            ],
            [
              88.14068028395039,
              27.910254349452835,
              0.0
            ],
            [
              88.14126791734893,
              27.91020165136464,
              0.0
            ],
            [
              88.14174717166041,
              27.910055488742668,
              0.0
            ],
            [
              88.14222742027547,
              27.909909326120697,
              0.0
            ],
            [
              88.14276136128227,
              27.9098566280325,
              0.0
            ],
            [
              88.14324061559377,
              27.90971046541053,
              0.0
            ],
            [
              88.14371986990527,
              27.909516576218117,
              0.0
            ],
            [
              88.14420011852032,
              27.909370413596147,
              0.0
            ],
            [
              88.14456999944123,
              27.90903433899597,
              0.0
            ],
            [
              88.1448334898822,
              27.908604799862008,
              0.0
            ],
            [
              88.14493490884438,
              27.90812952276471,
              0.0
            ],
            [
              88.1452520916771,
              27.90774671589764,
              0.0
            ],
            [
              88.14556828020626,
              27.907363909030575,
              0.0
            ],
            [
              88.14556828020626,
              27.907316182460136,
              0.0
            ],
            [
              88.14668687170095,
              27.9069751363422,
              0.0
            ],
            [
              88.147167120316,
              27.906827979416676,
              0.0
            ],
            [
              88.14770006701924,
              27.906728549061594,
              0.0
            ],
            [
              88.14818031563429,
              27.90658238643962,
              0.0
            ],
            [
              88.14865956994578,
              27.90643622381765,
              0.0
            ],
            [
              88.14913782995374,
              27.906146881484357,
              0.0
            ],
            [
              88.14956239756995,
              27.90585853345462,
              0.0
            ],
            [
              88.15009633857673,
              27.905759103099534,
              0.0
            ],
            [
              88.15063027958352,
              27.90575512588533,
              0.0
            ],
            [
              88.15116521489388,
              27.905750154367574,
              0.0
            ],
            [
              88.15169915590067,
              27.90574617715337,
              0.0
            ],
            [
              88.15223409121101,
              27.905741205635618,
              0.0
            ],
            [
              88.15276902652137,
              27.905737228421415,
              0.0
            ],
            [
              88.15330396183171,
              27.9057799834741,
              0.0
            ],
            [
              88.15383790283852,
              27.905775011956347,
              0.0
            ],
            [
              88.15432113436421,
              27.905960946720352,
              0.0
            ],
            [
              88.15475166780172,
              27.906242334625237,
              0.0
            ],
            [
              88.15507680506285,
              27.906620169974552,
              0.0
            ],
            [
              88.15556003658854,
              27.906852837005445,
              0.0
            ],
            [
              88.1559915643296,
              27.90713422491033,
              0.0
            ],
            [
              88.1564220977671,
              27.907415612815218,
              0.0
            ],
            [
              88.15690632359637,
              27.907697000720102,
              0.0
            ],
            [
              88.15738955512207,
              27.907882935484107,
              0.0
            ],
            [
              88.15787179234422,
              27.908068870248112,
              0.0
            ],
            [
              88.15835601817348,
              27.908301537279005,
              0.0
            ],
            [
              88.15878655161099,
              27.90858292518389,
              0.0
            ],
            [
              88.1592697831367,
              27.908816586518334,
              0.0
            ],
            [
              88.15932347552844,
              27.908816586518334,
              0.0
            ],
            [
              88.16012985570816,
              27.909189450349896,
              0.0
            ],
            [
              88.16061209293031,
              27.90932765854346,
              0.0
            ],
            [
              88.16109433015247,
              27.909465866737026,
              0.0
            ],
            [
              88.16157756167816,
              27.90960506923414,
              0.0
            ],
            [
              88.16211249698851,
              27.90964782428683,
              0.0
            ],
            [
              88.16264743229885,
              27.909690579339514,
              0.0
            ],
            [
              88.1631823676092,
              27.909686602125312,
              0.0
            ],
            [
              88.163716308616,
              27.909681630607555,
              0.0
            ],
            [
              88.16425124392634,
              27.909676659089804,
              0.0
            ],
            [
              88.1647861792367,
              27.9096726818756,
              0.0
            ],
            [
              88.16537480693879,
              27.909715436928284,
              0.0
            ],
            [
              88.16590874794556,
              27.90971046541053,
              0.0
            ],
            [
              88.16644368325592,
              27.909706488196328,
              0.0
            ],
            [
              88.16697861856628,
              27.90970151667857,
              0.0
            ],
            [
              88.16751255957307,
              27.90969654516082,
              0.0
            ],
            [
              88.16804749488342,
              27.909692567946614,
              0.0
            ],
            [
              88.1685814358902,
              27.90968759642886,
              0.0
            ],
            [
              88.1691173655041,
              27.909731345785097,
              0.0
            ],
            [
              88.16960059702981,
              27.90991628624555,
              0.0
            ],
            [
              88.1701365266437,
              27.91005449443912,
              0.0
            ],
            [
              88.17056706008121,
              27.910335882344004,
              0.0
            ],
            [
              88.17105029160692,
              27.91056954367845,
              0.0
            ],
            [
              88.17158820982792,
              27.910802210709342,
              0.0
            ],
            [
              88.17212314513826,
              27.910892692332467,
              0.0
            ],
            [
              88.1727127671439,
              27.91098217965204,
              0.0
            ],
            [
              88.17319500436605,
              27.911121382149158,
              0.0
            ],
            [
              88.17367823589177,
              27.911307316913163,
              0.0
            ],
            [
              88.1742131712021,
              27.91135007196585,
              0.0
            ],
            [
              88.1746437046396,
              27.911631459870733,
              0.0
            ],
            [
              88.17512693616533,
              27.91181739463474,
              0.0
            ],
            [
              88.17561116199457,
              27.91205006166563,
              0.0
            ],
            [
              88.17609439352027,
              27.912283723000076,
              0.0
            ],
            [
              88.17657861934953,
              27.91251738433452,
              0.0
            ],
            [
              88.17706185087523,
              27.912702324794974,
              0.0
            ],
            [
              88.17754607670449,
              27.91298371269986,
              0.0
            ],
            [
              88.17808101201483,
              27.913026467752548,
              0.0
            ],
            [
              88.17861694162873,
              27.913164675946113,
              0.0
            ],
            [
              88.17910017315442,
              27.913302884139675,
              0.0
            ],
            [
              88.1795824103766,
              27.91344109233324,
              0.0
            ],
            [
              88.18011833999047,
              27.91353157395637,
              0.0
            ],
            [
              88.18065327530083,
              27.91357432900905,
              0.0
            ],
            [
              88.18118821061118,
              27.91361708406174,
              0.0
            ],
            [
              88.18172414022507,
              27.913707565684867,
              0.0
            ],
            [
              88.18226006983896,
              27.91384577387843,
              0.0
            ],
            [
              88.18274230706112,
              27.913983982071993,
              0.0
            ],
            [
              88.18327823667502,
              27.914026737124683,
              0.0
            ],
            [
              88.18381317198536,
              27.914069492177365,
              0.0
            ],
            [
              88.18429540920752,
              27.91420770037093,
              0.0
            ],
            [
              88.18477864073321,
              27.91439363513494,
              0.0
            ],
            [
              88.18526286656248,
              27.914627296469384,
              0.0
            ],
            [
              88.18574510378463,
              27.91476550466295,
              0.0
            ],
            [
              88.18628003909497,
              27.91480825971563,
              0.0
            ],
            [
              88.18681497440532,
              27.91485101476832,
              0.0
            ],
            [
              88.18702477245454,
              27.91475556162744,
              0.0
            ],
            [
              88.18743939703525,
              27.91475556162744,
              0.0
            ],
            [
              88.18879562707858,
              27.915024023586163,
              0.0
            ],
            [
              88.18938425478066,
              27.91506677863885,
              0.0
            ],
            [
              88.18991819578746,
              27.915061807121095,
              0.0
            ],
            [
              88.19045412540135,
              27.91510456217378,
              0.0
            ],
            [
              88.1909890607117,
              27.915195043796906,
              0.0
            ],
            [
              88.1915249903256,
              27.915237798849592,
              0.0
            ],
            [
              88.1920589313324,
              27.915233821635386,
              0.0
            ],
            [
              88.19259386664275,
              27.915228850117636,
              0.0
            ],
            [
              88.1929647418672,
              27.914892775517455,
              0.0
            ],
            [
              88.1929587760459,
              27.91441849272371,
              0.0
            ],
            [
              88.1933833436621,
              27.914129150390416,
              0.0
            ],
            [
              88.19386359227714,
              27.913982987768442,
              0.0
            ],
            [
              88.19423347319807,
              27.913646913168265,
              0.0
            ],
            [
              88.19444327124728,
              27.91321836833786,
              0.0
            ],
            [
              88.19449099781772,
              27.91274309124056,
              0.0
            ],
            [
              88.19437864151647,
              27.912268808446814,
              0.0
            ],
            [
              88.19437366999873,
              27.91179353134952,
              0.0
            ],
            [
              88.19436869848097,
              27.911319248555774,
              0.0
            ],
            [
              88.19436372696322,
              27.910843971458476,
              0.0
            ],
            [
              88.1940385897021,
              27.910467130412712,
              0.0
            ],
            [
              88.19371345244097,
              27.910090289366945,
              0.0
            ],
            [
              88.19328291900347,
              27.90980890146206,
              0.0
            ],
            [
              88.19279968747776,
              27.909622966698056,
              0.0
            ],
            [
              88.1923154616485,
              27.90938930536361,
              0.0
            ],
            [
              88.19226276356031,
              27.909390299667162,
              0.0
            ],
            [
              88.19103181576438,
              27.909305783865346,
              0.0
            ],
            [
              88.19049688045405,
              27.909310755383096,
              0.0
            ],
            [
              88.18996293944724,
              27.909314732597302,
              0.0
            ],
            [
              88.1894280041369,
              27.909319704115056,
              0.0
            ],
            [
              88.18889306882654,
              27.90927694906237,
              0.0
            ],
            [
              88.18830444112446,
              27.90923419400968,
              0.0
            ],
            [
              88.18776851151055,
              27.90914371238656,
              0.0
            ],
            [
              88.18728627428841,
              27.909005504192994,
              0.0
            ],
            [
              88.1868030427627,
              27.908867295999425,
              0.0
            ],
            [
              88.18626711314882,
              27.90872908780586,
              0.0
            ],
            [
              88.18578487592666,
              27.908590879612298,
              0.0
            ],
            [
              88.1852499406163,
              27.908548124559612,
              0.0
            ],
            [
              88.18471401100243,
              27.908409916366043,
              0.0
            ],
            [
              88.18422978517316,
              27.90817724933515,
              0.0
            ],
            [
              88.18379925173565,
              27.907895861430266,
              0.0
            ],
            [
              88.18331602020996,
              27.9077576532367,
              0.0
            ],
            [
              88.1828337829878,
              27.907619445043135,
              0.0
            ],
            [
              88.18245594763849,
              27.90729033056781,
              0.0
            ],
            [
              88.18202541420096,
              27.907008942662927,
              0.0
            ],
            [
              88.18159388645991,
              27.906679828187603,
              0.0
            ],
            [
              88.18111065493422,
              27.906493893423598,
              0.0
            ],
            [
              88.18062841771206,
              27.906355685230032,
              0.0
            ],
            [
              88.18009149379462,
              27.90617074476958,
              0.0
            ],
            [
              88.18003780140286,
              27.90617074476958,
              0.0
            ],
            [
              88.1785891011293,
              27.90561294047756,
              0.0
            ],
            [
              88.17815757338825,
              27.905332546876227,
              0.0
            ],
            [
              88.17767434186254,
              27.905098885541783,
              0.0
            ],
            [
              88.17724380842503,
              27.9048174976369,
              0.0
            ],
            [
              88.17691867116392,
              27.904440656591134,
              0.0
            ],
            [
              88.17669992438273,
              27.90401509467138,
              0.0
            ],
            [
              88.1764821719051,
              27.903589532751624,
              0.0
            ],
            [
              88.17631711751565,
              27.903162976528318,
              0.0
            ],
            [
              88.17615206312622,
              27.902737414608563,
              0.0
            ],
            [
              88.17598700873678,
              27.902310858385256,
              0.0
            ],
            [
              88.17598203721903,
              27.90183657559151,
              0.0
            ],
            [
              88.1758169828296,
              27.901410019368203,
              0.0
            ],
            [
              88.1756509341366,
              27.900936730878012,
              0.0
            ],
            [
              88.17537948926723,
              27.900511168958257,
              0.0
            ],
            [
              88.1751070500943,
              27.90008660134205,
              0.0
            ],
            [
              88.17508418111264,
              27.900059755146177,
              0.0
            ],
            [
              88.1754142898915,
              27.900008051361535,
              0.0
            ],
            [
              88.1759402764699,
              27.8998469741863,
              0.0
            ],
            [
              88.17655575036787,
              27.89984200266855,
              0.0
            ],
            [
              88.17699920975153,
              27.900151231072858,
              0.0
            ],
            [
              88.17744167483164,
              27.900381909496648,
              0.0
            ],
            [
              88.17796766141004,
              27.900220832321413,
              0.0
            ],
            [
              88.17805018860476,
              27.899751521045424,
              0.0
            ],
            [
              88.17810089808584,
              27.89946217871213,
              0.0
            ],
            [
              88.17822120881549,
              27.89928121546588,
              0.0
            ],
            [
              88.17848072204227,
              27.898888465563303,
              0.0
            ],
            [
              88.17882872828505,
              27.898494721357174,
              0.0
            ],
            [
              88.1791757402243,
              27.898100977151046,
              0.0
            ],
            [
              88.17934676043504,
              27.897630671571502,
              0.0
            ],
            [
              88.17907829847633,
              27.897241898883127,
              0.0
            ],
            [
              88.17889733523006,
              27.896774576214238,
              0.0
            ],
            [
              88.17889236371231,
              27.896306259241797,
              0.0
            ],
            [
              88.17879989348208,
              27.89583794226936,
              0.0
            ],
            [
              88.17853143152335,
              27.895449169580985,
              0.0
            ],
            [
              88.17808896644324,
              27.89521849115719,
              0.0
            ],
            [
              88.17764650136313,
              27.894987812733397,
              0.0
            ],
            [
              88.17702903885805,
              27.894759122916707,
              0.0
            ],
            [
              88.17641058204944,
              27.894529438796468,
              0.0
            ],
            [
              88.17625248778486,
              27.89445088881595,
              0.0
            ],
            [
              88.17620674982152,
              27.89398356614706,
              0.0
            ],
            [
              88.1760715245386,
              27.893523203603024,
              0.0
            ],
            [
              88.17603175239657,
              27.893446642229613,
              0.0
            ],
            [
              88.1763161232121,
              27.893190111913498,
              0.0
            ],
            [
              88.17604368403917,
              27.892764549993743,
              0.0
            ],
            [
              88.1757195410816,
              27.89238770894798,
              0.0
            ],
            [
              88.17550079430042,
              27.891962147028224,
              0.0
            ],
            [
              88.17512295895112,
              27.8916330325529,
              0.0
            ],
            [
              88.17490421216993,
              27.891207470633145,
              0.0
            ],
            [
              88.17479285017224,
              27.8907331878394,
              0.0
            ],
            [
              88.17473418626274,
              27.890258905045652,
              0.0
            ],
            [
              88.17473319195919,
              27.890211178475212,
              0.0
            ],
            [
              88.1746138755331,
              27.889072700909512,
              0.0
            ],
            [
              88.17466259640709,
              27.888597423812218,
              0.0
            ],
            [
              88.17465762488933,
              27.88812214671492,
              0.0
            ],
            [
              88.17459697237273,
              27.887864622095254,
              0.0
            ],
            [
              88.17470932867397,
              27.887719453776832,
              0.0
            ],
            [
              88.17493602988355,
              27.887537496227033,
              0.0
            ],
            [
              88.17448163316082,
              27.887540479137684,
              0.0
            ],
            [
              88.17389499406583,
              27.88754545065544,
              0.0
            ],
            [
              88.17330835497086,
              27.887447014603904,
              0.0
            ],
            [
              88.17260438805687,
              27.887452980425213,
              0.0
            ],
            [
              88.17189942683933,
              27.88735454437368,
              0.0
            ],
            [
              88.17131278774434,
              27.887255114018597,
              0.0
            ],
            [
              88.17084148786124,
              27.88705128179068,
              0.0
            ],
            [
              88.17025484876625,
              27.88705625330843,
              0.0
            ],
            [
              88.16966721536771,
              27.886956822953348,
              0.0
            ],
            [
              88.16908057627272,
              27.886857392598266,
              0.0
            ],
            [
              88.16860927638963,
              27.886653560370345,
              0.0
            ],
            [
              88.16802164299109,
              27.88655413001526,
              0.0
            ],
            [
              88.16743400959255,
              27.886454699660177,
              0.0
            ],
            [
              88.16696270970947,
              27.88624987312871,
              0.0
            ],
            [
              88.16637408200737,
              27.88604703520434,
              0.0
            ],
            [
              88.16566912078983,
              27.88584419727997,
              0.0
            ],
            [
              88.16508148739129,
              27.885744766924887,
              0.0
            ],
            [
              88.1644948482963,
              27.88574973844264,
              0.0
            ],
            [
              88.16390721489776,
              27.88554690051827,
              0.0
            ],
            [
              88.16331958149922,
              27.88544747016319,
              0.0
            ],
            [
              88.16273194810069,
              27.885348039808104,
              0.0
            ],
            [
              88.16214431470215,
              27.885248609453022,
              0.0
            ],
            [
              88.16155767560714,
              27.88515017340149,
              0.0
            ],
            [
              88.16096904790506,
              27.88494634117357,
              0.0
            ],
            [
              88.16014576456497,
              27.884744497552752,
              0.0
            ],
            [
              88.15955813116643,
              27.884646061501222,
              0.0
            ],
            [
              88.1590878255869,
              27.88444123496975,
              0.0
            ],
            [
              88.15850019218836,
              27.884341804614667,
              0.0
            ],
            [
              88.15791255878982,
              27.884242374259582,
              0.0
            ],
            [
              88.15744026460315,
              27.88393414015883,
              0.0
            ],
            [
              88.15696896472006,
              27.883729313627356,
              0.0
            ],
            [
              88.15638133132153,
              27.883630877575822,
              0.0
            ],
            [
              88.15579270361944,
              27.88332264347507,
              0.0
            ],
            [
              88.15520407591735,
              27.8831198055507,
              0.0
            ],
            [
              88.1547317817307,
              27.88281057714639,
              0.0
            ],
            [
              88.15425849324052,
              27.882397941172794,
              0.0
            ],
            [
              88.15378619905385,
              27.882089707072037,
              0.0
            ],
            [
              88.15342924407912,
              27.881676076794893,
              0.0
            ],
            [
              88.15295694989247,
              27.881366848390584,
              0.0
            ],
            [
              88.15248465570583,
              27.88105861428983,
              0.0
            ],
            [
              88.15201236151918,
              27.880749385885522,
              0.0
            ],
            [
              88.15142174520999,
              27.880337744215474,
              0.0
            ],
            [
              88.15094845671979,
              27.87992510824188,
              0.0
            ],
            [
              88.1504751682296,
              27.879512472268285,
              0.0
            ],
            [
              88.15000287404295,
              27.879203243863977,
              0.0
            ],
            [
              88.14964691337177,
              27.878789613586836,
              0.0
            ],
            [
              88.14929095270057,
              27.878375983309688,
              0.0
            ],
            [
              88.14905231984835,
              27.877961358728996,
              0.0
            ],
            [
              88.14869536487362,
              27.877547728451848,
              0.0
            ],
            [
              88.14876297751508,
              27.877234522833337,
              0.0
            ],
            [
              88.14869238196296,
              27.87723551713689,
              0.0
            ],
            [
              88.14810673717152,
              27.87723949435109,
              0.0
            ],
            [
              88.14752109238009,
              27.87734886774168,
              0.0
            ],
            [
              88.1469364418922,
              27.877458241132274,
              0.0
            ],
            [
              88.14635079710077,
              27.877566620219316,
              0.0
            ],
            [
              88.14588446873542,
              27.877779401179193,
              0.0
            ],
            [
              88.14541814037008,
              27.878095589708355,
              0.0
            ],
            [
              88.1448354784893,
              27.87841277254107,
              0.0
            ],
            [
              88.14425182230497,
              27.878626547804497,
              0.0
            ],
            [
              88.14366717181707,
              27.878839328764375,
              0.0
            ],
            [
              88.14308152702564,
              27.87884430028213,
              0.0
            ],
            [
              88.14249488793065,
              27.878849271799883,
              0.0
            ],
            [
              88.14190924313921,
              27.87885424331764,
              0.0
            ],
            [
              88.14132160974066,
              27.878754812962555,
              0.0
            ],
            [
              88.14073397634212,
              27.878655382607473,
              0.0
            ],
            [
              88.14014733724713,
              27.87855595225239,
              0.0
            ],
            [
              88.13955970384859,
              27.87845652189731,
              0.0
            ],
            [
              88.13897604766426,
              27.87867029716074,
              0.0
            ],
            [
              88.13850971929892,
              27.8789864856899,
              0.0
            ],
            [
              88.13804537954069,
              27.879407076091898,
              0.0
            ],
            [
              88.13769836760144,
              27.87982667219035,
              0.0
            ],
            [
              88.13735036135866,
              27.8802462682888,
              0.0
            ],
            [
              88.13688602160042,
              27.8806668586908,
              0.0
            ],
            [
              88.13642068753862,
              27.880983047219967,
              0.0
            ],
            [
              88.13595535347683,
              27.881403637621965,
              0.0
            ],
            [
              88.13549001941504,
              27.88172082045468,
              0.0
            ],
            [
              88.13502269674616,
              27.881932607111008,
              0.0
            ],
            [
              88.13477213225136,
              27.88204695201935,
              0.0
            ]
          ]
        ]
      }
    }
  ],
  "properties": {
    "site_id": "south-lhonak",
    "observation_date": "2017-10-15",
    "version": "phase-2-retreat-v1.0"
  }
}