{
  "type": "FeatureCollection",
  "features": [
    {
      "type": "Feature",
      "properties": {
        "site_id": "south-lhonak",
        "glacier_id": "RGI2000-v7.0-G-15-07986",
        "observation_date": "2018-10-15",
        "area_km2": 13.986,
        "area_2016_km2": 14.26,
        "scale_factor": 0.9903,
        "source": "Phase 2 GeoAI derived boundary (versioned, reviewed) \u2014 scaled from RGI 2000 baseline by measured area change; confidence + image-quality documented in measurements.ts",
        "source_id": "phase-2-geoai-v1.0",
        "processing_version": "phase-2-retreat-v1.0",
        "crs": "EPSG:4326",
        "status": "approved",
        "boundary_asset": "data/derived/phase2/boundaries/south-lhonak/2018-10-15.geojson"
      },
      "geometry": {
        "type": "Polygon",
        "coordinates": [
          [
            [
              88.13487504283475,
              27.88211639078457,
              0.0
            ],
            [
              88.13502557544317,
              27.882441224308014,
              0.0
            ],
            [
              88.13538210004207,
              27.88295719463031,
              0.0
            ],
            [
              88.13573664394875,
              27.883369178611265,
              0.0
            ],
            [
              88.13597531736079,
              27.88388613927967,
              0.0
            ],
            [
              88.13632986126748,
              27.88429911360673,
              0.0
            ],
            [
              88.1365675443334,
              27.88471208793379,
              0.0
            ],
            [
              88.13680621774546,
              27.885125062260848,
              0.0
            ],
            [
              88.13704390081139,
              27.885538036587906,
              0.0
            ],
            [
              88.13693199170118,
              27.886057968294637,
              0.0
            ],
            [
              88.13693793377783,
              27.88657690965526,
              0.0
            ],
            [
              88.13670817348077,
              27.886993845366753,
              0.0
            ],
            [
              88.13659725471666,
              27.887513777073483,
              0.0
            ],
            [
              88.13636749441959,
              27.887930712784975,
              0.0
            ],
            [
              88.1362565756555,
              27.888450644491705,
              0.0
            ],
            [
              88.13626152738603,
              27.88896958585233,
              0.0
            ],
            [
              88.13615060862193,
              27.88948852721295,
              0.0
            ],
            [
              88.13615556035246,
              27.89000746857357,
              0.0
            ],
            [
              88.13592679040151,
              27.890424404285067,
              0.0
            ],
            [
              88.13581488129128,
              27.890944335991797,
              0.0
            ],
            [
              88.13558611134033,
              27.89136127170329,
              0.0
            ],
            [
              88.13535833173549,
              27.891882193756125,
              0.0
            ],
            [
              88.13524642262526,
              27.892402125462855,
              0.0
            ],
            [
              88.13513550386116,
              27.892922057169585,
              0.0
            ],
            [
              88.13490673391021,
              27.893442979222424,
              0.0
            ],
            [
              88.13467895430536,
              27.893962910929154,
              0.0
            ],
            [
              88.13444919400827,
              27.894380836986755,
              0.0
            ],
            [
              88.13422042405732,
              27.894797772698247,
              0.0
            ],
            [
              88.1338738029195,
              27.895215698755848,
              0.0
            ],
            [
              88.13376288415539,
              27.89573464011647,
              0.0
            ],
            [
              88.13341725336367,
              27.89615256617407,
              0.0
            ],
            [
              88.13318749306661,
              27.89657049223167,
              0.0
            ],
            [
              88.13295872311565,
              27.896987427943163,
              0.0
            ],
            [
              88.13272896281859,
              27.897404363654655,
              0.0
            ],
            [
              88.13250118321373,
              27.897924295361385,
              0.0
            ],
            [
              88.13203671088905,
              27.898240215769853,
              0.0
            ],
            [
              88.13157421925659,
              27.898659132173563,
              0.0
            ],
            [
              88.13111073727802,
              27.89907804857727,
              0.0
            ],
            [
              88.13064824564556,
              27.89949696498098,
              0.0
            ],
            [
              88.13018278297477,
              27.899707908701995,
              0.0
            ],
            [
              88.12983715218306,
              27.900125834759596,
              0.0
            ],
            [
              88.12949053104524,
              27.900543760817197,
              0.0
            ],
            [
              88.12926176109427,
              27.90096069652869,
              0.0
            ],
            [
              88.12915975544514,
              27.901052798716737,
              0.0
            ],
            [
              88.12917560098286,
              27.90120927340181,
              0.0
            ],
            [
              88.1292399734799,
              27.901773770683405,
              0.0
            ],
            [
              88.12930335563081,
              27.902389765962617,
              0.0
            ],
            [
              88.12930830736136,
              27.90285225759508,
              0.0
            ],
            [
              88.129314249438,
              27.903366247225158,
              0.0
            ],
            [
              88.12920333067389,
              27.903829729203732,
              0.0
            ],
            [
              88.12909439260201,
              27.904499203172776,
              0.0
            ],
            [
              88.12909934433256,
              27.90496169480524,
              0.0
            ],
            [
              88.12921917621162,
              27.905423196091597,
              0.0
            ],
            [
              88.12951330900572,
              27.905831218688114,
              0.0
            ],
            [
              88.12969157130517,
              27.90629271997447,
              0.0
            ],
            [
              88.1301005842478,
              27.90670074257099,
              0.0
            ],
            [
              88.13050860684433,
              27.907005769172272,
              0.0
            ],
            [
              88.1308017492923,
              27.907413791768793,
              0.0
            ],
            [
              88.13138308245773,
              27.907666330026345,
              0.0
            ],
            [
              88.13184854512852,
              27.90786836063239,
              0.0
            ],
            [
              88.13242789760173,
              27.907966404897085,
              0.0
            ],
            [
              88.13291712857912,
              27.908040680855194,
              0.0
            ],
            [
              88.13317857995163,
              27.908334813649287,
              0.0
            ],
            [
              88.13365988816015,
              27.908520008371493,
              0.0
            ],
            [
              88.1341936847124,
              27.908610129867323,
              0.0
            ],
            [
              88.13472748126463,
              27.908747787976345,
              0.0
            ],
            [
              88.13526127781688,
              27.90883790947218,
              0.0
            ],
            [
              88.13579408402302,
              27.908928030968013,
              0.0
            ],
            [
              88.13627539223154,
              27.909065689077032,
              0.0
            ],
            [
              88.13675571009394,
              27.90920334718605,
              0.0
            ],
            [
              88.13723701830247,
              27.909436078521445,
              0.0
            ],
            [
              88.13771832651098,
              27.909574726976576,
              0.0
            ],
            [
              88.13819963471948,
              27.90975992169878,
              0.0
            ],
            [
              88.1386799525819,
              27.909945116420985,
              0.0
            ],
            [
              88.13916225113653,
              27.91022439402346,
              0.0
            ],
            [
              88.13969505734266,
              27.910267969252214,
              0.0
            ],
            [
              88.14022786354879,
              27.910215480908487,
              0.0
            ],
            [
              88.14075967940883,
              27.910211519524058,
              0.0
            ],
            [
              88.1413449739587,
              27.910159031180328,
              0.0
            ],
            [
              88.14182232078277,
              27.910013450302444,
              0.0
            ],
            [
              88.14230065795296,
              27.90986786942456,
              0.0
            ],
            [
              88.14283247381299,
              27.90981538108083,
              0.0
            ],
            [
              88.14330982063707,
              27.90966980020295,
              0.0
            ],
            [
              88.14378716746116,
              27.909476682711876,
              0.0
            ],
            [
              88.14426550463133,
              27.909331101833992,
              0.0
            ],
            [
              88.14463391338354,
              27.908996364849468,
              0.0
            ],
            [
              88.14489635510219,
              27.90856853533079,
              0.0
            ],
            [
              88.1449973704052,
              27.908095149891135,
              0.0
            ],
            [
              88.14531329081366,
              27.907713866639533,
              0.0
            ],
            [
              88.14562822087603,
              27.907332583387934,
              0.0
            ],
            [
              88.14562822087603,
              27.907285046774746,
              0.0
            ],
            [
              88.1467423602476,
              27.90694535805968,
              0.0
            ],
            [
              88.1472206974178,
              27.90679878683569,
              0.0
            ],
            [
              88.14775152293171,
              27.906699752224885,
              0.0
            ],
            [
              88.1482298601019,
              27.906554171346997,
              0.0
            ],
            [
              88.14870720692598,
              27.906408590469116,
              0.0
            ],
            [
              88.14918356340397,
              27.90612039975167,
              0.0
            ],
            [
              88.1496064411921,
              27.905833199380332,
              0.0
            ],
            [
              88.15013825705212,
              27.905734164769527,
              0.0
            ],
            [
              88.15067007291215,
              27.905730203385094,
              0.0
            ],
            [
              88.15120287911829,
              27.90572525165455,
              0.0
            ],
            [
              88.15173469497832,
              27.90572129027012,
              0.0
            ],
            [
              88.15226750118445,
              27.90571633853958,
              0.0
            ],
            [
              88.15280030739059,
              27.905712377155147,
              0.0
            ],
            [
              88.15333311359672,
              27.905754962037797,
              0.0
            ],
            [
              88.15386492945676,
              27.905750010307255,
              0.0
            ],
            [
              88.15434623766527,
              27.90593520502946,
              0.0
            ],
            [
              88.15477505753006,
              27.906215472978044,
              0.0
            ],
            [
              88.15509890070739,
              27.906591804499104,
              0.0
            ],
            [
              88.1555802089159,
              27.90682354548839,
              0.0
            ],
            [
              88.1560100191268,
              27.90710381343697,
              0.0
            ],
            [
              88.15643883899159,
              27.90738408138555,
              0.0
            ],
            [
              88.15692113754622,
              27.90766434933413,
              0.0
            ],
            [
              88.15740244575473,
              27.90784954405634,
              0.0
            ],
            [
              88.15788276361714,
              27.908034738778547,
              0.0
            ],
            [
              88.15836506217177,
              27.908266479767832,
              0.0
            ],
            [
              88.15879388203655,
              27.90854674771641,
              0.0
            ],
            [
              88.15927519024507,
              27.908779479051805,
              0.0
            ],
            [
              88.1593286689349,
              27.908779479051805,
              0.0
            ],
            [
              88.16013183962853,
              27.909150858842324,
              0.0
            ],
            [
              88.16061215749095,
              27.909288516951346,
              0.0
            ],
            [
              88.16109247535336,
              27.909426175060364,
              0.0
            ],
            [
              88.16157378356186,
              27.909564823515492,
              0.0
            ],
            [
              88.162106589768,
              27.909607408398138,
              0.0
            ],
            [
              88.16263939597414,
              27.909649993280787,
              0.0
            ],
            [
              88.16317220218026,
              27.909646031896354,
              0.0
            ],
            [
              88.1637040180403,
              27.909641080165812,
              0.0
            ],
            [
              88.16423682424643,
              27.909636128435274,
              0.0
            ],
            [
              88.16476963045257,
              27.90963216705084,
              0.0
            ],
            [
              88.16535591534854,
              27.909674751933487,
              0.0
            ],
            [
              88.16588773120856,
              27.90966980020295,
              0.0
            ],
            [
              88.1664205374147,
              27.909665838818515,
              0.0
            ],
            [
              88.16695334362085,
              27.909660887087973,
              0.0
            ],
            [
              88.16748515948086,
              27.909655935357435,
              0.0
            ],
            [
              88.168017965687,
              27.909651973973002,
              0.0
            ],
            [
              88.16854978154703,
              27.90964702224246,
              0.0
            ],
            [
              88.16908357809928,
              27.90969059747122,
              0.0
            ],
            [
              88.16956488630778,
              27.909874801847316,
              0.0
            ],
            [
              88.17009868286003,
              27.910012459956338,
              0.0
            ],
            [
              88.17052750272482,
              27.910292727904917,
              0.0
            ],
            [
              88.17100881093333,
              27.91052545924031,
              0.0
            ],
            [
              88.17154458817778,
              27.910757200229593,
              0.0
            ],
            [
              88.17207739438393,
              27.910847321725427,
              0.0
            ],
            [
              88.172664669626,
              27.910936452875152,
              0.0
            ],
            [
              88.17314498748841,
              27.91107510133028,
              0.0
            ],
            [
              88.17362629569693,
              27.911260296052486,
              0.0
            ],
            [
              88.17415910190306,
              27.911302880935136,
              0.0
            ],
            [
              88.17458792176785,
              27.911583148883715,
              0.0
            ],
            [
              88.17506922997637,
              27.91176834360592,
              0.0
            ],
            [
              88.17555152853099,
              27.912000084595206,
              0.0
            ],
            [
              88.17603283673951,
              27.9122328159306,
              0.0
            ],
            [
              88.17651513529414,
              27.912465547265995,
              0.0
            ],
            [
              88.17699644350265,
              27.912649751642093,
              0.0
            ],
            [
              88.17747874205727,
              27.91293001959067,
              0.0
            ],
            [
              88.1780115482634,
              27.91297260447332,
              0.0
            ],
            [
              88.17854534481565,
              27.91311026258234,
              0.0
            ],
            [
              88.17902665302415,
              27.913247920691358,
              0.0
            ],
            [
              88.17950697088658,
              27.91338557880038,
              0.0
            ],
            [
              88.18004076743881,
              27.913475700296214,
              0.0
            ],
            [
              88.18057357364495,
              27.913518285178856,
              0.0
            ],
            [
              88.18110637985109,
              27.913560870061506,
              0.0
            ],
            [
              88.18164017640332,
              27.91365099155734,
              0.0
            ],
            [
              88.18217397295557,
              27.91378864966636,
              0.0
            ],
            [
              88.18265429081798,
              27.913926307775377,
              0.0
            ],
            [
              88.18318808737023,
              27.913968892658026,
              0.0
            ],
            [
              88.18372089357636,
              27.91401147754067,
              0.0
            ],
            [
              88.18420121143878,
              27.91414913564969,
              0.0
            ],
            [
              88.18468251964728,
              27.914334330371897,
              0.0
            ],
            [
              88.18516481820191,
              27.91456706170729,
              0.0
            ],
            [
              88.18564513606432,
              27.914704719816314,
              0.0
            ],
            [
              88.18617794227045,
              27.914747304698956,
              0.0
            ],
            [
              88.18671074847659,
              27.914789889581606,
              0.0
            ],
            [
              88.18691971150538,
              27.914694816355233,
              0.0
            ],
            [
              88.18733268583244,
              27.914694816355233,
              0.0
            ],
            [
              88.18868351792383,
              27.914962209804408,
              0.0
            ],
            [
              88.18926980281981,
              27.915004794687054,
              0.0
            ],
            [
              88.18980161867982,
              27.914999842956515,
              0.0
            ],
            [
              88.19033541523207,
              27.915042427839158,
              0.0
            ],
            [
              88.19086822143821,
              27.915132549334995,
              0.0
            ],
            [
              88.19140201799046,
              27.915175134217638,
              0.0
            ],
            [
              88.19193383385048,
              27.915171172833205,
              0.0
            ],
            [
              88.19246664005662,
              27.915166221102666,
              0.0
            ],
            [
              88.19283603915493,
              27.914831484118142,
              0.0
            ],
            [
              88.19283009707827,
              27.9143590890246,
              0.0
            ],
            [
              88.19325297486643,
              27.914070898307155,
              0.0
            ],
            [
              88.1937313120366,
              27.913925317429268,
              0.0
            ],
            [
              88.19409972078881,
              27.913590580444748,
              0.0
            ],
            [
              88.1943086838176,
              27.913163741272175,
              0.0
            ],
            [
              88.19435622043079,
              27.91269035583252,
              0.0
            ],
            [
              88.19424431132057,
              27.912217960738978,
              0.0
            ],
            [
              88.19423935959004,
              27.91174457529933,
              0.0
            ],
            [
              88.1942344078595,
              27.911272180205785,
              0.0
            ],
            [
              88.19422945612897,
              27.910798794766134,
              0.0
            ],
            [
              88.19390561295162,
              27.91042345359118,
              0.0
            ],
            [
              88.1935817697743,
              27.910048112416224,
              0.0
            ],
            [
              88.1931529499095,
              27.909767844467645,
              0.0
            ],
            [
              88.19267164170098,
              27.90958264974544,
              0.0
            ],
            [
              88.19218934314637,
              27.909349918410044,
              0.0
            ],
            [
              88.19213685480263,
              27.909350908756153,
              0.0
            ],
            [
              88.19091080632084,
              27.90926672933697,
              0.0
            ],
            [
              88.19037800011472,
              27.90927168106751,
              0.0
            ],
            [
              88.18984618425469,
              27.90927564245194,
              0.0
            ],
            [
              88.18931337804857,
              27.909280594182484,
              0.0
            ],
            [
              88.18878057184241,
              27.909238009299834,
              0.0
            ],
            [
              88.18819428694646,
              27.909195424417184,
              0.0
            ],
            [
              88.18766049039421,
              27.909105302921354,
              0.0
            ],
            [
              88.1871801725318,
              27.908967644812336,
              0.0
            ],
            [
              88.18669886432329,
              27.908829986703314,
              0.0
            ],
            [
              88.18616506777104,
              27.90869232859429,
              0.0
            ],
            [
              88.18568474990863,
              27.908554670485277,
              0.0
            ],
            [
              88.1851519437025,
              27.908512085602627,
              0.0
            ],
            [
              88.18461814715026,
              27.90837442749361,
              0.0
            ],
            [
              88.18413584859563,
              27.908142686504323,
              0.0
            ],
            [
              88.18370702873085,
              27.907862418555744,
              0.0
            ],
            [
              88.18322572052233,
              27.907724760446722,
              0.0
            ],
            [
              88.18274540265993,
              27.9075871023377,
              0.0
            ],
            [
              88.18236907113887,
              27.907259297775934,
              0.0
            ],
            [
              88.18194025127407,
              27.906979029827355,
              0.0
            ],
            [
              88.18151044106317,
              27.906651225265588,
              0.0
            ],
            [
              88.18102913285466,
              27.90646603054338,
              0.0
            ],
            [
              88.18054881499226,
              27.90632837243436,
              0.0
            ],
            [
              88.18001402809391,
              27.906144168058262,
              0.0
            ],
            [
              88.17996054940406,
              27.906144168058262,
              0.0
            ],
            [
              88.17851761512462,
              27.905588583891642,
              0.0
            ],
            [
              88.17808780491373,
              27.90530930628917,
              0.0
            ],
            [
              88.17760649670521,
              27.905076574953778,
              0.0
            ],
            [
              88.17717767684043,
              27.904796307005196,
              0.0
            ],
            [
              88.17685383366309,
              27.90442096583024,
              0.0
            ],
            [
              88.17663595751932,
              27.903997097695992,
              0.0
            ],
            [
              88.17641907172165,
              27.903573229561744,
              0.0
            ],
            [
              88.17625467426771,
              27.90314837108139,
              0.0
            ],
            [
              88.17609027681378,
              27.90272450294714,
              0.0
            ],
            [
              88.17592587935984,
              27.902299644466783,
              0.0
            ],
            [
              88.17592092762929,
              27.901827249373238,
              0.0
            ],
            [
              88.17575653017536,
              27.901402390892883,
              0.0
            ],
            [
              88.17559114237531,
              27.900930986145447,
              0.0
            ],
            [
              88.17532077788782,
              27.9005071180112,
              0.0
            ],
            [
              88.1750494230542,
              27.900084240223055,
              0.0
            ],
            [
              88.17502664509372,
              27.90005750087814,
              0.0
            ],
            [
              88.1753554400016,
              27.90000600288052,
              0.0
            ],
            [
              88.17587933309277,
              27.899845566811017,
              0.0
            ],
            [
              88.17649235733364,
              27.89984061508048,
              0.0
            ],
            [
              88.17693405169784,
              27.900148612720084,
              0.0
            ],
            [
              88.17737475571593,
              27.90037837301715,
              0.0
            ],
            [
              88.17789864880709,
              27.900217936947644,
              0.0
            ],
            [
              88.17798084753406,
              27.899750493584644,
              0.0
            ],
            [
              88.17803135518557,
              27.8994623028672,
              0.0
            ],
            [
              88.17815118706464,
              27.89928205987553,
              0.0
            ],
            [
              88.17840966739885,
              27.89889087316285,
              0.0
            ],
            [
              88.17875628853666,
              27.89849869610406,
              0.0
            ],
            [
              88.17910191932837,
              27.898106519045268,
              0.0
            ],
            [
              88.17927225885897,
              27.897638085336155,
              0.0
            ],
            [
              88.1790048654098,
              27.897250860007905,
              0.0
            ],
            [
              88.17882462241812,
              27.89678539733712,
              0.0
            ],
            [
              88.17881967068757,
              27.89631894432022,
              0.0
            ],
            [
              88.17872756849954,
              27.89585249130333,
              0.0
            ],
            [
              88.17846017505036,
              27.89546526597508,
              0.0
            ],
            [
              88.17801947103227,
              27.89523550567801,
              0.0
            ],
            [
              88.1775787670142,
              27.89500574538094,
              0.0
            ],
            [
              88.17696376208107,
              27.894777965776086,
              0.0
            ],
            [
              88.17634776680187,
              27.894549195825125,
              0.0
            ],
            [
              88.17619030177069,
              27.894470958482586,
              0.0
            ],
            [
              88.17614474584971,
              27.8940054958118,
              0.0
            ],
            [
              88.17601005877901,
              27.89354696556377,
              0.0
            ],
            [
              88.17597044493469,
              27.89347070891345,
              0.0
            ],
            [
              88.1762536839216,
              27.89321519961757,
              0.0
            ],
            [
              88.17598232908799,
              27.892791331483323,
              0.0
            ],
            [
              88.17565947625677,
              27.89241599030837,
              0.0
            ],
            [
              88.17544160011299,
              27.89199212217412,
              0.0
            ],
            [
              88.17506526859194,
              27.891664317612353,
              0.0
            ],
            [
              88.17484739244817,
              27.891240449478104,
              0.0
            ],
            [
              88.17473647368406,
              27.89076805438456,
              0.0
            ],
            [
              88.17467804326368,
              27.890295659291017,
              0.0
            ],
            [
              88.17467705291757,
              27.89024812267783,
              0.0
            ],
            [
              88.1745582113846,
              27.889114176384105,
              0.0
            ],
            [
              88.17460673834391,
              27.888640790944454,
              0.0
            ],
            [
              88.17460178661337,
              27.888167405504802,
              0.0
            ],
            [
              88.17454137550078,
              27.887910905862814,
              0.0
            ],
            [
              88.17465328461098,
              27.88776631533104,
              0.0
            ],
            [
              88.17487908352362,
              27.88758508199326,
              0.0
            ],
            [
              88.17442649535224,
              27.887588053031585,
              0.0
            ],
            [
              88.17384219114848,
              27.887593004762127,
              0.0
            ],
            [
              88.17325788694474,
              27.887494960497428,
              0.0
            ],
            [
              88.17255672190024,
              27.88750090257408,
              0.0
            ],
            [
              88.17185456650961,
              27.88740285830938,
              0.0
            ],
            [
              88.17127026230585,
              27.887303823698574,
              0.0
            ],
            [
              88.17080083825064,
              27.887100802746424,
              0.0
            ],
            [
              88.17021653404689,
              27.887105754476963,
              0.0
            ],
            [
              88.16963123949702,
              27.887006719866157,
              0.0
            ],
            [
              88.16904693529327,
              27.886907685255352,
              0.0
            ],
            [
              88.16857751123806,
              27.8867046643032,
              0.0
            ],
            [
              88.16799221668819,
              27.886605629692394,
              0.0
            ],
            [
              88.16740692213833,
              27.88650659508159,
              0.0
            ],
            [
              88.16693749808312,
              27.88630258378333,
              0.0
            ],
            [
              88.16635121318714,
              27.886100553177286,
              0.0
            ],
            [
              88.16564905779653,
              27.885898522571242,
              0.0
            ],
            [
              88.16506376324666,
              27.885799487960437,
              0.0
            ],
            [
              88.16447945904291,
              27.885804439690975,
              0.0
            ],
            [
              88.16389416449304,
              27.88560240908493,
              0.0
            ],
            [
              88.1633088699432,
              27.885503374474126,
              0.0
            ],
            [
              88.16272357539333,
              27.88540433986332,
              0.0
            ],
            [
              88.16213828084346,
              27.885305305252515,
              0.0
            ],
            [
              88.16155397663971,
              27.88520726098782,
              0.0
            ],
            [
              88.16096769174374,
              27.885004240035666,
              0.0
            ],
            [
              88.16014768516627,
              27.88480319977573,
              0.0
            ],
            [
              88.1595623906164,
              27.884705155511035,
              0.0
            ],
            [
              88.1590939569073,
              27.884501144212773,
              0.0
            ],
            [
              88.15850866235743,
              27.884402109601968,
              0.0
            ],
            [
              88.15792336780757,
              27.88430307499116,
              0.0
            ],
            [
              88.15745295340623,
              27.883996067697662,
              0.0
            ],
            [
              88.15698352935102,
              27.8837920563994,
              0.0
            ],
            [
              88.15639823480116,
              27.883694012134704,
              0.0
            ],
            [
              88.15581194990519,
              27.883387004841207,
              0.0
            ],
            [
              88.15522566500923,
              27.883184974235164,
              0.0
            ],
            [
              88.15475525060789,
              27.882876976595558,
              0.0
            ],
            [
              88.15428384586046,
              27.882465982960714,
              0.0
            ],
            [
              88.15381343145913,
              27.882158975667213,
              0.0
            ],
            [
              88.15345789720634,
              27.881746991686263,
              0.0
            ],
            [
              88.152987482805,
              27.881438994046658,
              0.0
            ],
            [
              88.15251706840368,
              27.88113198675316,
              0.0
            ],
            [
              88.15204665400235,
              27.880823989113555,
              0.0
            ],
            [
              88.15145838841417,
              27.880413985824816,
              0.0
            ],
            [
              88.15098698366673,
              27.880002992189972,
              0.0
            ],
            [
              88.1505155789193,
              27.879591998555128,
              0.0
            ],
            [
              88.15004516451796,
              27.879284000915522,
              0.0
            ],
            [
              88.1496906206113,
              27.878872016934576,
              0.0
            ],
            [
              88.1493360767046,
              27.878460032953623,
              0.0
            ],
            [
              88.14909839363867,
              27.878047058626564,
              0.0
            ],
            [
              88.14874285938588,
              27.87763507464561,
              0.0
            ],
            [
              88.14881020292123,
              27.87732311562157,
              0.0
            ],
            [
              88.14873988834755,
              27.87732410596768,
              0.0
            ],
            [
              88.1481565744899,
              27.877328067352114,
              0.0
            ],
            [
              88.14757326063226,
              27.877437005424,
              0.0
            ],
            [
              88.14699093712072,
              27.877545943495882,
              0.0
            ],
            [
              88.14640762326307,
              27.877653891221662,
              0.0
            ],
            [
              88.1459431509384,
              27.877865825288787,
              0.0
            ],
            [
              88.14547867861371,
              27.87818075535115,
              0.0
            ],
            [
              88.1448983357944,
              27.878496675759617,
              0.0
            ],
            [
              88.14431700262897,
              27.87870960017285,
              0.0
            ],
            [
              88.14373467911743,
              27.878921534239975,
              0.0
            ],
            [
              88.14315136525978,
              27.878926485970517,
              0.0
            ],
            [
              88.14256706105603,
              27.878931437701056,
              0.0
            ],
            [
              88.14198374719838,
              27.878936389431598,
              0.0
            ],
            [
              88.14139845264852,
              27.878837354820792,
              0.0
            ],
            [
              88.14081315809865,
              27.878738320209987,
              0.0
            ],
            [
              88.1402288538949,
              27.87863928559918,
              0.0
            ],
            [
              88.13964355934503,
              27.878540250988376,
              0.0
            ],
            [
              88.13906222617962,
              27.87875317540161,
              0.0
            ],
            [
              88.13859775385494,
              27.879068105463972,
              0.0
            ],
            [
              88.13813526222248,
              27.87948702186768,
              0.0
            ],
            [
              88.13778963143076,
              27.879904947925276,
              0.0
            ],
            [
              88.13744301029294,
              27.880322873982877,
              0.0
            ],
            [
              88.13698051866048,
              27.880741790386587,
              0.0
            ],
            [
              88.1365170366819,
              27.88105672044895,
              0.0
            ],
            [
              88.13605355470332,
              27.881475636852656,
              0.0
            ],
            [
              88.13559007272475,
              27.881791557261128,
              0.0
            ],
            [
              88.13512461005398,
              27.882002500982143,
              0.0
            ],
            [
              88.13487504283475,
              27.88211639078457,
              0.0
            ]
          ]
        ]
      }
    }
  ],
  "properties": {
    "site_id": "south-lhonak",
    "observation_date": "2018-10-15",
    "version": "phase-2-retreat-v1.0"
  }
}