{
  "type": "FeatureCollection",
  "features": [
    {
      "type": "Feature",
      "properties": {
        "site_id": "south-lhonak",
        "glacier_id": "RGI2000-v7.0-G-15-07986",
        "observation_date": "2019-10-15",
        "area_km2": 13.818,
        "area_2016_km2": 14.26,
        "scale_factor": 0.9844,
        "source": "Phase 2 GeoAI derived boundary (versioned, reviewed) \u2014 scaled from RGI 2000 baseline by measured area change; confidence + image-quality documented in measurements.ts",
        "source_id": "phase-2-geoai-v1.0",
        "processing_version": "phase-2-retreat-v1.0",
        "crs": "EPSG:4326",
        "status": "approved",
        "boundary_asset": "data/derived/phase2/boundaries/south-lhonak/2019-10-15.geojson"
      },
      "geometry": {
        "type": "Polygon",
        "coordinates": [
          [
            [
              88.13503018443261,
              27.8822210723502,
              0.0
            ],
            [
              88.13517981020985,
              27.882543949027383,
              0.0
            ],
            [
              88.13553418705065,
              27.883056811066442,
              0.0
            ],
            [
              88.13588659513123,
              27.8834663131936,
              0.0
            ],
            [
              88.13612383073854,
              27.883980159612772,
              0.0
            ],
            [
              88.13647623881913,
              27.884390646120043,
              0.0
            ],
            [
              88.13671249004634,
              27.884801132627313,
              0.0
            ],
            [
              88.13694972565365,
              27.885211619134584,
              0.0
            ],
            [
              88.13718597688086,
              27.885622105641854,
              0.0
            ],
            [
              88.13707474192806,
              27.886138905201364,
              0.0
            ],
            [
              88.13708064820874,
              27.886654720380765,
              0.0
            ],
            [
              88.13685227202244,
              27.88706914440849,
              0.0
            ],
            [
              88.13674202144975,
              27.887585943968002,
              0.0
            ],
            [
              88.13651364526345,
              27.888000367995723,
              0.0
            ],
            [
              88.13640339469075,
              27.888517167555236,
              0.0
            ],
            [
              88.13640831659131,
              27.889032982734637,
              0.0
            ],
            [
              88.13629806601863,
              27.889548797914035,
              0.0
            ],
            [
              88.1363029879192,
              27.890064613093433,
              0.0
            ],
            [
              88.136075596113,
              27.89047903712116,
              0.0
            ],
            [
              88.13596436116018,
              27.890995836680673,
              0.0
            ],
            [
              88.135736969354,
              27.891410260708394,
              0.0
            ],
            [
              88.13551056192793,
              27.891928044648022,
              0.0
            ],
            [
              88.13539932697512,
              27.892444844207535,
              0.0
            ],
            [
              88.13528907640243,
              27.89296164376705,
              0.0
            ],
            [
              88.13506168459624,
              27.893479427706673,
              0.0
            ],
            [
              88.13483527717017,
              27.893996227266186,
              0.0
            ],
            [
              88.13460690098385,
              27.89441163567402,
              0.0
            ],
            [
              88.13437950917768,
              27.894826059701746,
              0.0
            ],
            [
              88.134034976138,
              27.89524146810958,
              0.0
            ],
            [
              88.13392472556531,
              27.89575728328898,
              0.0
            ],
            [
              88.13358117690575,
              27.89617269169682,
              0.0
            ],
            [
              88.13335280071945,
              27.896588100104655,
              0.0
            ],
            [
              88.13312540891326,
              27.89700252413238,
              0.0
            ],
            [
              88.13289703272697,
              27.8974169481601,
              0.0
            ],
            [
              88.13267062530089,
              27.897933747719613,
              0.0
            ],
            [
              88.13220895102774,
              27.898247764975775,
              0.0
            ],
            [
              88.1317492455148,
              27.898664157763726,
              0.0
            ],
            [
              88.13128855562175,
              27.899080550551677,
              0.0
            ],
            [
              88.13082885010881,
              27.899496943339628,
              0.0
            ],
            [
              88.13036619145552,
              27.89970661630377,
              0.0
            ],
            [
              88.13002264279596,
              27.900122024711607,
              0.0
            ],
            [
              88.12967810975628,
              27.900537433119446,
              0.0
            ],
            [
              88.1294507179501,
              27.900951857147167,
              0.0
            ],
            [
              88.12934932679843,
              27.90104340449771,
              0.0
            ],
            [
              88.12936507688023,
              27.901198936555623,
              0.0
            ],
            [
              88.1294290615876,
              27.901760033220235,
              0.0
            ],
            [
              88.12949206191486,
              27.902372317650745,
              0.0
            ],
            [
              88.12949698381543,
              27.902832023163683,
              0.0
            ],
            [
              88.1295028900961,
              27.90334291644251,
              0.0
            ],
            [
              88.1293926395234,
              27.903803606335565,
              0.0
            ],
            [
              88.12928435771094,
              27.904469047292192,
              0.0
            ],
            [
              88.12928927961151,
              27.90492875280513,
              0.0
            ],
            [
              88.12940838960522,
              27.90538747393796,
              0.0
            ],
            [
              88.1297007504989,
              27.905793038544658,
              0.0
            ],
            [
              88.1298779389193,
              27.906251759677485,
              0.0
            ],
            [
              88.13028448790611,
              27.906657324284186,
              0.0
            ],
            [
              88.13069005251282,
              27.906960513359103,
              0.0
            ],
            [
              88.13098142902636,
              27.907366077965808,
              0.0
            ],
            [
              88.13155926015291,
              27.90761709489471,
              0.0
            ],
            [
              88.13202191880619,
              27.90781790843784,
              0.0
            ],
            [
              88.1325977811725,
              27.90791536206906,
              0.0
            ],
            [
              88.1330840649485,
              27.907989190577563,
              0.0
            ],
            [
              88.13334394129842,
              27.90828155147123,
              0.0
            ],
            [
              88.13382235003353,
              27.908465630552428,
              0.0
            ],
            [
              88.13435293091463,
              27.90855520914274,
              0.0
            ],
            [
              88.13488351179572,
              27.908692037978497,
              0.0
            ],
            [
              88.13541409267681,
              27.908781616568813,
              0.0
            ],
            [
              88.13594368917781,
              27.908871195159133,
              0.0
            ],
            [
              88.1364220979129,
              27.909008023994886,
              0.0
            ],
            [
              88.13689952226787,
              27.909144852830643,
              0.0
            ],
            [
              88.13737793100297,
              27.90937618215728,
              0.0
            ],
            [
              88.13785633973806,
              27.909513995373153,
              0.0
            ],
            [
              88.13833474847314,
              27.909698074454347,
              0.0
            ],
            [
              88.13881217282812,
              27.909882153535545,
              0.0
            ],
            [
              88.13929156594334,
              27.910159748727516,
              0.0
            ],
            [
              88.13982116244432,
              27.910203061452503,
              0.0
            ],
            [
              88.1403507589453,
              27.910150889306493,
              0.0
            ],
            [
              88.14087937106619,
              27.910146951786043,
              0.0
            ],
            [
              88.14146113971319,
              27.910094779640033,
              0.0
            ],
            [
              88.14193561092782,
              27.90995007576337,
              0.0
            ],
            [
              88.14241106652257,
              27.909805371886705,
              0.0
            ],
            [
              88.14293967864343,
              27.909753199740695,
              0.0
            ],
            [
              88.14341414985807,
              27.909608495864035,
              0.0
            ],
            [
              88.14388862107272,
              27.90941654174193,
              0.0
            ],
            [
              88.14436407666746,
              27.909271837865266,
              0.0
            ],
            [
              88.14473026606964,
              27.908939117386954,
              0.0
            ],
            [
              88.14499112679968,
              27.908513865177984,
              0.0
            ],
            [
              88.14509153357125,
              27.908043331483796,
              0.0
            ],
            [
              88.14540555082739,
              27.90766434514015,
              0.0
            ],
            [
              88.14571858370344,
              27.90728535879651,
              0.0
            ],
            [
              88.14571858370344,
              27.90723810855107,
              0.0
            ],
            [
              88.14682601133097,
              27.90690046617219,
              0.0
            ],
            [
              88.14730146692573,
              27.906754777915413,
              0.0
            ],
            [
              88.14782909466649,
              27.906656339904078,
              0.0
            ],
            [
              88.14830455026124,
              27.90651163602741,
              0.0
            ],
            [
              88.14877902147587,
              27.90636693215075,
              0.0
            ],
            [
              88.1492525083104,
              27.906080477537763,
              0.0
            ],
            [
              88.14967283861881,
              27.90579500730489,
              0.0
            ],
            [
              88.15020145073967,
              27.905696569293553,
              0.0
            ],
            [
              88.15073006286055,
              27.9056926317731,
              0.0
            ],
            [
              88.15125965936153,
              27.90568770987253,
              0.0
            ],
            [
              88.1517882714824,
              27.905683772352077,
              0.0
            ],
            [
              88.1523178679834,
              27.905678850451512,
              0.0
            ],
            [
              88.15284746448438,
              27.905674912931058,
              0.0
            ],
            [
              88.15337706098536,
              27.905717241275934,
              0.0
            ],
            [
              88.15390567310625,
              27.905712319375365,
              0.0
            ],
            [
              88.15438408184133,
              27.905896398456562,
              0.0
            ],
            [
              88.15481031843042,
              27.906174978028645,
              0.0
            ],
            [
              88.15513221072749,
              27.90654904247172,
              0.0
            ],
            [
              88.15561061946256,
              27.906779387418243,
              0.0
            ],
            [
              88.15603784043176,
              27.907057966990322,
              0.0
            ],
            [
              88.15646407702086,
              27.907336546562405,
              0.0
            ],
            [
              88.15694347013606,
              27.907615126134488,
              0.0
            ],
            [
              88.15742187887115,
              27.907799205215685,
              0.0
            ],
            [
              88.15789930322613,
              27.907983284296883,
              0.0
            ],
            [
              88.15837869634134,
              27.908213629243406,
              0.0
            ],
            [
              88.15880493293042,
              27.90849220881549,
              0.0
            ],
            [
              88.15928334166551,
              27.908723538142127,
              0.0
            ],
            [
              88.15933649819164,
              27.908723538142127,
              0.0
            ],
            [
              88.16013483046356,
              27.909092680684633,
              0.0
            ],
            [
              88.16061225481855,
              27.90922950952039,
              0.0
            ],
            [
              88.16108967917351,
              27.909366338356147,
              0.0
            ],
            [
              88.1615680879086,
              27.909504151572015,
              0.0
            ],
            [
              88.1620976844096,
              27.909546479916894,
              0.0
            ],
            [
              88.1626272809106,
              27.90958880826177,
              0.0
            ],
            [
              88.16315687741157,
              27.909584870741316,
              0.0
            ],
            [
              88.16368548953245,
              27.909579948840747,
              0.0
            ],
            [
              88.16421508603342,
              27.909575026940182,
              0.0
            ],
            [
              88.16474468253442,
              27.909571089419728,
              0.0
            ],
            [
              88.16532743556152,
              27.9096134177646,
              0.0
            ],
            [
              88.1658560476824,
              27.909608495864035,
              0.0
            ],
            [
              88.16638564418338,
              27.90960455834358,
              0.0
            ],
            [
              88.16691524068438,
              27.909599636443012,
              0.0
            ],
            [
              88.16744385280525,
              27.909594714542447,
              0.0
            ],
            [
              88.16797344930623,
              27.909590777021993,
              0.0
            ],
            [
              88.1685020614271,
              27.909585855121424,
              0.0
            ],
            [
              88.16903264230821,
              27.909629167846415,
              0.0
            ],
            [
              88.1695110510433,
              27.9098122625475,
              0.0
            ],
            [
              88.17004163192439,
              27.909949091383258,
              0.0
            ],
            [
              88.17046786851348,
              27.910227670955337,
              0.0
            ],
            [
              88.17094627724858,
              27.910459000281975,
              0.0
            ],
            [
              88.1714788268899,
              27.9106893452285,
              0.0
            ],
            [
              88.17200842339089,
              27.910778923818818,
              0.0
            ],
            [
              88.1725921607981,
              27.91086751802902,
              0.0
            ],
            [
              88.17306958515307,
              27.911005331244887,
              0.0
            ],
            [
              88.17354799388818,
              27.911189410326084,
              0.0
            ],
            [
              88.17407759038916,
              27.911231738670963,
              0.0
            ],
            [
              88.17450382697824,
              27.911510318243042,
              0.0
            ],
            [
              88.17498223571334,
              27.91169439732424,
              0.0
            ],
            [
              88.17546162882854,
              27.911924742270763,
              0.0
            ],
            [
              88.17594003756362,
              27.912156071597405,
              0.0
            ],
            [
              88.17641943067883,
              27.912387400924043,
              0.0
            ],
            [
              88.17689783941393,
              27.912570495625125,
              0.0
            ],
            [
              88.17737723252914,
              27.912849075197204,
              0.0
            ],
            [
              88.17790682903012,
              27.912891403542083,
              0.0
            ],
            [
              88.17843740991123,
              27.91302823237784,
              0.0
            ],
            [
              88.1789158186463,
              27.913165061213594,
              0.0
            ],
            [
              88.1793932430013,
              27.91330189004935,
              0.0
            ],
            [
              88.17992382388239,
              27.913391468639666,
              0.0
            ],
            [
              88.18045342038337,
              27.91343379698454,
              0.0
            ],
            [
              88.18098301688437,
              27.913476125329417,
              0.0
            ],
            [
              88.18151359776546,
              27.913565703919733,
              0.0
            ],
            [
              88.18204417864656,
              27.913702532755487,
              0.0
            ],
            [
              88.18252160300153,
              27.913839361591243,
              0.0
            ],
            [
              88.18305218388264,
              27.91388168993612,
              0.0
            ],
            [
              88.18358178038363,
              27.91392401828099,
              0.0
            ],
            [
              88.1840592047386,
              27.91406084711675,
              0.0
            ],
            [
              88.1845376134737,
              27.91424492619795,
              0.0
            ],
            [
              88.18501700658891,
              27.914476255524587,
              0.0
            ],
            [
              88.18549443094388,
              27.914613084360344,
              0.0
            ],
            [
              88.18602402744486,
              27.914655412705216,
              0.0
            ],
            [
              88.18655362394585,
              27.914697741050094,
              0.0
            ],
            [
              88.18676132814977,
              27.91460324055921,
              0.0
            ],
            [
              88.18717181465705,
              27.91460324055921,
              0.0
            ],
            [
              88.18851450913166,
              27.91486902318982,
              0.0
            ],
            [
              88.18909726215877,
              27.91491135153469,
              0.0
            ],
            [
              88.18962587427964,
              27.914906429634126,
              0.0
            ],
            [
              88.19015645516073,
              27.914948757978998,
              0.0
            ],
            [
              88.19068605166173,
              27.915038336569314,
              0.0
            ],
            [
              88.19121663254283,
              27.915080664914186,
              0.0
            ],
            [
              88.19174524466371,
              27.915076727393732,
              0.0
            ],
            [
              88.19227484116469,
              27.91507180549317,
              0.0
            ],
            [
              88.19264201494697,
              27.914739085014855,
              0.0
            ],
            [
              88.19263610866629,
              27.914269535700782,
              0.0
            ],
            [
              88.1930564389747,
              27.913983081087796,
              0.0
            ],
            [
              88.19353189456943,
              27.91383837721113,
              0.0
            ],
            [
              88.19389808397162,
              27.913505656732816,
              0.0
            ],
            [
              88.19410578817553,
              27.913081388903958,
              0.0
            ],
            [
              88.19415303842098,
              27.912610855209774,
              0.0
            ],
            [
              88.19404180346815,
              27.9121413058957,
              0.0
            ],
            [
              88.1940368815676,
              27.911670772201518,
              0.0
            ],
            [
              88.19403195966703,
              27.91120122288745,
              0.0
            ],
            [
              88.19402703776646,
              27.91073068919326,
              0.0
            ],
            [
              88.1937051454694,
              27.9103576091303,
              0.0
            ],
            [
              88.19338325317233,
              27.909984529067337,
              0.0
            ],
            [
              88.19295701658325,
              27.909705949495255,
              0.0
            ],
            [
              88.19247860784814,
              27.909521870414057,
              0.0
            ],
            [
              88.19199921473295,
              27.90929054108742,
              0.0
            ],
            [
              88.19194704258693,
              27.909291525467534,
              0.0
            ],
            [
              88.19072838000659,
              27.9092078531579,
              0.0
            ],
            [
              88.19019878350562,
              27.909212775058464,
              0.0
            ],
            [
              88.18967017138473,
              27.909216712578917,
              0.0
            ],
            [
              88.18914057488375,
              27.909221634479486,
              0.0
            ],
            [
              88.18861097838277,
              27.90917930613461,
              0.0
            ],
            [
              88.18802822535567,
              27.909136977789736,
              0.0
            ],
            [
              88.18749764447456,
              27.909047399199423,
              0.0
            ],
            [
              88.18702022011958,
              27.908910570363663,
              0.0
            ],
            [
              88.1865418113845,
              27.908773741527906,
              0.0
            ],
            [
              88.1860112305034,
              27.90863691269215,
              0.0
            ],
            [
              88.18553380614841,
              27.908500083856396,
              0.0
            ],
            [
              88.18500420964742,
              27.90845775551152,
              0.0
            ],
            [
              88.18447362876634,
              27.908320926675763,
              0.0
            ],
            [
              88.18399423565113,
              27.908090581729237,
              0.0
            ],
            [
              88.18356799906203,
              27.907812002157158,
              0.0
            ],
            [
              88.18308959032696,
              27.9076751733214,
              0.0
            ],
            [
              88.18261216597197,
              27.907538344485644,
              0.0
            ],
            [
              88.1822381015289,
              27.90721251466812,
              0.0
            ],
            [
              88.1818118649398,
              27.906933935096042,
              0.0
            ],
            [
              88.18138464397062,
              27.906608105278522,
              0.0
            ],
            [
              88.18090623523553,
              27.906424026197325,
              0.0
            ],
            [
              88.18042881088054,
              27.906287197361568,
              0.0
            ],
            [
              88.17989724561933,
              27.906104102660482,
              0.0
            ],
            [
              88.17984408909321,
              27.906104102660482,
              0.0
            ],
            [
              88.17840984726804,
              27.90555186541689,
              0.0
            ],
            [
              88.17798262629884,
              27.905274270224922,
              0.0
            ],
            [
              88.17750421756377,
              27.905042940898284,
              0.0
            ],
            [
              88.17707798097467,
              27.904764361326205,
              0.0
            ],
            [
              88.1767560886776,
              27.904391281263237,
              0.0
            ],
            [
              88.17653952505268,
              27.90396996657472,
              0.0
            ],
            [
              88.17632394580785,
              27.903548651886204,
              0.0
            ],
            [
              88.17616053870903,
              27.903126352817576,
              0.0
            ],
            [
              88.17599713161022,
              27.90270503812906,
              0.0
            ],
            [
              88.17583372451139,
              27.90228273906043,
              0.0
            ],
            [
              88.17582880261082,
              27.901813189746356,
              0.0
            ],
            [
              88.17566539551201,
              27.901390890677725,
              0.0
            ],
            [
              88.17550100403308,
              27.900922325743768,
              0.0
            ],
            [
              88.17523226826214,
              27.90050101105525,
              0.0
            ],
            [
              88.17496254811107,
              27.900080680746846,
              0.0
            ],
            [
              88.17493990736847,
              27.900054102483786,
              0.0
            ],
            [
              88.1752667215661,
              27.90000291471789,
              0.0
            ],
            [
              88.17578745864607,
              27.899843445139528,
              0.0
            ],
            [
              88.17639678993623,
              27.899838523238962,
              0.0
            ],
            [
              88.17683582346679,
              27.900144665454217,
              0.0
            ],
            [
              88.17727387261723,
              27.900373041640513,
              0.0
            ],
            [
              88.1777946096972,
              27.90021357206215,
              0.0
            ],
            [
              88.17787631324661,
              27.899748944648646,
              0.0
            ],
            [
              88.17792651663238,
              27.89946249003566,
              0.0
            ],
            [
              88.1780456266261,
              27.899283332855028,
              0.0
            ],
            [
              88.17830254983569,
              27.898894502710252,
              0.0
            ],
            [
              88.17864708287537,
              27.898504688185362,
              0.0
            ],
            [
              88.17899063153493,
              27.89811487366047,
              0.0
            ],
            [
              88.17915994491443,
              27.897649261866853,
              0.0
            ],
            [
              88.17889416228383,
              27.89726436924253,
              0.0
            ],
            [
              88.17871500510319,
              27.896801710589255,
              0.0
            ],
            [
              88.17871008320262,
              27.89633806755586,
              0.0
            ],
            [
              88.17861853585208,
              27.89587442452247,
              0.0
            ],
            [
              88.17835275322147,
              27.89548953189815,
              0.0
            ],
            [
              88.17791470407103,
              27.89526115571185,
              0.0
            ],
            [
              88.17747665492058,
              27.89503277952555,
              0.0
            ],
            [
              88.17686535487019,
              27.89480637209948,
              0.0
            ],
            [
              88.17625307043969,
              27.894578980293293,
              0.0
            ],
            [
              88.17609655400166,
              27.894501214264338,
              0.0
            ],
            [
              88.17605127251643,
              27.894038555611058,
              0.0
            ],
            [
              88.17591739682102,
              27.893582787618573,
              0.0
            ],
            [
              88.17587802161648,
              27.89350699034985,
              0.0
            ],
            [
              88.1761595543289,
              27.8932530202806,
              0.0
            ],
            [
              88.17588983417785,
              27.892831705592084,
              0.0
            ],
            [
              88.1755689262609,
              27.892458625529123,
              0.0
            ],
            [
              88.17535236263595,
              27.892037310840607,
              0.0
            ],
            [
              88.17497829819288,
              27.89171148102308,
              0.0
            ],
            [
              88.17476173456795,
              27.891290166334564,
              0.0
            ],
            [
              88.17465148399525,
              27.890820617020495,
              0.0
            ],
            [
              88.17459340556856,
              27.890351067706423,
              0.0
            ],
            [
              88.17459242118845,
              27.890303817460982,
              0.0
            ],
            [
              88.17447429557484,
              27.889176702231186,
              0.0
            ],
            [
              88.1745225302004,
              27.888706168537002,
              0.0
            ],
            [
              88.17451760829984,
              27.888235634842818,
              0.0
            ],
            [
              88.17445756111292,
              27.887980680393458,
              0.0
            ],
            [
              88.17456879606573,
              27.887836960896905,
              0.0
            ],
            [
              88.17479323473157,
              27.88765681933616,
              0.0
            ],
            [
              88.17434337301977,
              27.887659772476503,
              0.0
            ],
            [
              88.17376258875288,
              27.88766469437707,
              0.0
            ],
            [
              88.173181804486,
              27.887567240745845,
              0.0
            ],
            [
              88.17248486336575,
              27.88757314702653,
              0.0
            ],
            [
              88.17178693786538,
              27.887475693395302,
              0.0
            ],
            [
              88.17120615359849,
              27.887377255383967,
              0.0
            ],
            [
              88.17073955742477,
              27.88717545746073,
              0.0
            ],
            [
              88.17015877315788,
              27.887180379361297,
              0.0
            ],
            [
              88.16957700451088,
              27.88708194134996,
              0.0
            ],
            [
              88.16899622024401,
              27.886983503338627,
              0.0
            ],
            [
              88.16852962407027,
              27.886781705415387,
              0.0
            ],
            [
              88.16794785542328,
              27.886683267404052,
              0.0
            ],
            [
              88.16736608677628,
              27.886584829392717,
              0.0
            ],
            [
              88.16689949060256,
              27.886382047089366,
              0.0
            ],
            [
              88.16631673757546,
              27.88618123354624,
              0.0
            ],
            [
              88.16561881207508,
              27.885980420003115,
              0.0
            ],
            [
              88.16503704342809,
              27.88588198199178,
              0.0
            ],
            [
              88.16445625916121,
              27.885886903892345,
              0.0
            ],
            [
              88.16387449051422,
              27.88568609034922,
              0.0
            ],
            [
              88.16329272186722,
              27.885587652337886,
              0.0
            ],
            [
              88.16271095322023,
              27.885489214326547,
              0.0
            ],
            [
              88.16212918457323,
              27.885390776315212,
              0.0
            ],
            [
              88.16154840030634,
              27.885293322683992,
              0.0
            ],
            [
              88.16096564727924,
              27.885091524760753,
              0.0
            ],
            [
              88.16015058054539,
              27.88489169559774,
              0.0
            ],
            [
              88.1595688118984,
              27.88479424196652,
              0.0
            ],
            [
              88.15910320010477,
              27.884591459663167,
              0.0
            ],
            [
              88.15852143145777,
              27.88449302165183,
              0.0
            ],
            [
              88.15793966281079,
              27.884394583640496,
              0.0
            ],
            [
              88.15747208225693,
              27.884089425805357,
              0.0
            ],
            [
              88.15700548608321,
              27.883886643502002,
              0.0
            ],
            [
              88.15642371743621,
              27.883789189870782,
              0.0
            ],
            [
              88.15584096440911,
              27.883484032035643,
              0.0
            ],
            [
              88.15525821138199,
              27.883283218492515,
              0.0
            ],
            [
              88.15479063082815,
              27.882977076277264,
              0.0
            ],
            [
              88.15432206589419,
              27.88256855853022,
              0.0
            ],
            [
              88.15385448534035,
              27.882263400695077,
              0.0
            ],
            [
              88.15350109287965,
              27.881853898567922,
              0.0
            ],
            [
              88.1530335123258,
              27.881547756352667,
              0.0
            ],
            [
              88.15256593177196,
              27.881242598517527,
              0.0
            ],
            [
              88.15209835121811,
              27.880936456302273,
              0.0
            ],
            [
              88.15151362943078,
              27.88052892293534,
              0.0
            ],
            [
              88.15104506449681,
              27.880120405188297,
              0.0
            ],
            [
              88.15057649956287,
              27.879711887441253,
              0.0
            ],
            [
              88.15010891900901,
              27.879405745226,
              0.0
            ],
            [
              88.14975651092844,
              27.878996243098843,
              0.0
            ],
            [
              88.14940410284785,
              27.878586740971688,
              0.0
            ],
            [
              88.14916785162065,
              27.878176254464417,
              0.0
            ],
            [
              88.14881445915996,
              27.87776675233726,
              0.0
            ],
            [
              88.14888139700767,
              27.877456672601554,
              0.0
            ],
            [
              88.14881150601961,
              27.877457656981665,
              0.0
            ],
            [
              88.14823170613285,
              27.87746159450212,
              0.0
            ],
            [
              88.14765190624608,
              27.87756987631459,
              0.0
            ],
            [
              88.14707309073943,
              27.877678158127058,
              0.0
            ],
            [
              88.14649329085266,
              27.877785455559415,
              0.0
            ],
            [
              88.14603161657949,
              27.877996112903674,
              0.0
            ],
            [
              88.14556994230632,
              27.87830914577972,
              0.0
            ],
            [
              88.1449930955599,
              27.87862316303588,
              0.0
            ],
            [
              88.14441526443336,
              27.878834804760253,
              0.0
            ],
            [
              88.1438364489267,
              27.87904546210451,
              0.0
            ],
            [
              88.14325664903994,
              27.87905038400508,
              0.0
            ],
            [
              88.14267586477307,
              27.879055305905645,
              0.0
            ],
            [
              88.14209606488629,
              27.879060227806214,
              0.0
            ],
            [
              88.1415142962393,
              27.878961789794875,
              0.0
            ],
            [
              88.1409325275923,
              27.87886335178354,
              0.0
            ],
            [
              88.14035174332541,
              27.878764913772205,
              0.0
            ],
            [
              88.13976997467842,
              27.87866647576087,
              0.0
            ],
            [
              88.13919214355188,
              27.878878117485243,
              0.0
            ],
            [
              88.13873046927873,
              27.87919115036129,
              0.0
            ],
            [
              88.13827076376579,
              27.879607543149238,
              0.0
            ],
            [
              88.13792721510623,
              27.880022951557077,
              0.0
            ],
            [
              88.13758268206655,
              27.880438359964913,
              0.0
            ],
            [
              88.13712297655361,
              27.880854752752864,
              0.0
            ],
            [
              88.13666228666055,
              27.88116778562891,
              0.0
            ],
            [
              88.1362015967675,
              27.881584178416862,
              0.0
            ],
            [
              88.13574090687445,
              27.881898195673024,
              0.0
            ],
            [
              88.13527824822118,
              27.882107868637167,
              0.0
            ],
            [
              88.13503018443261,
              27.8822210723502,
              0.0
            ]
          ]
        ]
      }
    }
  ],
  "properties": {
    "site_id": "south-lhonak",
    "observation_date": "2019-10-15",
    "version": "phase-2-retreat-v1.0"
  }
}