{
  "type": "FeatureCollection",
  "features": [
    {
      "type": "Feature",
      "properties": {
        "site_id": "south-lhonak",
        "glacier_id": "RGI2000-v7.0-G-15-07986",
        "observation_date": "2020-10-15",
        "area_km2": 13.711,
        "area_2016_km2": 14.26,
        "scale_factor": 0.9806,
        "source": "Phase 2 GeoAI derived boundary (versioned, reviewed) \u2014 scaled from RGI 2000 baseline by measured area change; confidence + image-quality documented in measurements.ts",
        "source_id": "phase-2-geoai-v1.0",
        "processing_version": "phase-2-retreat-v1.0",
        "crs": "EPSG:4326",
        "status": "approved",
        "boundary_asset": "data/derived/phase2/boundaries/south-lhonak/2020-10-15.geojson"
      },
      "geometry": {
        "type": "Polygon",
        "coordinates": [
          [
            [
              88.13512948689464,
              27.882288076540828,
              0.0
            ],
            [
              88.13527853223071,
              27.882609700687066,
              0.0
            ],
            [
              88.13563153434244,
              27.883120573187647,
              0.0
            ],
            [
              88.13598257533131,
              27.883528486738978,
              0.0
            ],
            [
              88.13621889063388,
              27.884040339800983,
              0.0
            ],
            [
              88.13656993162277,
              27.88444923391373,
              0.0
            ],
            [
              88.13680526636392,
              27.884858128026483,
              0.0
            ],
            [
              88.1370415816665,
              27.88526702213923,
              0.0
            ],
            [
              88.13727691640766,
              27.88567591625198,
              0.0
            ],
            [
              88.13716611296702,
              27.88619071099825,
              0.0
            ],
            [
              88.13717199633555,
              27.8867045251831,
              0.0
            ],
            [
              88.13694450608578,
              27.887117341541533,
              0.0
            ],
            [
              88.13683468320657,
              27.887632136287802,
              0.0
            ],
            [
              88.1366071929568,
              27.888044952646236,
              0.0
            ],
            [
              88.13649737007759,
              27.888559747392506,
              0.0
            ],
            [
              88.1365022728847,
              27.889073561577355,
              0.0
            ],
            [
              88.13639245000549,
              27.8895873757622,
              0.0
            ],
            [
              88.13639735281261,
              27.890101189947046,
              0.0
            ],
            [
              88.13617084312425,
              27.890514006305484,
              0.0
            ],
            [
              88.13606003968361,
              27.891028801051753,
              0.0
            ],
            [
              88.13583352999525,
              27.891441617410187,
              0.0
            ],
            [
              88.13560800086833,
              27.891957392717877,
              0.0
            ],
            [
              88.13549719742768,
              27.892472187464147,
              0.0
            ],
            [
              88.1353873745485,
              27.892986982210413,
              0.0
            ],
            [
              88.13516086486014,
              27.893502757518103,
              0.0
            ],
            [
              88.1349353357332,
              27.894017552264373,
              0.0
            ],
            [
              88.1347078454834,
              27.89443134918423,
              0.0
            ],
            [
              88.13448133579506,
              27.894844165542665,
              0.0
            ],
            [
              88.13413813929755,
              27.895257962462523,
              0.0
            ],
            [
              88.13402831641834,
              27.89577177664737,
              0.0
            ],
            [
              88.13368610048225,
              27.896185573567227,
              0.0
            ],
            [
              88.13345861023247,
              27.896599370487085,
              0.0
            ],
            [
              88.1332321005441,
              27.89701218684552,
              0.0
            ],
            [
              88.13300461029434,
              27.897425003203956,
              0.0
            ],
            [
              88.1327790811674,
              27.897939797950222,
              0.0
            ],
            [
              88.13231919786074,
              27.898252597043673,
              0.0
            ],
            [
              88.13186127567691,
              27.89866737452495,
              0.0
            ],
            [
              88.13140237293167,
              27.89908215200623,
              0.0
            ],
            [
              88.13094445074785,
              27.89949692948751,
              0.0
            ],
            [
              88.13048358687975,
              27.89970578907028,
              0.0
            ],
            [
              88.13014137094366,
              27.900119585990137,
              0.0
            ],
            [
              88.12979817444615,
              27.900533382909995,
              0.0
            ],
            [
              88.12957166475779,
              27.900946199268432,
              0.0
            ],
            [
              88.12947066693138,
              27.901037391480628,
              0.0
            ],
            [
              88.12948635591412,
              27.90119232018522,
              0.0
            ],
            [
              88.12955009240652,
              27.901751240195455,
              0.0
            ],
            [
              88.12961284833749,
              27.902361149399603,
              0.0
            ],
            [
              88.1296177511446,
              27.902819071583426,
              0.0
            ],
            [
              88.12962363451312,
              27.903327982961166,
              0.0
            ],
            [
              88.12951381163391,
              27.90378688570641,
              0.0
            ],
            [
              88.12940594987757,
              27.904449745227318,
              0.0
            ],
            [
              88.12941085268467,
              27.90490766741114,
              0.0
            ],
            [
              88.12952950061667,
              27.905364609033548,
              0.0
            ],
            [
              88.12982072735885,
              27.905768600339186,
              0.0
            ],
            [
              88.12999722841471,
              27.90622554196159,
              0.0
            ],
            [
              88.13040220028176,
              27.906629533267232,
              0.0
            ],
            [
              88.13080619158742,
              27.906931546185042,
              0.0
            ],
            [
              88.13109643776816,
              27.907335537490688,
              0.0
            ],
            [
              88.13167202732257,
              27.90758558065316,
              0.0
            ],
            [
              88.13213289119065,
              27.907785615183137,
              0.0
            ],
            [
              88.13270651962222,
              27.907882690763863,
              0.0
            ],
            [
              88.13319091696442,
              27.907956232870475,
              0.0
            ],
            [
              88.13344978517968,
              27.90824745961265,
              0.0
            ],
            [
              88.1339263380305,
              27.90843082459846,
              0.0
            ],
            [
              88.13445486063668,
              27.908520055687813,
              0.0
            ],
            [
              88.13498338324284,
              27.908656353725398,
              0.0
            ],
            [
              88.13551190584901,
              27.908745584814753,
              0.0
            ],
            [
              88.13603944789376,
              27.908834815904108,
              0.0
            ],
            [
              88.13651600074459,
              27.908971113941686,
              0.0
            ],
            [
              88.136991573034,
              27.90910741197927,
              0.0
            ],
            [
              88.13746812588484,
              27.909337843913313,
              0.0
            ],
            [
              88.13794467873566,
              27.909475122512323,
              0.0
            ],
            [
              88.13842123158649,
              27.90965848749813,
              0.0
            ],
            [
              88.1388968038759,
              27.909841852483947,
              0.0
            ],
            [
              88.13937433728816,
              27.910118370804803,
              0.0
            ],
            [
              88.13990187933291,
              27.910161515507344,
              0.0
            ],
            [
              88.14042942137765,
              27.910109545752004,
              0.0
            ],
            [
              88.14095598286099,
              27.910105623506322,
              0.0
            ],
            [
              88.14153549466107,
              27.910053653750985,
              0.0
            ],
            [
              88.14200812526622,
              27.909909511222025,
              0.0
            ],
            [
              88.14248173643279,
              27.909765368693073,
              0.0
            ],
            [
              88.1430082979161,
              27.909713398937736,
              0.0
            ],
            [
              88.14348092852124,
              27.90956925640878,
              0.0
            ],
            [
              88.1439535591264,
              27.909378046931593,
              0.0
            ],
            [
              88.14442717029296,
              27.90923390440264,
              0.0
            ],
            [
              88.14479193914175,
              27.908902474642186,
              0.0
            ],
            [
              88.14505178791843,
              27.908478872108116,
              0.0
            ],
            [
              88.14515180518343,
              27.908010163748653,
              0.0
            ],
            [
              88.14546460427687,
              27.90763264760139,
              0.0
            ],
            [
              88.1457764228089,
              27.90725513145413,
              0.0
            ],
            [
              88.1457764228089,
              27.907208064505898,
              0.0
            ],
            [
              88.14687955440805,
              27.906871731938335,
              0.0
            ],
            [
              88.14735316557461,
              27.90672660884796,
              0.0
            ],
            [
              88.14787874649652,
              27.906628552705815,
              0.0
            ],
            [
              88.14835235766309,
              27.906484410176855,
              0.0
            ],
            [
              88.14882498826822,
              27.906340267647902,
              0.0
            ],
            [
              88.14929663831195,
              27.906054924274258,
              0.0
            ],
            [
              88.14971533803892,
              27.90577056146203,
              0.0
            ],
            [
              88.15024189952224,
              27.905672505319885,
              0.0
            ],
            [
              88.15076846100555,
              27.9056685830742,
              0.0
            ],
            [
              88.1512960030503,
              27.90566368026709,
              0.0
            ],
            [
              88.15182256453363,
              27.905659758021404,
              0.0
            ],
            [
              88.15235010657838,
              27.905654855214298,
              0.0
            ],
            [
              88.15287764862313,
              27.905650932968612,
              0.0
            ],
            [
              88.15340519066788,
              27.905693097109737,
              0.0
            ],
            [
              88.15393175215121,
              27.905688194302627,
              0.0
            ],
            [
              88.15440830500204,
              27.905871559288443,
              0.0
            ],
            [
              88.15483288809753,
              27.906149058170715,
              0.0
            ],
            [
              88.15515353168234,
              27.906521671510873,
              0.0
            ],
            [
              88.15563008453317,
              27.906751122883495,
              0.0
            ],
            [
              88.15605564819009,
              27.907028621765768,
              0.0
            ],
            [
              88.15648023128558,
              27.907306120648045,
              0.0
            ],
            [
              88.15695776469785,
              27.907583619530318,
              0.0
            ],
            [
              88.15743431754868,
              27.907766984516133,
              0.0
            ],
            [
              88.15790988983808,
              27.907950349501945,
              0.0
            ],
            [
              88.15838742325033,
              27.908179800874567,
              0.0
            ],
            [
              88.15881200634583,
              27.90845729975684,
              0.0
            ],
            [
              88.15928855919665,
              27.908687731690886,
              0.0
            ],
            [
              88.15934150951342,
              27.908687731690886,
              0.0
            ],
            [
              88.16013674482623,
              27.90905544222393,
              0.0
            ],
            [
              88.16061231711564,
              27.909191740261516,
              0.0
            ],
            [
              88.16108788940504,
              27.9093280382991,
              0.0
            ],
            [
              88.16156444225587,
              27.909465316898103,
              0.0
            ],
            [
              88.16209198430062,
              27.909507481039228,
              0.0
            ],
            [
              88.16261952634538,
              27.909549645180352,
              0.0
            ],
            [
              88.16314706839012,
              27.909545722934666,
              0.0
            ],
            [
              88.16367362987344,
              27.909540820127557,
              0.0
            ],
            [
              88.1642011719182,
              27.90953591732045,
              0.0
            ],
            [
              88.16472871396294,
              27.909531995074765,
              0.0
            ],
            [
              88.16530920632445,
              27.909574159215886,
              0.0
            ],
            [
              88.16583576780776,
              27.90956925640878,
              0.0
            ],
            [
              88.16636330985251,
              27.909565334163094,
              0.0
            ],
            [
              88.16689085189728,
              27.909560431355985,
              0.0
            ],
            [
              88.16741741338059,
              27.909555528548882,
              0.0
            ],
            [
              88.16794495542534,
              27.909551606303193,
              0.0
            ],
            [
              88.16847151690867,
              27.909546703496087,
              0.0
            ],
            [
              88.16900003951484,
              27.90958984819863,
              0.0
            ],
            [
              88.16947659236567,
              27.909772232623023,
              0.0
            ],
            [
              88.17000511497183,
              27.90990853066061,
              0.0
            ],
            [
              88.17042969806732,
              27.91018602954288,
              0.0
            ],
            [
              88.17090625091815,
              27.910416461476924,
              0.0
            ],
            [
              88.17143673464717,
              27.910645912849546,
              0.0
            ],
            [
              88.17196427669192,
              27.9107351439389,
              0.0
            ],
            [
              88.17254574961484,
              27.910823394466835,
              0.0
            ],
            [
              88.17302132190424,
              27.910960673065837,
              0.0
            ],
            [
              88.17349787475509,
              27.91114403805165,
              0.0
            ],
            [
              88.17402541679984,
              27.911186202192773,
              0.0
            ],
            [
              88.17444999989533,
              27.91146370107505,
              0.0
            ],
            [
              88.17492655274617,
              27.911647066060862,
              0.0
            ],
            [
              88.17540408615841,
              27.911876517433484,
              0.0
            ],
            [
              88.17588063900924,
              27.912106949367526,
              0.0
            ],
            [
              88.1763581724215,
              27.912337381301572,
              0.0
            ],
            [
              88.17683472527233,
              27.912519765725964,
              0.0
            ],
            [
              88.17731225868458,
              27.912797264608237,
              0.0
            ],
            [
              88.17783980072932,
              27.91283942874936,
              0.0
            ],
            [
              88.17836832333549,
              27.912975726786946,
              0.0
            ],
            [
              88.17884487618632,
              27.913112024824528,
              0.0
            ],
            [
              88.17932044847574,
              27.91324832286211,
              0.0
            ],
            [
              88.1798489710819,
              27.913337553951465,
              0.0
            ],
            [
              88.18037651312665,
              27.913379718092585,
              0.0
            ],
            [
              88.18090405517141,
              27.91342188223371,
              0.0
            ],
            [
              88.18143257777756,
              27.913511113323064,
              0.0
            ],
            [
              88.18196110038373,
              27.913647411360646,
              0.0
            ],
            [
              88.18243667267315,
              27.913783709398228,
              0.0
            ],
            [
              88.18296519527931,
              27.913825873539356,
              0.0
            ],
            [
              88.18349273732407,
              27.913868037680476,
              0.0
            ],
            [
              88.18396830961348,
              27.914004335718058,
              0.0
            ],
            [
              88.1844448624643,
              27.914187700703874,
              0.0
            ],
            [
              88.18492239587655,
              27.914418132637916,
              0.0
            ],
            [
              88.18539796816597,
              27.9145544306755,
              0.0
            ],
            [
              88.18592551021071,
              27.914596594816622,
              0.0
            ],
            [
              88.18645305225546,
              27.914638758957746,
              0.0
            ],
            [
              88.18665995071538,
              27.914544625061286,
              0.0
            ],
            [
              88.18706884482815,
              27.914544625061286,
              0.0
            ],
            [
              88.18840633060702,
              27.91480937664508,
              0.0
            ],
            [
              88.18898682296852,
              27.914851540786202,
              0.0
            ],
            [
              88.18951338445184,
              27.9148466379791,
              0.0
            ],
            [
              88.19004190705802,
              27.91488880212022,
              0.0
            ],
            [
              88.19056944910277,
              27.91497803320957,
              0.0
            ],
            [
              88.19109797170894,
              27.915020197350696,
              0.0
            ],
            [
              88.19162453319225,
              27.915016275105007,
              0.0
            ],
            [
              88.192152075237,
              27.915011372297904,
              0.0
            ],
            [
              88.19251782464721,
              27.91467994253745,
              0.0
            ],
            [
              88.19251194127868,
              27.91421221473941,
              0.0
            ],
            [
              88.19293064100565,
              27.913926871365764,
              0.0
            ],
            [
              88.19340425217221,
              27.913782728836807,
              0.0
            ],
            [
              88.193769021021,
              27.913451299076353,
              0.0
            ],
            [
              88.19397591948092,
              27.913028677103704,
              0.0
            ],
            [
              88.19402298642916,
              27.912559968744244,
              0.0
            ],
            [
              88.19391218298853,
              27.912092240946205,
              0.0
            ],
            [
              88.19390728018143,
              27.91162353258675,
              0.0
            ],
            [
              88.19390237737433,
              27.91115580478871,
              0.0
            ],
            [
              88.19389747456721,
              27.91068709642925,
              0.0
            ],
            [
              88.1935768309824,
              27.910315463650516,
              0.0
            ],
            [
              88.19325618739758,
              27.90994383087178,
              0.0
            ],
            [
              88.19283160430209,
              27.909666331989506,
              0.0
            ],
            [
              88.19235505145124,
              27.90948296700369,
              0.0
            ],
            [
              88.19187751803899,
              27.909252535069648,
              0.0
            ],
            [
              88.19182554828365,
              27.909253515631068,
              0.0
            ],
            [
              88.19061161324387,
              27.909170167910247,
              0.0
            ],
            [
              88.19008407119914,
              27.909175070717353,
              0.0
            ],
            [
              88.18955750971581,
              27.90917899296304,
              0.0
            ],
            [
              88.18902996767106,
              27.90918389577015,
              0.0
            ],
            [
              88.18850242562631,
              27.909141731629024,
              0.0
            ],
            [
              88.18792193326482,
              27.9090995674879,
              0.0
            ],
            [
              88.18739341065864,
              27.90901033639855,
              0.0
            ],
            [
              88.18691783836923,
              27.908874038360963,
              0.0
            ],
            [
              88.1864412855184,
              27.908737740323378,
              0.0
            ],
            [
              88.18591276291224,
              27.908601442285796,
              0.0
            ],
            [
              88.18543719062282,
              27.908465144248215,
              0.0
            ],
            [
              88.18490964857807,
              27.90842298010709,
              0.0
            ],
            [
              88.18438112597191,
              27.908286682069505,
              0.0
            ],
            [
              88.18390359255966,
              27.908057230696883,
              0.0
            ],
            [
              88.18347900946416,
              27.90777973181461,
              0.0
            ],
            [
              88.18300245661334,
              27.907643433777025,
              0.0
            ],
            [
              88.18252688432392,
              27.907507135739444,
              0.0
            ],
            [
              88.18215427098376,
              27.90718256990894,
              0.0
            ],
            [
              88.18172968788826,
              27.906905071026664,
              0.0
            ],
            [
              88.18130412423136,
              27.90658050519616,
              0.0
            ],
            [
              88.18082757138053,
              27.90639714021035,
              0.0
            ],
            [
              88.18035199909112,
              27.906260842172763,
              0.0
            ],
            [
              88.17982249592353,
              27.90607845774837,
              0.0
            ],
            [
              88.17976954560676,
              27.90607845774837,
              0.0
            ],
            [
              88.17834086761569,
              27.90552836279093,
              0.0
            ],
            [
              88.17791530395878,
              27.90525184447008,
              0.0
            ],
            [
              88.17743875110796,
              27.905021412536033,
              0.0
            ],
            [
              88.17701416801246,
              27.90474391365376,
              0.0
            ],
            [
              88.17669352442763,
              27.904372280875023,
              0.0
            ],
            [
              88.17647780091492,
              27.90395260058664,
              0.0
            ],
            [
              88.17626305796362,
              27.903532920298254,
              0.0
            ],
            [
              88.17610028476764,
              27.903112259448445,
              0.0
            ],
            [
              88.17593751157169,
              27.902692579160057,
              0.0
            ],
            [
              88.17577473837572,
              27.902271918310248,
              0.0
            ],
            [
              88.17576983556862,
              27.901804190512213,
              0.0
            ],
            [
              88.17560706237266,
              27.901383529662404,
              0.0
            ],
            [
              88.17544330861527,
              27.90091678242579,
              0.0
            ],
            [
              88.17517561534721,
              27.9004971021374,
              0.0
            ],
            [
              88.17490694151773,
              27.900078402410436,
              0.0
            ],
            [
              88.17488438860504,
              27.900051927252058,
              0.0
            ],
            [
              88.17520993499696,
              27.90000093805814,
              0.0
            ],
            [
              88.17572865198892,
              27.899842087107864,
              0.0
            ],
            [
              88.1763356195088,
              27.899837184300758,
              0.0
            ],
            [
              88.17677294990277,
              27.900142138902833,
              0.0
            ],
            [
              88.17720929973532,
              27.90036962915261,
              0.0
            ],
            [
              88.17772801672727,
              27.900210778202332,
              0.0
            ],
            [
              88.17780940332526,
              27.899747953211403,
              0.0
            ],
            [
              88.17785941195775,
              27.89946260983776,
              0.0
            ],
            [
              88.17797805988975,
              27.899284147659053,
              0.0
            ],
            [
              88.17823398642075,
              27.898896825897573,
              0.0
            ],
            [
              88.17857718291826,
              27.898508523574677,
              0.0
            ],
            [
              88.17891939885436,
              27.898120221251773,
              0.0
            ],
            [
              88.17908805541886,
              27.897656415699423,
              0.0
            ],
            [
              88.17882330383506,
              27.89727301618363,
              0.0
            ],
            [
              88.17864484165635,
              27.89681215231554,
              0.0
            ],
            [
              88.17863993884923,
              27.89635030788603,
              0.0
            ],
            [
              88.17854874663705,
              27.895888463456526,
              0.0
            ],
            [
              88.17828399505325,
              27.895505063940732,
              0.0
            ],
            [
              88.1778476452207,
              27.89527757369095,
              0.0
            ],
            [
              88.17741129538815,
              27.895050083441173,
              0.0
            ],
            [
              88.1768023667454,
              27.894824554314237,
              0.0
            ],
            [
              88.17619245754126,
              27.89459804462588,
              0.0
            ],
            [
              88.17603654827526,
              27.894520580273582,
              0.0
            ],
            [
              88.17599144244986,
              27.894059716405494,
              0.0
            ],
            [
              88.17585808609654,
              27.893605716467356,
              0.0
            ],
            [
              88.17581886363969,
              27.893530213237906,
              0.0
            ],
            [
              88.17609930420623,
              27.893277228391167,
              0.0
            ],
            [
              88.17583063037674,
              27.89285754810278,
              0.0
            ],
            [
              88.17551096735335,
              27.89248591532405,
              0.0
            ],
            [
              88.17529524384062,
              27.89206623503566,
              0.0
            ],
            [
              88.17492263050048,
              27.891741669205153,
              0.0
            ],
            [
              88.17470690698775,
              27.89132198891677,
              0.0
            ],
            [
              88.17459708410856,
              27.89085426111873,
              0.0
            ],
            [
              88.17453923098468,
              27.89038653332069,
              0.0
            ],
            [
              88.17453825042325,
              27.890339466372463,
              0.0
            ],
            [
              88.17442058305268,
              27.889216723544884,
              0.0
            ],
            [
              88.17446863056234,
              27.888748015185428,
              0.0
            ],
            [
              88.17446372775524,
              27.888279306825968,
              0.0
            ],
            [
              88.17440391350853,
              27.88802534141781,
              0.0
            ],
            [
              88.17451471694915,
              27.887882179450273,
              0.0
            ],
            [
              88.17473828495324,
              27.887702736710146,
              0.0
            ],
            [
              88.17429016838362,
              27.88770567839441,
              0.0
            ],
            [
              88.17371163714496,
              27.88771058120152,
              0.0
            ],
            [
              88.1731331059063,
              27.88761350562079,
              0.0
            ],
            [
              88.1724388684199,
              27.887619388989325,
              0.0
            ],
            [
              88.1717436503721,
              27.887522313408596,
              0.0
            ],
            [
              88.17116511913342,
              27.88742425726645,
              0.0
            ],
            [
              88.17070033301965,
              27.887223242175054,
              0.0
            ],
            [
              88.170121801781,
              27.88722814498216,
              0.0
            ],
            [
              88.1695422899809,
              27.887130088840014,
              0.0
            ],
            [
              88.16896375874224,
              27.887032032697867,
              0.0
            ],
            [
              88.16849897262847,
              27.886831017606465,
              0.0
            ],
            [
              88.16791946082839,
              27.88673296146432,
              0.0
            ],
            [
              88.1673399490283,
              27.886634905322172,
              0.0
            ],
            [
              88.16687516291452,
              27.886432909669352,
              0.0
            ],
            [
              88.16629467055303,
              27.886232875139374,
              0.0
            ],
            [
              88.1655994525052,
              27.886032840609396,
              0.0
            ],
            [
              88.16501994070512,
              27.88593478446725,
              0.0
            ],
            [
              88.16444140946645,
              27.885939687274355,
              0.0
            ],
            [
              88.16386189766637,
              27.885739652744377,
              0.0
            ],
            [
              88.16328238586628,
              27.88564159660223,
              0.0
            ],
            [
              88.1627028740662,
              27.885543540460084,
              0.0
            ],
            [
              88.16212336226612,
              27.885445484317938,
              0.0
            ],
            [
              88.16154483102744,
              27.885348408737215,
              0.0
            ],
            [
              88.16096433866595,
              27.885147393645813,
              0.0
            ],
            [
              88.16015243380897,
              27.88494833967726,
              0.0
            ],
            [
              88.15957292200889,
              27.884851264096532,
              0.0
            ],
            [
              88.15910911645653,
              27.88464926844371,
              0.0
            ],
            [
              88.15852960465645,
              27.884551212301563,
              0.0
            ],
            [
              88.15795009285637,
              27.884453156159417,
              0.0
            ],
            [
              88.15748432618116,
              27.884149182118765,
              0.0
            ],
            [
              88.1570195400674,
              27.883947186465942,
              0.0
            ],
            [
              88.15644002826731,
              27.883850110885216,
              0.0
            ],
            [
              88.1558595359058,
              27.883546136844565,
              0.0
            ],
            [
              88.1552790435443,
              27.883346102314587,
              0.0
            ],
            [
              88.15481327686909,
              27.88304114771251,
              0.0
            ],
            [
              88.15434652963249,
              27.882634214722604,
              0.0
            ],
            [
              88.15388076295729,
              27.88233024068195,
              0.0
            ],
            [
              88.15352874140699,
              27.88192232713062,
              0.0
            ],
            [
              88.15306297473178,
              27.881617372528545,
              0.0
            ],
            [
              88.15259720805659,
              27.881313398487894,
              0.0
            ],
            [
              88.1521314413814,
              27.88100844388582,
              0.0
            ],
            [
              88.15154898789706,
              27.88060249145733,
              0.0
            ],
            [
              88.15108224066043,
              27.880195558467424,
              0.0
            ],
            [
              88.15061549342381,
              27.879788625477516,
              0.0
            ],
            [
              88.15014972674862,
              27.87948367087544,
              0.0
            ],
            [
              88.14979868575975,
              27.879075757324113,
              0.0
            ],
            [
              88.14944764477086,
              27.87866784377278,
              0.0
            ],
            [
              88.1492123100297,
              27.878258949660033,
              0.0
            ],
            [
              88.1488602884794,
              27.877851036108705,
              0.0
            ],
            [
              88.14892696665606,
              27.877542159260944,
              0.0
            ],
            [
              88.14885734679513,
              27.877543139822365,
              0.0
            ],
            [
              88.14827979611789,
              27.87754706206805,
              0.0
            ],
            [
              88.14770224544066,
              27.877654923824412,
              0.0
            ],
            [
              88.14712567532483,
              27.87776278558077,
              0.0
            ],
            [
              88.1465481246476,
              27.877869666775712,
              0.0
            ],
            [
              88.14608824134092,
              27.878079506919907,
              0.0
            ],
            [
              88.14562835803426,
              27.878391325451933,
              0.0
            ],
            [
              88.14505374904128,
              27.878704124545376,
              0.0
            ],
            [
              88.14447815948688,
              27.87891494525099,
              0.0
            ],
            [
              88.14390158937105,
              27.879124785395184,
              0.0
            ],
            [
              88.14332403869382,
              27.879129688202294,
              0.0
            ],
            [
              88.14274550745516,
              27.8791345910094,
              0.0
            ],
            [
              88.14216795677791,
              27.879139493816506,
              0.0
            ],
            [
              88.14158844497783,
              27.87904143767436,
              0.0
            ],
            [
              88.14100893317774,
              27.878943381532217,
              0.0
            ],
            [
              88.14043040193907,
              27.87884532539007,
              0.0
            ],
            [
              88.13985089013899,
              27.878747269247924,
              0.0
            ],
            [
              88.13927530058459,
              27.87895808995354,
              0.0
            ],
            [
              88.13881541727793,
              27.879269908485565,
              0.0
            ],
            [
              88.13835749509411,
              27.87968468596684,
              0.0
            ],
            [
              88.13801527915801,
              27.880098482886698,
              0.0
            ],
            [
              88.1376720826605,
              27.880512279806556,
              0.0
            ],
            [
              88.13721416047669,
              27.88092705728784,
              0.0
            ],
            [
              88.13675525773142,
              27.88123887581986,
              0.0
            ],
            [
              88.13629635498619,
              27.88165365330114,
              0.0
            ],
            [
              88.13583745224093,
              27.881966452394586,
              0.0
            ],
            [
              88.13537658837286,
              27.882175311977356,
              0.0
            ],
            [
              88.13512948689464,
              27.882288076540828,
              0.0
            ]
          ]
        ]
      }
    }
  ],
  "properties": {
    "site_id": "south-lhonak",
    "observation_date": "2020-10-15",
    "version": "phase-2-retreat-v1.0"
  }
}