{
  "type": "FeatureCollection",
  "features": [
    {
      "type": "Feature",
      "properties": {
        "site_id": "south-lhonak",
        "glacier_id": "RGI2000-v7.0-G-15-07986",
        "observation_date": "2023-10-15",
        "area_km2": 13.244,
        "area_2016_km2": 14.26,
        "scale_factor": 0.9637,
        "source": "Phase 2 GeoAI derived boundary (versioned, reviewed) \u2014 scaled from RGI 2000 baseline by measured area change; confidence + image-quality documented in measurements.ts",
        "source_id": "phase-2-geoai-v1.0",
        "processing_version": "phase-2-retreat-v1.0",
        "crs": "EPSG:4326",
        "status": "approved",
        "boundary_asset": "data/derived/phase2/boundaries/south-lhonak/2023-10-15.geojson"
      },
      "geometry": {
        "type": "Polygon",
        "coordinates": [
          [
            [
              88.13556749701532,
              27.88258362322737,
              0.0
            ],
            [
              88.13571398210159,
              27.882899722624096,
              0.0
            ],
            [
              88.13606092046386,
              27.883401819531702,
              0.0
            ],
            [
              88.13640593139077,
              27.88380272608365,
              0.0
            ],
            [
              88.13663818734994,
              27.88430578670893,
              0.0
            ],
            [
              88.13698319827688,
              27.88470765697855,
              0.0
            ],
            [
              88.13721449051837,
              27.885109527248172,
              0.0
            ],
            [
              88.13744674647755,
              27.88551139751779,
              0.0
            ],
            [
              88.13767803871907,
              27.88591326778741,
              0.0
            ],
            [
              88.13756913862203,
              27.886419219565706,
              0.0
            ],
            [
              88.13757492092806,
              27.886924207626336,
              0.0
            ],
            [
              88.13735133842795,
              27.887329932766647,
              0.0
            ],
            [
              88.13724340204857,
              27.887835884544945,
              0.0
            ],
            [
              88.13701981954844,
              27.888241609685256,
              0.0
            ],
            [
              88.13691188316908,
              27.888747561463553,
              0.0
            ],
            [
              88.13691670175744,
              27.889252549524183,
              0.0
            ],
            [
              88.13680876537808,
              27.889757537584806,
              0.0
            ],
            [
              88.13681358396644,
              27.89026252564543,
              0.0
            ],
            [
              88.13659096518398,
              27.890668250785744,
              0.0
            ],
            [
              88.13648206508694,
              27.891174202564045,
              0.0
            ],
            [
              88.13625944630448,
              27.891579927704356,
              0.0
            ],
            [
              88.13603779123972,
              27.892086843200328,
              0.0
            ],
            [
              88.13592889114265,
              27.892592794978626,
              0.0
            ],
            [
              88.1358209547633,
              27.893098746756923,
              0.0
            ],
            [
              88.13559833598084,
              27.893605662252895,
              0.0
            ],
            [
              88.13537668091607,
              27.894111614031193,
              0.0
            ],
            [
              88.13515309841593,
              27.89451830288918,
              0.0
            ],
            [
              88.13493047963348,
              27.89492402802949,
              0.0
            ],
            [
              88.13459317844796,
              27.895330716887475,
              0.0
            ],
            [
              88.13448524206858,
              27.895835704948098,
              0.0
            ],
            [
              88.13414890460072,
              27.896242393806084,
              0.0
            ],
            [
              88.1339253221006,
              27.89664908266407,
              0.0
            ],
            [
              88.13370270331815,
              27.89705480780438,
              0.0
            ],
            [
              88.13347912081802,
              27.89746053294469,
              0.0
            ],
            [
              88.13325746575325,
              27.89796648472299,
              0.0
            ],
            [
              88.13280548216464,
              27.898273910660663,
              0.0
            ],
            [
              88.13235542601137,
              27.898681563236323,
              0.0
            ],
            [
              88.13190440614044,
              27.899089215811976,
              0.0
            ],
            [
              88.13145434998717,
              27.899496868387637,
              0.0
            ],
            [
              88.13100140268087,
              27.899702140251975,
              0.0
            ],
            [
              88.13066506521301,
              27.900108829109957,
              0.0
            ],
            [
              88.13032776402748,
              27.900515517967943,
              0.0
            ],
            [
              88.13010514524503,
              27.900921243108254,
              0.0
            ],
            [
              88.13000588232472,
              27.901010868851838,
              0.0
            ],
            [
              88.13002130180747,
              27.90116313624417,
              0.0
            ],
            [
              88.13008394345623,
              27.90171245531775,
              0.0
            ],
            [
              88.13014562138729,
              27.902311887710322,
              0.0
            ],
            [
              88.13015043997565,
              27.90276194386359,
              0.0
            ],
            [
              88.1301562222817,
              27.90326211333585,
              0.0
            ],
            [
              88.13004828590232,
              27.903713133206793,
              0.0
            ],
            [
              88.1299422769583,
              27.904364606353703,
              0.0
            ],
            [
              88.12994709554667,
              27.904814662506972,
              0.0
            ],
            [
              88.13006370538508,
              27.90526375494257,
              0.0
            ],
            [
              88.13034992953396,
              27.90566080662382,
              0.0
            ],
            [
              88.13052339871508,
              27.906109899059416,
              0.0
            ],
            [
              88.13092141411401,
              27.90650695074067,
              0.0
            ],
            [
              88.13131846579527,
              27.906803775783942,
              0.0
            ],
            [
              88.13160372622646,
              27.907200827465196,
              0.0
            ],
            [
              88.13216942850048,
              27.9074465754718,
              0.0
            ],
            [
              88.13262237580678,
              27.90764317387708,
              0.0
            ],
            [
              88.13318615064546,
              27.9077385819267,
              0.0
            ],
            [
              88.13366222717589,
              27.907810860752175,
              0.0
            ],
            [
              88.13391664864155,
              27.90809708490104,
              0.0
            ],
            [
              88.1343850154306,
              27.908277300105883,
              0.0
            ],
            [
              88.13490445925632,
              27.908364998414118,
              0.0
            ],
            [
              88.13542390308203,
              27.90849895517066,
              0.0
            ],
            [
              88.13594334690775,
              27.9085866534789,
              0.0
            ],
            [
              88.13646182701581,
              27.908674351787138,
              0.0
            ],
            [
              88.13693019380486,
              27.908808308543676,
              0.0
            ],
            [
              88.13739759687624,
              27.908942265300215,
              0.0
            ],
            [
              88.1378659636653,
              27.90916873895336,
              0.0
            ],
            [
              88.13833433045434,
              27.909303659427575,
              0.0
            ],
            [
              88.13880269724339,
              27.909483874632414,
              0.0
            ],
            [
              88.13927010031477,
              27.909664089837253,
              0.0
            ],
            [
              88.1397394308215,
              27.90993585822103,
              0.0
            ],
            [
              88.14025791092956,
              27.90997826179864,
              0.0
            ],
            [
              88.1407763910376,
              27.90992718476197,
              0.0
            ],
            [
              88.14129390742798,
              27.90992332989128,
              0.0
            ],
            [
              88.1418634645727,
              27.909872252854615,
              0.0
            ],
            [
              88.14232797649105,
              27.909730586356687,
              0.0
            ],
            [
              88.14279345212708,
              27.909588919858766,
              0.0
            ],
            [
              88.14331096851745,
              27.9095378428221,
              0.0
            ],
            [
              88.14377548043582,
              27.909396176324176,
              0.0
            ],
            [
              88.14423999235419,
              27.90920825137795,
              0.0
            ],
            [
              88.1447054679902,
              27.90906658488003,
              0.0
            ],
            [
              88.14506397096456,
              27.90874084830657,
              0.0
            ],
            [
              88.1453193561479,
              27.908324522271858,
              0.0
            ],
            [
              88.14541765535053,
              27.907863865224186,
              0.0
            ],
            [
              88.14572508128819,
              27.9074928339201,
              0.0
            ],
            [
              88.1460315435082,
              27.907121802616015,
              0.0
            ],
            [
              88.1460315435082,
              27.907075544167714,
              0.0
            ],
            [
              88.14711572589027,
              27.906744989005894,
              0.0
            ],
            [
              88.14758120152631,
              27.906602358790295,
              0.0
            ],
            [
              88.148097754199,
              27.906505987023003,
              0.0
            ],
            [
              88.14856322983503,
              27.906364320525075,
              0.0
            ],
            [
              88.1490277417534,
              27.906222654027154,
              0.0
            ],
            [
              88.14949128995409,
              27.905942212184325,
              0.0
            ],
            [
              88.14990279740044,
              27.90566273405917,
              0.0
            ],
            [
              88.1504203137908,
              27.905566362291875,
              0.0
            ],
            [
              88.15093783018118,
              27.905562507421184,
              0.0
            ],
            [
              88.15145631028923,
              27.90555768883282,
              0.0
            ],
            [
              88.1519738266796,
              27.905553833962124,
              0.0
            ],
            [
              88.15249230678765,
              27.90554901537376,
              0.0
            ],
            [
              88.1530107868957,
              27.90554516050307,
              0.0
            ],
            [
              88.15352926700375,
              27.90558660036301,
              0.0
            ],
            [
              88.15404678339412,
              27.90558178177464,
              0.0
            ],
            [
              88.15451515018317,
              27.905761996979482,
              0.0
            ],
            [
              88.15493243993556,
              27.90603472908093,
              0.0
            ],
            [
              88.15524757561461,
              27.906400941796647,
              0.0
            ],
            [
              88.15571594240366,
              27.906626451732116,
              0.0
            ],
            [
              88.15613419587372,
              27.906899183833563,
              0.0
            ],
            [
              88.15655148562611,
              27.90717191593501,
              0.0
            ],
            [
              88.15702081613284,
              27.907444648036453,
              0.0
            ],
            [
              88.15748918292189,
              27.907624863241296,
              0.0
            ],
            [
              88.15795658599328,
              27.90780507844614,
              0.0
            ],
            [
              88.15842591650001,
              27.908030588381607,
              0.0
            ],
            [
              88.1588432062524,
              27.90830332048305,
              0.0
            ],
            [
              88.15931157304144,
              27.908529794136193,
              0.0
            ],
            [
              88.15936361379579,
              27.908529794136193,
              0.0
            ],
            [
              88.16014518882855,
              27.90889118826355,
              0.0
            ],
            [
              88.16061259189992,
              27.90902514502009,
              0.0
            ],
            [
              88.1610799949713,
              27.90915910177663,
              0.0
            ],
            [
              88.16154836176035,
              27.90929402225084,
              0.0
            ],
            [
              88.16206684186841,
              27.909335462110782,
              0.0
            ],
            [
              88.16258532197647,
              27.90937690197072,
              0.0
            ],
            [
              88.16310380208449,
              27.909373047100026,
              0.0
            ],
            [
              88.16362131847488,
              27.90936822851166,
              0.0
            ],
            [
              88.16413979858292,
              27.909363409923298,
              0.0
            ],
            [
              88.16465827869096,
              27.909359555052603,
              0.0
            ],
            [
              88.16522879955336,
              27.90940099491254,
              0.0
            ],
            [
              88.16574631594372,
              27.909396176324176,
              0.0
            ],
            [
              88.16626479605178,
              27.909392321453485,
              0.0
            ],
            [
              88.16678327615983,
              27.90938750286512,
              0.0
            ],
            [
              88.1673007925502,
              27.909382684276757,
              0.0
            ],
            [
              88.16781927265825,
              27.909378829406062,
              0.0
            ],
            [
              88.16833678904862,
              27.909374010817697,
              0.0
            ],
            [
              88.16885623287435,
              27.90941641439531,
              0.0
            ],
            [
              88.1693245996634,
              27.909595665882478,
              0.0
            ],
            [
              88.16984404348912,
              27.909729622639016,
              0.0
            ],
            [
              88.1702613332415,
              27.910002354740463,
              0.0
            ],
            [
              88.17072970003055,
              27.910228828393606,
              0.0
            ],
            [
              88.17125107129162,
              27.910454338329075,
              0.0
            ],
            [
              88.17176955139966,
              27.910542036637313,
              0.0
            ],
            [
              88.17234103597973,
              27.91062877122788,
              0.0
            ],
            [
              88.1728084390511,
              27.91076369170209,
              0.0
            ],
            [
              88.17327680584016,
              27.910943906906933,
              0.0
            ],
            [
              88.1737952859482,
              27.91098534676687,
              0.0
            ],
            [
              88.1742125757006,
              27.911258078868315,
              0.0
            ],
            [
              88.17468094248966,
              27.911438294073157,
              0.0
            ],
            [
              88.17515027299638,
              27.911663804008626,
              0.0
            ],
            [
              88.17561863978543,
              27.91189027766177,
              0.0
            ],
            [
              88.17608797029216,
              27.91211675131491,
              0.0
            ],
            [
              88.17655633708121,
              27.91229600280208,
              0.0
            ],
            [
              88.17702566758794,
              27.912568734903527,
              0.0
            ],
            [
              88.17754414769597,
              27.912610174763465,
              0.0
            ],
            [
              88.17806359152169,
              27.912744131520004,
              0.0
            ],
            [
              88.17853195831074,
              27.912878088276543,
              0.0
            ],
            [
              88.17899936138214,
              27.91301204503308,
              0.0
            ],
            [
              88.17951880520785,
              27.913099743341323,
              0.0
            ],
            [
              88.1800372853159,
              27.913141183201258,
              0.0
            ],
            [
              88.18055576542396,
              27.913182623061196,
              0.0
            ],
            [
              88.18107520924967,
              27.913270321369435,
              0.0
            ],
            [
              88.1815946530754,
              27.913404278125974,
              0.0
            ],
            [
              88.18206205614676,
              27.913538234882513,
              0.0
            ],
            [
              88.18258149997249,
              27.91357967474245,
              0.0
            ],
            [
              88.18309998008054,
              27.913621114602385,
              0.0
            ],
            [
              88.18356738315192,
              27.913755071358928,
              0.0
            ],
            [
              88.18403574994097,
              27.91393528656377,
              0.0
            ],
            [
              88.1845050804477,
              27.914161760216913,
              0.0
            ],
            [
              88.18497248351908,
              27.914295716973452,
              0.0
            ],
            [
              88.18549096362712,
              27.914337156833387,
              0.0
            ],
            [
              88.18600944373517,
              27.914378596693325,
              0.0
            ],
            [
              88.18621278816416,
              27.914286079796724,
              0.0
            ],
            [
              88.18661465843378,
              27.914286079796724,
              0.0
            ],
            [
              88.18792916933968,
              27.91454628356842,
              0.0
            ],
            [
              88.18849969020208,
              27.914587723428355,
              0.0
            ],
            [
              88.18901720659244,
              27.914582904839992,
              0.0
            ],
            [
              88.18953665041816,
              27.914624344699927,
              0.0
            ],
            [
              88.19005513052622,
              27.91471204300817,
              0.0
            ],
            [
              88.19057457435194,
              27.914753482868104,
              0.0
            ],
            [
              88.1910920907423,
              27.91474962799741,
              0.0
            ],
            [
              88.19161057085036,
              27.914744809409047,
              0.0
            ],
            [
              88.19197003754236,
              27.914419072835592,
              0.0
            ],
            [
              88.19196425523633,
              27.913959379505595,
              0.0
            ],
            [
              88.19237576268269,
              27.913678937662766,
              0.0
            ],
            [
              88.1928412383187,
              27.913537271164838,
              0.0
            ],
            [
              88.19319974129306,
              27.913211534591383,
              0.0
            ],
            [
              88.19340308572204,
              27.912796172274344,
              0.0
            ],
            [
              88.19344934417035,
              27.912335515226673,
              0.0
            ],
            [
              88.1933404440733,
              27.911875821896675,
              0.0
            ],
            [
              88.19333562548493,
              27.911415164849007,
              0.0
            ],
            [
              88.19333080689657,
              27.91095547151901,
              0.0
            ],
            [
              88.1933259883082,
              27.91049481447134,
              0.0
            ],
            [
              88.19301085262916,
              27.91012956547329,
              0.0
            ],
            [
              88.1926957169501,
              27.909764316475243,
              0.0
            ],
            [
              88.1922784271977,
              27.909491584373797,
              0.0
            ],
            [
              88.19181006040866,
              27.909311369168957,
              0.0
            ],
            [
              88.19134072990194,
              27.90908489551581,
              0.0
            ],
            [
              88.19128965286525,
              27.909085859233485,
              0.0
            ],
            [
              88.19009657038615,
              27.909003943231287,
              0.0
            ],
            [
              88.1895780902781,
              27.90900876181965,
              0.0
            ],
            [
              88.18906057388773,
              27.909012616690344,
              0.0
            ],
            [
              88.18854209377969,
              27.90901743527871,
              0.0
            ],
            [
              88.18802361367163,
              27.90897599541877,
              0.0
            ],
            [
              88.18745309280925,
              27.908934555558833,
              0.0
            ],
            [
              88.18693364898353,
              27.908846857250595,
              0.0
            ],
            [
              88.18646624591214,
              27.908712900494056,
              0.0
            ],
            [
              88.1859978791231,
              27.908578943737513,
              0.0
            ],
            [
              88.18547843529737,
              27.908444986980975,
              0.0
            ],
            [
              88.185011032226,
              27.908311030224436,
              0.0
            ],
            [
              88.18449255211794,
              27.908269590364498,
              0.0
            ],
            [
              88.18397310829224,
              27.90813563360796,
              0.0
            ],
            [
              88.1835037777855,
              27.907910123672487,
              0.0
            ],
            [
              88.18308648803311,
              27.907637391571043,
              0.0
            ],
            [
              88.18261812124406,
              27.9075034348145,
              0.0
            ],
            [
              88.18215071817268,
              27.907369478057962,
              0.0
            ],
            [
              88.18178450545696,
              27.907050487508215,
              0.0
            ],
            [
              88.18136721570457,
              27.90677775540677,
              0.0
            ],
            [
              88.18094896223451,
              27.906458764857028,
              0.0
            ],
            [
              88.18048059544546,
              27.906278549652185,
              0.0
            ],
            [
              88.18001319237409,
              27.906144592895643,
              0.0
            ],
            [
              88.17949278483069,
              27.905965341408475,
              0.0
            ],
            [
              88.17944074407635,
              27.905965341408475,
              0.0
            ],
            [
              88.17803660742686,
              27.90542469579395,
              0.0
            ],
            [
              88.1776183539568,
              27.905152927410178,
              0.0
            ],
            [
              88.17714998716775,
              27.904926453757035,
              0.0
            ],
            [
              88.17673269741536,
              27.904653721655592,
              0.0
            ],
            [
              88.1764175617363,
              27.90428847265754,
              0.0
            ],
            [
              88.17620554384825,
              27.90387600149352,
              0.0
            ],
            [
              88.17599448967788,
              27.903463530329496,
              0.0
            ],
            [
              88.17583451254417,
              27.903050095447803,
              0.0
            ],
            [
              88.17567453541047,
              27.90263762428378,
              0.0
            ],
            [
              88.17551455827675,
              27.902224189402084,
              0.0
            ],
            [
              88.17550973968838,
              27.901764496072087,
              0.0
            ],
            [
              88.17534976255467,
              27.90135106119039,
              0.0
            ],
            [
              88.17518882170329,
              27.900892331578067,
              0.0
            ],
            [
              88.17492572677858,
              27.900479860414045,
              0.0
            ],
            [
              88.17466166813618,
              27.900068352967693,
              0.0
            ],
            [
              88.17463950262972,
              27.900042332590527,
              0.0
            ],
            [
              88.17495945689713,
              27.89999221927153,
              0.0
            ],
            [
              88.17546926354612,
              27.899836097008514,
              0.0
            ],
            [
              88.17606580478568,
              27.89983127842015,
              0.0
            ],
            [
              88.1764956228678,
              27.90013099461644,
              0.0
            ],
            [
              88.17692447723228,
              27.90035457711656,
              0.0
            ],
            [
              88.17743428388127,
              27.90019845485354,
              0.0
            ],
            [
              88.17751427244812,
              27.899743580111913,
              0.0
            ],
            [
              88.17756342204945,
              27.899463138269084,
              0.0
            ],
            [
              88.17768003188786,
              27.899287741652607,
              0.0
            ],
            [
              88.17793156220051,
              27.89890707317179,
              0.0
            ],
            [
              88.17826886338604,
              27.898525440973305,
              0.0
            ],
            [
              88.1786052008539,
              27.898143808774815,
              0.0
            ],
            [
              88.17877096029365,
              27.89768797031551,
              0.0
            ],
            [
              88.17851075652196,
              27.897311156705385,
              0.0
            ],
            [
              88.17833535990547,
              27.8968582093991,
              0.0
            ],
            [
              88.17833054131711,
              27.89640429837514,
              0.0
            ],
            [
              88.17824091557353,
              27.89595038735118,
              0.0
            ],
            [
              88.17798071180182,
              27.895573573741057,
              0.0
            ],
            [
              88.17755185743736,
              27.895349991240934,
              0.0
            ],
            [
              88.17712300307291,
              27.895126408740808,
              0.0
            ],
            [
              88.176524534398,
              27.89490475367603,
              0.0
            ],
            [
              88.17592510200542,
              27.894682134893582,
              0.0
            ],
            [
              88.17577187089543,
              27.894606001197417,
              0.0
            ],
            [
              88.17572753988246,
              27.894153053891127,
              0.0
            ],
            [
              88.17559647427895,
              27.893706852608553,
              0.0
            ],
            [
              88.17555792557202,
              27.89363264634774,
              0.0
            ],
            [
              88.17583354882649,
              27.893384007188114,
              0.0
            ],
            [
              88.1755694901841,
              27.892971536024092,
              0.0
            ],
            [
              88.17525531822272,
              27.892606287026048,
              0.0
            ],
            [
              88.17504330033466,
              27.892193815862026,
              0.0
            ],
            [
              88.17467708761896,
              27.891874825312275,
              0.0
            ],
            [
              88.17446506973091,
              27.891462354148253,
              0.0
            ],
            [
              88.17435713335153,
              27.891002660818256,
              0.0
            ],
            [
              88.17430027400883,
              27.89054296748826,
              0.0
            ],
            [
              88.17429931029116,
              27.890496709039958,
              0.0
            ],
            [
              88.1741836641704,
              27.88939325230443,
              0.0
            ],
            [
              88.17423088633639,
              27.88893259525676,
              0.0
            ],
            [
              88.17422606774802,
              27.88847193820909,
              0.0
            ],
            [
              88.17416728096997,
              27.888222335331797,
              0.0
            ],
            [
              88.17427618106701,
              27.888081632551547,
              0.0
            ],
            [
              88.17449590869643,
              27.887905272217395,
              0.0
            ],
            [
              88.1740554897199,
              27.887908163370415,
              0.0
            ],
            [
              88.17348689629286,
              27.88791298195878,
              0.0
            ],
            [
              88.17291830286582,
              27.887817573909157,
              0.0
            ],
            [
              88.17223599075338,
              27.887823356215197,
              0.0
            ],
            [
              88.17155271492325,
              27.887727948165573,
              0.0
            ],
            [
              88.17098412149622,
              27.887631576398277,
              0.0
            ],
            [
              88.17052731931923,
              27.887434014275325,
              0.0
            ],
            [
              88.16995872589219,
              27.887438832863687,
              0.0
            ],
            [
              88.16938916874749,
              27.887342461096395,
              0.0
            ],
            [
              88.16882057532044,
              27.8872460893291,
              0.0
            ],
            [
              88.16836377314347,
              27.887048527206144,
              0.0
            ],
            [
              88.16779421599875,
              27.88695215543885,
              0.0
            ],
            [
              88.16722465885404,
              27.886855783671553,
              0.0
            ],
            [
              88.16676785667705,
              27.886657257830926,
              0.0
            ],
            [
              88.16619733581467,
              27.886460659425644,
              0.0
            ],
            [
              88.16551405998456,
              27.886264061020363,
              0.0
            ],
            [
              88.16494450283984,
              27.886167689253067,
              0.0
            ],
            [
              88.1643759094128,
              27.886172507841433,
              0.0
            ],
            [
              88.16380635226808,
              27.88597590943615,
              0.0
            ],
            [
              88.16323679512337,
              27.885879537668856,
              0.0
            ],
            [
              88.16266723797865,
              27.88578316590156,
              0.0
            ],
            [
              88.16209768083394,
              27.885686794134266,
              0.0
            ],
            [
              88.1615290874069,
              27.885591386084645,
              0.0
            ],
            [
              88.16095856654452,
              27.88539382396169,
              0.0
            ],
            [
              88.16016060831132,
              27.88519818927408,
              0.0
            ],
            [
              88.1595910511666,
              27.88510278122446,
              0.0
            ],
            [
              88.1591352127073,
              27.88490425538383,
              0.0
            ],
            [
              88.15856565556258,
              27.884807883616535,
              0.0
            ],
            [
              88.15799609841787,
              27.88471151184924,
              0.0
            ],
            [
              88.15753833252322,
              27.884412759370626,
              0.0
            ],
            [
              88.15708153034623,
              27.88421423353,
              0.0
            ],
            [
              88.15651197320152,
              27.88411882548038,
              0.0
            ],
            [
              88.15594145233914,
              27.883820073001765,
              0.0
            ],
            [
              88.15537093147675,
              27.883623474596483,
              0.0
            ],
            [
              88.1549131655821,
              27.883323758400195,
              0.0
            ],
            [
              88.15445443596978,
              27.88292381556592,
              0.0
            ],
            [
              88.15399667007512,
              27.882625063087303,
              0.0
            ],
            [
              88.15365069543054,
              27.882224156535358,
              0.0
            ],
            [
              88.15319292953589,
              27.88192444033907,
              0.0
            ],
            [
              88.15273516364124,
              27.881625687860456,
              0.0
            ],
            [
              88.15227739774657,
              27.88132597166417,
              0.0
            ],
            [
              88.15170494944886,
              27.88092699254757,
              0.0
            ],
            [
              88.15124621983652,
              27.880527049713294,
              0.0
            ],
            [
              88.1507874902242,
              27.88012710687902,
              0.0
            ],
            [
              88.15032972432955,
              27.87982739068273,
              0.0
            ],
            [
              88.14998471340265,
              27.879426484130786,
              0.0
            ],
            [
              88.14963970247572,
              27.879025577578837,
              0.0
            ],
            [
              88.1494084102342,
              27.878623707309217,
              0.0
            ],
            [
              88.14906243558963,
              27.87822280075727,
              0.0
            ],
            [
              88.14912796839138,
              27.877919229690292,
              0.0
            ],
            [
              88.1490595444366,
              27.877920193407963,
              0.0
            ],
            [
              88.14849191472723,
              27.877924048278658,
              0.0
            ],
            [
              88.14792428501787,
              27.87803005722268,
              0.0
            ],
            [
              88.14735761902617,
              27.878136066166704,
              0.0
            ],
            [
              88.14678998931682,
              27.87824111139306,
              0.0
            ],
            [
              88.14633800572818,
              27.87844734697507,
              0.0
            ],
            [
              88.14588602213958,
              27.878753809195068,
              0.0
            ],
            [
              88.14532128358323,
              27.879061235132735,
              0.0
            ],
            [
              88.14475558130921,
              27.87926843443242,
              0.0
            ],
            [
              88.14418891531751,
              27.87947467001443,
              0.0
            ],
            [
              88.14362128560815,
              27.879479488602797,
              0.0
            ],
            [
              88.14305269218112,
              27.87948430719116,
              0.0
            ],
            [
              88.14248506247174,
              27.879489125779525,
              0.0
            ],
            [
              88.14191550532702,
              27.879392754012233,
              0.0
            ],
            [
              88.14134594818232,
              27.879296382244938,
              0.0
            ],
            [
              88.14077735475527,
              27.879200010477643,
              0.0
            ],
            [
              88.14020779761056,
              27.879103638710347,
              0.0
            ],
            [
              88.13964209533654,
              27.87931083801003,
              0.0
            ],
            [
              88.13919011174794,
              27.87961730023003,
              0.0
            ],
            [
              88.13874005559467,
              27.880024952805687,
              0.0
            ],
            [
              88.13840371812681,
              27.880431641663673,
              0.0
            ],
            [
              88.13806641694127,
              27.880838330521655,
              0.0
            ],
            [
              88.137616360788,
              27.881245983097315,
              0.0
            ],
            [
              88.13716534091705,
              27.881552445317315,
              0.0
            ],
            [
              88.13671432104611,
              27.881960097892968,
              0.0
            ],
            [
              88.13626330117518,
              27.88226752383064,
              0.0
            ],
            [
              88.13581035386889,
              27.88247279569498,
              0.0
            ],
            [
              88.13556749701532,
              27.88258362322737,
              0.0
            ]
          ]
        ]
      }
    }
  ],
  "properties": {
    "site_id": "south-lhonak",
    "observation_date": "2023-10-15",
    "version": "phase-2-retreat-v1.0"
  }
}