{
  "type": "FeatureCollection",
  "features": [
    {
      "type": "Feature",
      "properties": {
        "site_id": "south-lhonak",
        "glacier_id": "RGI2000-v7.0-G-15-07986",
        "observation_date": "2024-10-15",
        "area_km2": 13.132,
        "area_2016_km2": 14.26,
        "scale_factor": 0.9596,
        "source": "Phase 2 GeoAI derived boundary (versioned, reviewed) \u2014 scaled from RGI 2000 baseline by measured area change; confidence + image-quality documented in measurements.ts",
        "source_id": "phase-2-geoai-v1.0",
        "processing_version": "phase-2-retreat-v1.0",
        "crs": "EPSG:4326",
        "status": "approved",
        "boundary_asset": "data/derived/phase2/boundaries/south-lhonak/2024-10-15.geojson"
      },
      "geometry": {
        "type": "Polygon",
        "coordinates": [
          [
            [
              88.13567368739429,
              27.88265527502985,
              0.0
            ],
            [
              88.13581955177827,
              27.882970035016328,
              0.0
            ],
            [
              88.13616502005611,
              27.883470004385096,
              0.0
            ],
            [
              88.13650856906574,
              27.883869212172826,
              0.0
            ],
            [
              88.13673984088507,
              27.884370141175697,
              0.0
            ],
            [
              88.13708338989471,
              27.88477030859753,
              0.0
            ],
            [
              88.13731370207994,
              27.88517047601937,
              0.0
            ],
            [
              88.13754497389927,
              27.885570643441202,
              0.0
            ],
            [
              88.1377752860845,
              27.885970810863036,
              0.0
            ],
            [
              88.13766684743062,
              27.886474618768222,
              0.0
            ],
            [
              88.13767260523525,
              27.88697746703931,
              0.0
            ],
            [
              88.13744997012287,
              27.88738147299756,
              0.0
            ],
            [
              88.1373424911031,
              27.88788528090275,
              0.0
            ],
            [
              88.1371198559907,
              27.888289286861003,
              0.0
            ],
            [
              88.13701237697093,
              27.888793094766193,
              0.0
            ],
            [
              88.13701717514147,
              27.889295943037276,
              0.0
            ],
            [
              88.13690969612169,
              27.88979879130836,
              0.0
            ],
            [
              88.13691449429221,
              27.890301639579437,
              0.0
            ],
            [
              88.13669281881393,
              27.890705645537697,
              0.0
            ],
            [
              88.13658438016004,
              27.891209453442883,
              0.0
            ],
            [
              88.13636270468176,
              27.89161345940114,
              0.0
            ],
            [
              88.1361419888376,
              27.892118226940433,
              0.0
            ],
            [
              88.1360335501837,
              27.89262203484562,
              0.0
            ],
            [
              88.13592607116394,
              27.893125842750806,
              0.0
            ],
            [
              88.13570439568566,
              27.8936306102901,
              0.0
            ],
            [
              88.13548367984149,
              27.89413441819529,
              0.0
            ],
            [
              88.13526104472908,
              27.89453938378765,
              0.0
            ],
            [
              88.1350393692508,
              27.894943389745904,
              0.0
            ],
            [
              88.134703497314,
              27.895348355338264,
              0.0
            ],
            [
              88.13459601829423,
              27.895851203609347,
              0.0
            ],
            [
              88.13426110599154,
              27.896256169201706,
              0.0
            ],
            [
              88.13403847087916,
              27.896661134794066,
              0.0
            ],
            [
              88.13381679540088,
              27.89706514075232,
              0.0
            ],
            [
              88.1335941602885,
              27.897469146710577,
              0.0
            ],
            [
              88.13337344444432,
              27.897972954615764,
              0.0
            ],
            [
              88.13292337604902,
              27.898279077895296,
              0.0
            ],
            [
              88.13247522692193,
              27.898685003121763,
              0.0
            ],
            [
              88.13202611816074,
              27.899090928348226,
              0.0
            ],
            [
              88.13157796903364,
              27.899496853574693,
              0.0
            ],
            [
              88.13112694100423,
              27.899701255639084,
              0.0
            ],
            [
              88.13079202870155,
              27.900106221231443,
              0.0
            ],
            [
              88.13045615676475,
              27.900511186823806,
              0.0
            ],
            [
              88.13023448128648,
              27.90091519278206,
              0.0
            ],
            [
              88.13013563897366,
              27.901004438753837,
              0.0
            ],
            [
              88.13015099311932,
              27.901156060942448,
              0.0
            ],
            [
              88.13021336933616,
              27.901703052382363,
              0.0
            ],
            [
              88.13027478591889,
              27.90229994479575,
              0.0
            ],
            [
              88.13027958408941,
              27.90274809392284,
              0.0
            ],
            [
              88.13028534189404,
              27.903246144023395,
              0.0
            ],
            [
              88.13017786287426,
              27.90369525278459,
              0.0
            ],
            [
              88.1300723031227,
              27.90434396543965,
              0.0
            ],
            [
              88.13007710129324,
              27.904792114566742,
              0.0
            ],
            [
              88.13019321701995,
              27.90523930405973,
              0.0
            ],
            [
              88.13047822834918,
              27.905634673311038,
              0.0
            ],
            [
              88.13065096248809,
              27.906081862804022,
              0.0
            ],
            [
              88.1310472913735,
              27.90647723205533,
              0.0
            ],
            [
              88.13144266062483,
              27.906772799359707,
              0.0
            ],
            [
              88.13172671231993,
              27.90716816861102,
              0.0
            ],
            [
              88.13229001753963,
              27.907412875307823,
              0.0
            ],
            [
              88.13274104556905,
              27.907608640665266,
              0.0
            ],
            [
              88.13330243152053,
              27.907703644441675,
              0.0
            ],
            [
              88.13377649076847,
              27.90777561699956,
              0.0
            ],
            [
              88.13402983417221,
              27.90806062832878,
              0.0
            ],
            [
              88.13449621634732,
              27.908240079906438,
              0.0
            ],
            [
              88.13501345912996,
              27.908327406610002,
              0.0
            ],
            [
              88.13553070191261,
              27.908460795750614,
              0.0
            ],
            [
              88.13604794469528,
              27.90854812245418,
              0.0
            ],
            [
              88.13656422784385,
              27.908635449157746,
              0.0
            ],
            [
              88.13703061001893,
              27.908768838298357,
              0.0
            ],
            [
              88.13749603255991,
              27.90890222743897,
              0.0
            ],
            [
              88.137962414735,
              27.909127741453673,
              0.0
            ],
            [
              88.13842879691009,
              27.909262090228392,
              0.0
            ],
            [
              88.13889517908517,
              27.909441541806046,
              0.0
            ],
            [
              88.13936060162615,
              27.9096209933837,
              0.0
            ],
            [
              88.13982794343535,
              27.90989161020135,
              0.0
            ],
            [
              88.1403442265839,
              27.909933834101974,
              0.0
            ],
            [
              88.14086050973246,
              27.9098829734944,
              0.0
            ],
            [
              88.14137583324691,
              27.909879134957983,
              0.0
            ],
            [
              88.14194297700304,
              27.90982827435041,
              0.0
            ],
            [
              88.1424055206417,
              27.909687208136955,
              0.0
            ],
            [
              88.14286902391447,
              27.909546141923503,
              0.0
            ],
            [
              88.14338434742892,
              27.909495281315934,
              0.0
            ],
            [
              88.1438468910676,
              27.909354215102482,
              0.0
            ],
            [
              88.14430943470626,
              27.90916708645198,
              0.0
            ],
            [
              88.14477293797903,
              27.90902602023853,
              0.0
            ],
            [
              88.14512992186614,
              27.908701663911,
              0.0
            ],
            [
              88.14538422490399,
              27.90828710197759,
              0.0
            ],
            [
              88.14548210758272,
              27.907828396875342,
              0.0
            ],
            [
              88.14578823086224,
              27.90745893774487,
              0.0
            ],
            [
              88.14609339450767,
              27.9070894786144,
              0.0
            ],
            [
              88.14609339450767,
              27.907043416177356,
              0.0
            ],
            [
              88.14717298287594,
              27.906714261679298,
              0.0
            ],
            [
              88.14763648614871,
              27.906572235831742,
              0.0
            ],
            [
              88.14815085002905,
              27.90647627242123,
              0.0
            ],
            [
              88.14861435330182,
              27.906335206207775,
              0.0
            ],
            [
              88.14907689694049,
              27.906194139994323,
              0.0
            ],
            [
              88.14953848094505,
              27.905914886469734,
              0.0
            ],
            [
              88.14994824470794,
              27.90563659257925,
              0.0
            ],
            [
              88.15046356822239,
              27.905540629168737,
              0.0
            ],
            [
              88.15097889173683,
              27.905536790632315,
              0.0
            ],
            [
              88.1514951748854,
              27.90553199246179,
              0.0
            ],
            [
              88.15201049839983,
              27.905528153925367,
              0.0
            ],
            [
              88.15252678154839,
              27.905523355754845,
              0.0
            ],
            [
              88.15304306469696,
              27.905519517218423,
              0.0
            ],
            [
              88.1535593478455,
              27.905560781484944,
              0.0
            ],
            [
              88.15407467135996,
              27.905555983314418,
              0.0
            ],
            [
              88.15454105353504,
              27.905735434892076,
              0.0
            ],
            [
              88.15495657510256,
              27.906007011343824,
              0.0
            ],
            [
              88.15527037545493,
              27.90637167230377,
              0.0
            ],
            [
              88.15573675763001,
              27.906596226684368,
              0.0
            ],
            [
              88.15615323883164,
              27.906867803136116,
              0.0
            ],
            [
              88.15656876039915,
              27.907139379587868,
              0.0
            ],
            [
              88.15703610220835,
              27.907410956039616,
              0.0
            ],
            [
              88.15750248438344,
              27.907590407617274,
              0.0
            ],
            [
              88.15796790692441,
              27.90776985919493,
              0.0
            ],
            [
              88.15843524873361,
              27.907994413575526,
              0.0
            ],
            [
              88.15885077030113,
              27.908265990027274,
              0.0
            ],
            [
              88.15931715247622,
              27.90849150404198,
              0.0
            ],
            [
              88.1593689727179,
              27.90849150404198,
              0.0
            ],
            [
              88.16014723597715,
              27.908851366831396,
              0.0
            ],
            [
              88.16061265851813,
              27.90898475597201,
              0.0
            ],
            [
              88.16107808105912,
              27.909118145112622,
              0.0
            ],
            [
              88.1615444632342,
              27.909252493887337,
              0.0
            ],
            [
              88.16206074638275,
              27.909293758153858,
              0.0
            ],
            [
              88.16257702953132,
              27.90933502242038,
              0.0
            ],
            [
              88.16309331267986,
              27.909331183883957,
              0.0
            ],
            [
              88.16360863619431,
              27.90932638571343,
              0.0
            ],
            [
              88.16412491934287,
              27.90932158754291,
              0.0
            ],
            [
              88.16464120249142,
              27.909317749006487,
              0.0
            ],
            [
              88.16520930588165,
              27.909359013273004,
              0.0
            ],
            [
              88.1657246293961,
              27.909354215102482,
              0.0
            ],
            [
              88.16624091254465,
              27.90935037656606,
              0.0
            ],
            [
              88.16675719569322,
              27.909345578395534,
              0.0
            ],
            [
              88.16727251920766,
              27.90934078022501,
              0.0
            ],
            [
              88.16778880235621,
              27.90933694168859,
              0.0
            ],
            [
              88.16830412587066,
              27.90933214351806,
              0.0
            ],
            [
              88.16882136865333,
              27.90937436741869,
              0.0
            ],
            [
              88.1692877508284,
              27.90955285936224,
              0.0
            ],
            [
              88.16980499361107,
              27.909686248502855,
              0.0
            ],
            [
              88.17022051517858,
              27.909957824954603,
              0.0
            ],
            [
              88.17068689735368,
              27.910183338969304,
              0.0
            ],
            [
              88.17120605940454,
              27.910407893349902,
              0.0
            ],
            [
              88.1717223425531,
              27.91049522005347,
              0.0
            ],
            [
              88.17229140557743,
              27.91058158712293,
              0.0
            ],
            [
              88.17275682811841,
              27.910715935897645,
              0.0
            ],
            [
              88.17322321029351,
              27.910895387475303,
              0.0
            ],
            [
              88.17373949344206,
              27.910936651741824,
              0.0
            ],
            [
              88.17415501500957,
              27.911208228193573,
              0.0
            ],
            [
              88.17462139718467,
              27.91138767977123,
              0.0
            ],
            [
              88.17508873899385,
              27.911612234151825,
              0.0
            ],
            [
              88.17555512116894,
              27.91183774816653,
              0.0
            ],
            [
              88.17602246297814,
              27.91206326218123,
              0.0
            ],
            [
              88.17648884515322,
              27.912241754124786,
              0.0
            ],
            [
              88.17695618696243,
              27.912513330576534,
              0.0
            ],
            [
              88.17747247011097,
              27.912554594843055,
              0.0
            ],
            [
              88.17798971289363,
              27.912687983983666,
              0.0
            ],
            [
              88.17845609506871,
              27.912821373124274,
              0.0
            ],
            [
              88.17892151760971,
              27.91295476226489,
              0.0
            ],
            [
              88.17943876039236,
              27.913042088968457,
              0.0
            ],
            [
              88.17995504354091,
              27.913083353234974,
              0.0
            ],
            [
              88.18047132668947,
              27.913124617501495,
              0.0
            ],
            [
              88.18098856947212,
              27.913211944205063,
              0.0
            ],
            [
              88.18150581225478,
              27.91334533334567,
              0.0
            ],
            [
              88.18197123479577,
              27.913478722486282,
              0.0
            ],
            [
              88.18248847757843,
              27.913519986752803,
              0.0
            ],
            [
              88.18300476072699,
              27.913561251019324,
              0.0
            ],
            [
              88.18347018326797,
              27.913694640159935,
              0.0
            ],
            [
              88.18393656544306,
              27.913874091737593,
              0.0
            ],
            [
              88.18440390725226,
              27.914099605752295,
              0.0
            ],
            [
              88.18486932979323,
              27.91423299489291,
              0.0
            ],
            [
              88.18538561294179,
              27.914274259159427,
              0.0
            ],
            [
              88.18590189609034,
              27.914315523425948,
              0.0
            ],
            [
              88.18610437888651,
              27.914223398551858,
              0.0
            ],
            [
              88.18650454630837,
              27.914223398551858,
              0.0
            ],
            [
              88.18781348722774,
              27.91448249976024,
              0.0
            ],
            [
              88.18838159061796,
              27.914523764026757,
              0.0
            ],
            [
              88.18889691413241,
              27.914518965856235,
              0.0
            ],
            [
              88.18941415691508,
              27.914560230122753,
              0.0
            ],
            [
              88.18993044006363,
              27.91464755682632,
              0.0
            ],
            [
              88.1904476828463,
              27.914688821092838,
              0.0
            ],
            [
              88.19096300636075,
              27.914684982556416,
              0.0
            ],
            [
              88.1914792895093,
              27.914680184385894,
              0.0
            ],
            [
              88.19183723303051,
              27.914355828058362,
              0.0
            ],
            [
              88.19183147522588,
              27.913898082590222,
              0.0
            ],
            [
              88.19224123898877,
              27.91361882906563,
              0.0
            ],
            [
              88.19270474226153,
              27.913477762852178,
              0.0
            ],
            [
              88.19306172614864,
              27.913153406524646,
              0.0
            ],
            [
              88.19326420894481,
              27.912739804225343,
              0.0
            ],
            [
              88.19331027138188,
              27.912281099123092,
              0.0
            ],
            [
              88.19320183272798,
              27.911823353654952,
              0.0
            ],
            [
              88.19319703455747,
              27.911364648552706,
              0.0
            ],
            [
              88.19319223638693,
              27.910906903084566,
              0.0
            ],
            [
              88.19318743821641,
              27.910448197982316,
              0.0
            ],
            [
              88.19287363786404,
              27.910084496656477,
              0.0
            ],
            [
              88.19255983751167,
              27.909720795330635,
              0.0
            ],
            [
              88.19214431594415,
              27.909449218878887,
              0.0
            ],
            [
              88.19167793376906,
              27.90926976730123,
              0.0
            ],
            [
              88.19121059195986,
              27.909044253286527,
              0.0
            ],
            [
              88.19115973135229,
              27.90904521292063,
              0.0
            ],
            [
              88.18997170433015,
              27.9089636440217,
              0.0
            ],
            [
              88.1894554211816,
              27.908968442192222,
              0.0
            ],
            [
              88.18894009766714,
              27.908972280728644,
              0.0
            ],
            [
              88.1884238145186,
              27.90897707889917,
              0.0
            ],
            [
              88.18790753137004,
              27.90893581463265,
              0.0
            ],
            [
              88.18733942797981,
              27.908894550366128,
              0.0
            ],
            [
              88.18682218519714,
              27.908807223662564,
              0.0
            ],
            [
              88.18635676265616,
              27.908673834521952,
              0.0
            ],
            [
              88.18589038048108,
              27.908540445381337,
              0.0
            ],
            [
              88.18537313769842,
              27.908407056240726,
              0.0
            ],
            [
              88.18490771515744,
              27.90827366710012,
              0.0
            ],
            [
              88.18439143200888,
              27.908232402833598,
              0.0
            ],
            [
              88.18387418922623,
              27.908099013692983,
              0.0
            ],
            [
              88.18340684741703,
              27.907874459312385,
              0.0
            ],
            [
              88.18299132584951,
              27.907602882860637,
              0.0
            ],
            [
              88.18252494367444,
              27.907469493720026,
              0.0
            ],
            [
              88.18205952113345,
              27.907336104579414,
              0.0
            ],
            [
              88.1816948601735,
              27.90701846569062,
              0.0
            ],
            [
              88.18127933860598,
              27.90674688923887,
              0.0
            ],
            [
              88.18086285740436,
              27.906429250350076,
              0.0
            ],
            [
              88.18039647522927,
              27.90624979877242,
              0.0
            ],
            [
              88.17993105268829,
              27.906116409631807,
              0.0
            ],
            [
              88.17941285027153,
              27.905937917688256,
              0.0
            ],
            [
              88.17936103002985,
              27.905937917688256,
              0.0
            ],
            [
              88.17796284313869,
              27.90539956295528,
              0.0
            ],
            [
              88.17754636193706,
              27.90512894613764,
              0.0
            ],
            [
              88.17707997976198,
              27.90490343212294,
              0.0
            ],
            [
              88.17666445819447,
              27.904631855671187,
              0.0
            ],
            [
              88.1763506578421,
              27.904268154345345,
              0.0
            ],
            [
              88.17613953833897,
              27.903857430948356,
              0.0
            ],
            [
              88.17592937846995,
              27.903446707551364,
              0.0
            ],
            [
              88.17577007920849,
              27.903035024520268,
              0.0
            ],
            [
              88.17561077994705,
              27.90262430112328,
              0.0
            ],
            [
              88.1754514806856,
              27.902212618092182,
              0.0
            ],
            [
              88.17544668251506,
              27.90175487262404,
              0.0
            ],
            [
              88.17528738325362,
              27.901343189592943,
              0.0
            ],
            [
              88.17512712435806,
              27.900886403758907,
              0.0
            ],
            [
              88.17486514424736,
              27.900475680361918,
              0.0
            ],
            [
              88.17460220450256,
              27.90006591659903,
              0.0
            ],
            [
              88.17458013291815,
              27.900040006478193,
              0.0
            ],
            [
              88.17489873144105,
              27.899990105504724,
              0.0
            ],
            [
              88.17540637788265,
              27.899834644779695,
              0.0
            ],
            [
              88.17600039139373,
              27.899829846609173,
              0.0
            ],
            [
              88.1764283882046,
              27.900128292815864,
              0.0
            ],
            [
              88.17685542538138,
              27.900350927928248,
              0.0
            ],
            [
              88.177363071823,
              27.90019546720322,
              0.0
            ],
            [
              88.17744272145372,
              27.899742519905605,
              0.0
            ],
            [
              88.17749166279307,
              27.899463266381016,
              0.0
            ],
            [
              88.17760777851979,
              27.899288612973884,
              0.0
            ],
            [
              88.17785824302123,
              27.89890955750236,
              0.0
            ],
            [
              88.17819411495802,
              27.898529542396734,
              0.0
            ],
            [
              88.17852902726071,
              27.898149527291107,
              0.0
            ],
            [
              88.17869408432679,
              27.897695620359386,
              0.0
            ],
            [
              88.17843498311841,
              27.89732040342428,
              0.0
            ],
            [
              88.17826032971128,
              27.89686937539488,
              0.0
            ],
            [
              88.17825553154074,
              27.896417387731365,
              0.0
            ],
            [
              88.17816628556898,
              27.895965400067855,
              0.0
            ],
            [
              88.17790718436059,
              27.895590183132754,
              0.0
            ],
            [
              88.17748014718381,
              27.895367548020367,
              0.0
            ],
            [
              88.17705311000704,
              27.895144912907977,
              0.0
            ],
            [
              88.17645717722775,
              27.8949241970638,
              0.0
            ],
            [
              88.17586028481438,
              27.89470252158552,
              0.0
            ],
            [
              88.17570770299166,
              27.894626710491213,
              0.0
            ],
            [
              88.17566355982282,
              27.894175682461807,
              0.0
            ],
            [
              88.17553304958453,
              27.893731371871137,
              0.0
            ],
            [
              88.17549466422032,
              27.893657480045043,
              0.0
            ],
            [
              88.17576911957438,
              27.89340989444592,
              0.0
            ],
            [
              88.17550617982958,
              27.89299917104893,
              0.0
            ],
            [
              88.1751933391113,
              27.892635469723093,
              0.0
            ],
            [
              88.17498221960818,
              27.8922247463261,
              0.0
            ],
            [
              88.17461755864825,
              27.891907107437305,
              0.0
            ],
            [
              88.17440643914512,
              27.891496384040313,
              0.0
            ],
            [
              88.17429896012534,
              27.891038638572173,
              0.0
            ],
            [
              88.17424234171314,
              27.89058089310403,
              0.0
            ],
            [
              88.17424138207903,
              27.890534830666983,
              0.0
            ],
            [
              88.17412622598643,
              27.88943604961662,
              0.0
            ],
            [
              88.17417324805758,
              27.888977344514377,
              0.0
            ],
            [
              88.17416844988705,
              27.88851863941213,
              0.0
            ],
            [
              88.17410991220663,
              27.888270094178903,
              0.0
            ],
            [
              88.17421835086051,
              27.888129987599555,
              0.0
            ],
            [
              88.17443714743648,
              27.88795437455832,
              0.0
            ],
            [
              88.17399859465044,
              27.887957253460634,
              0.0
            ],
            [
              88.17343241052842,
              27.88796205163116,
              0.0
            ],
            [
              88.17286622640641,
              27.88786704785475,
              0.0
            ],
            [
              88.17218680545997,
              27.887872805659384,
              0.0
            ],
            [
              88.17150642487945,
              27.887777801882976,
              0.0
            ],
            [
              88.17094024075743,
              27.887681838472464,
              0.0
            ],
            [
              88.1704853741916,
              27.887485113480917,
              0.0
            ],
            [
              88.16991919006958,
              27.88748991165144,
              0.0
            ],
            [
              88.16935204631345,
              27.887393948240927,
              0.0
            ],
            [
              88.16878586219143,
              27.887297984830415,
              0.0
            ],
            [
              88.16833099562561,
              27.887101259838865,
              0.0
            ],
            [
              88.16776385186948,
              27.887005296428352,
              0.0
            ],
            [
              88.16719670811335,
              27.886909333017844,
              0.0
            ],
            [
              88.16674184154753,
              27.88671164839219,
              0.0
            ],
            [
              88.1661737381573,
              27.886515883034743,
              0.0
            ],
            [
              88.16549335757678,
              27.8863201176773,
              0.0
            ],
            [
              88.16492621382065,
              27.886224154266788,
              0.0
            ],
            [
              88.16436002969863,
              27.886228952437314,
              0.0
            ],
            [
              88.1637928859425,
              27.886033187079867,
              0.0
            ],
            [
              88.16322574218637,
              27.885937223669355,
              0.0
            ],
            [
              88.16265859843026,
              27.885841260258843,
              0.0
            ],
            [
              88.16209145467413,
              27.885745296848334,
              0.0
            ],
            [
              88.1615252705521,
              27.885650293071926,
              0.0
            ],
            [
              88.16095716716187,
              27.885453568080376,
              0.0
            ],
            [
              88.16016259012284,
              27.885258762357036,
              0.0
            ],
            [
              88.15959544636671,
              27.88516375858063,
              0.0
            ],
            [
              88.15914153943498,
              27.884966073954978,
              0.0
            ],
            [
              88.15857439567887,
              27.884870110544465,
              0.0
            ],
            [
              88.15800725192274,
              27.884774147133953,
              0.0
            ],
            [
              88.1575514257228,
              27.884476660561365,
              0.0
            ],
            [
              88.15709655915697,
              27.88427897593571,
              0.0
            ],
            [
              88.15652941540085,
              27.884183972159303,
              0.0
            ],
            [
              88.15596131201062,
              27.883886485586718,
              0.0
            ],
            [
              88.1553932086204,
              27.883690720229275,
              0.0
            ],
            [
              88.15493738242046,
              27.883392274022583,
              0.0
            ],
            [
              88.15448059658642,
              27.882994025868957,
              0.0
            ],
            [
              88.15402477038648,
              27.88269653929637,
              0.0
            ],
            [
              88.15368026174275,
              27.88229733150864,
              0.0
            ],
            [
              88.15322443554281,
              27.881998885301947,
              0.0
            ],
            [
              88.15276860934289,
              27.881701398729362,
              0.0
            ],
            [
              88.15231278314295,
              27.88140295252267,
              0.0
            ],
            [
              88.15174276048451,
              27.881005664003148,
              0.0
            ],
            [
              88.15128597465048,
              27.88060741584952,
              0.0
            ],
            [
              88.15082918881645,
              27.8802091676959,
              0.0
            ],
            [
              88.1503733626165,
              27.879910721489207,
              0.0
            ],
            [
              88.15002981360688,
              27.879511513701477,
              0.0
            ],
            [
              88.14968626459724,
              27.879112305913747,
              0.0
            ],
            [
              88.14945595241201,
              27.878712138491913,
              0.0
            ],
            [
              88.14911144376828,
              27.878312930704183,
              0.0
            ],
            [
              88.14917669888743,
              27.87801064596107,
              0.0
            ],
            [
              88.14910856486595,
              27.878011605595177,
              0.0
            ],
            [
              88.14854334037804,
              27.8780154441316,
              0.0
            ],
            [
              88.14797811589013,
              27.87812100388316,
              0.0
            ],
            [
              88.14741385103632,
              27.878226563634723,
              0.0
            ],
            [
              88.1468486265484,
              27.878331163752183,
              0.0
            ],
            [
              88.1463985581531,
              27.878536525450677,
              0.0
            ],
            [
              88.1459484897578,
              27.878841689096106,
              0.0
            ],
            [
              88.1453861441722,
              27.879147812375635,
              0.0
            ],
            [
              88.1448228389525,
              27.879354133708237,
              0.0
            ],
            [
              88.14425857409869,
              27.87955949540673,
              0.0
            ],
            [
              88.14369334961077,
              27.87956429357726,
              0.0
            ],
            [
              88.14312716548875,
              27.879569091747783,
              0.0
            ],
            [
              88.14256194100084,
              27.879573889918312,
              0.0
            ],
            [
              88.1419947972447,
              27.8794779265078,
              0.0
            ],
            [
              88.14142765348858,
              27.879381963097288,
              0.0
            ],
            [
              88.14086146936656,
              27.879285999686775,
              0.0
            ],
            [
              88.14029432561044,
              27.879190036276263,
              0.0
            ],
            [
              88.13973102039073,
              27.879396357608865,
              0.0
            ],
            [
              88.13928095199543,
              27.879701521254294,
              0.0
            ],
            [
              88.13883280286835,
              27.880107446480757,
              0.0
            ],
            [
              88.13849789056566,
              27.880512412073116,
              0.0
            ],
            [
              88.13816201862888,
              27.88091737766548,
              0.0
            ],
            [
              88.13771386950178,
              27.881323302891946,
              0.0
            ],
            [
              88.13726476074056,
              27.88162846653737,
              0.0
            ],
            [
              88.13681565197938,
              27.882034391763835,
              0.0
            ],
            [
              88.13636654321819,
              27.88234051504337,
              0.0
            ],
            [
              88.13591551518878,
              27.882544917107758,
              0.0
            ],
            [
              88.13567368739429,
              27.88265527502985,
              0.0
            ]
          ]
        ]
      }
    }
  ],
  "properties": {
    "site_id": "south-lhonak",
    "observation_date": "2024-10-15",
    "version": "phase-2-retreat-v1.0"
  }
}