{
  "type": "FeatureCollection",
  "features": [
    {
      "type": "Feature",
      "properties": {
        "site_id": "south-lhonak",
        "glacier_id": "RGI2000-v7.0-G-15-07986",
        "observation_date": "2025-10-15",
        "area_km2": 12.98,
        "area_2016_km2": 14.26,
        "scale_factor": 0.9541,
        "source": "Phase 2 GeoAI derived boundary (versioned, reviewed) \u2014 scaled from RGI 2000 baseline by measured area change; confidence + image-quality documented in measurements.ts",
        "source_id": "phase-2-geoai-v1.0",
        "processing_version": "phase-2-retreat-v1.0",
        "crs": "EPSG:4326",
        "status": "approved",
        "boundary_asset": "data/derived/phase2/boundaries/south-lhonak/2025-10-15.geojson"
      },
      "geometry": {
        "type": "Polygon",
        "coordinates": [
          [
            [
              88.13581852988864,
              27.882753007290486,
              0.0
            ],
            [
              88.13596354764158,
              27.8830659403363,
              0.0
            ],
            [
              88.13630701074064,
              27.883563007765787,
              0.0
            ],
            [
              88.13664856571137,
              27.88395989845804,
              0.0
            ],
            [
              88.13687849517491,
              27.88445791995169,
              0.0
            ],
            [
              88.13722005014566,
              27.884855764708107,
              0.0
            ],
            [
              88.13744902554504,
              27.885253609464527,
              0.0
            ],
            [
              88.13767895500858,
              27.885651454220948,
              0.0
            ],
            [
              88.13790793040796,
              27.886049298977365,
              0.0
            ],
            [
              88.13780012115743,
              27.886550182663505,
              0.0
            ],
            [
              88.1378058455424,
              27.887050112285483,
              0.0
            ],
            [
              88.13758450265634,
              27.887451773298558,
              0.0
            ],
            [
              88.13747764746996,
              27.887952656984694,
              0.0
            ],
            [
              88.1372563045839,
              27.88835431799777,
              0.0
            ],
            [
              88.13714944939753,
              27.88885520168391,
              0.0
            ],
            [
              88.13715421971834,
              27.889355131305887,
              0.0
            ],
            [
              88.13704736453197,
              27.88985506092786,
              0.0
            ],
            [
              88.1370521348528,
              27.890354990549834,
              0.0
            ],
            [
              88.1368317460309,
              27.890756651562914,
              0.0
            ],
            [
              88.13672393678034,
              27.891257535249053,
              0.0
            ],
            [
              88.13650354795844,
              27.89165919626213,
              0.0
            ],
            [
              88.1362841132007,
              27.89216103401243,
              0.0
            ],
            [
              88.13617630395015,
              27.89266191769857,
              0.0
            ],
            [
              88.13606944876379,
              27.89316280138471,
              0.0
            ],
            [
              88.13584905994189,
              27.893664639135014,
              0.0
            ],
            [
              88.13562962518415,
              27.894165522821154,
              0.0
            ],
            [
              88.13540828229807,
              27.894568137898396,
              0.0
            ],
            [
              88.13518789347617,
              27.894969798911468,
              0.0
            ],
            [
              88.13485397101876,
              27.89537241398871,
              0.0
            ],
            [
              88.13474711583237,
              27.895872343610684,
              0.0
            ],
            [
              88.13441414743912,
              27.896274958687926,
              0.0
            ],
            [
              88.13419280455305,
              27.896677573765164,
              0.0
            ],
            [
              88.13397241573115,
              27.89707923477824,
              0.0
            ],
            [
              88.13375107284509,
              27.897480895791315,
              0.0
            ],
            [
              88.13353163808735,
              27.897981779477455,
              0.0
            ],
            [
              88.1330841819944,
              27.898286125945795,
              0.0
            ],
            [
              88.13263863402977,
              27.8986896950872,
              0.0
            ],
            [
              88.132192132001,
              27.8990932642286,
              0.0
            ],
            [
              88.13174658403636,
              27.899496833370005,
              0.0
            ],
            [
              88.13129817387924,
              27.89970004903695,
              0.0
            ],
            [
              88.13096520548598,
              27.900102664114193,
              0.0
            ],
            [
              88.13063128302856,
              27.90050527919143,
              0.0
            ],
            [
              88.13041089420666,
              27.900906940204507,
              0.0
            ],
            [
              88.13031262559777,
              27.900995668171767,
              0.0
            ],
            [
              88.13032789062437,
              27.901146410309693,
              0.0
            ],
            [
              88.13038990479505,
              27.901690226883215,
              0.0
            ],
            [
              88.13045096490154,
              27.90228365479327,
              0.0
            ],
            [
              88.13045573522237,
              27.902729202757893,
              0.0
            ],
            [
              88.13046145960735,
              27.903224362059046,
              0.0
            ],
            [
              88.13035460442097,
              27.903670864087836,
              0.0
            ],
            [
              88.13024965736292,
              27.904315811462748,
              0.0
            ],
            [
              88.13025442768375,
              27.904761359427372,
              0.0
            ],
            [
              88.13036986944759,
              27.905205953327833,
              0.0
            ],
            [
              88.13065322650434,
              27.90559902776343,
              0.0
            ],
            [
              88.13082495805386,
              27.906043621663887,
              0.0
            ],
            [
              88.13121898655362,
              27.906436696099487,
              0.0
            ],
            [
              88.13161206098923,
              27.906730547862022,
              0.0
            ],
            [
              88.1318944639818,
              27.907123622297622,
              0.0
            ],
            [
              88.1324544996461,
              27.907366908659462,
              0.0
            ],
            [
              88.13290290980322,
              27.907561537748933,
              0.0
            ],
            [
              88.1334610373392,
              27.907655990101176,
              0.0
            ],
            [
              88.13393234503626,
              27.907727544913485,
              0.0
            ],
            [
              88.13418421797557,
              27.908010901970215,
              0.0
            ],
            [
              88.13464789315931,
              27.908189311968897,
              0.0
            ],
            [
              88.13516213374376,
              27.908276131807824,
              0.0
            ],
            [
              88.13567637432818,
              27.908408746726632,
              0.0
            ],
            [
              88.13619061491262,
              27.908495566565563,
              0.0
            ],
            [
              88.1367039014329,
              27.908582386404497,
              0.0
            ],
            [
              88.13716757661663,
              27.908715001323298,
              0.0
            ],
            [
              88.13763029773621,
              27.908847616242106,
              0.0
            ],
            [
              88.13809397291996,
              27.909071821320666,
              0.0
            ],
            [
              88.1385576481037,
              27.909205390303637,
              0.0
            ],
            [
              88.13902132328744,
              27.909383800302315,
              0.0
            ],
            [
              88.139484044407,
              27.909562210300997,
              0.0
            ],
            [
              88.13994867365491,
              27.909831256395268,
              0.0
            ],
            [
              88.14046196017519,
              27.909873235218488,
              0.0
            ],
            [
              88.14097524669546,
              27.90982266981779,
              0.0
            ],
            [
              88.14148757915157,
              27.909818853561138,
              0.0
            ],
            [
              88.14205143107255,
              27.90976828816044,
              0.0
            ],
            [
              88.14251128999962,
              27.909628040728318,
              0.0
            ],
            [
              88.14297210299087,
              27.9094877932962,
              0.0
            ],
            [
              88.14348443544698,
              27.909437227895506,
              0.0
            ],
            [
              88.14394429437407,
              27.909296980463388,
              0.0
            ],
            [
              88.14440415330115,
              27.90911093795139,
              0.0
            ],
            [
              88.14486496629239,
              27.908970690519272,
              0.0
            ],
            [
              88.14521987816144,
              27.908648216831818,
              0.0
            ],
            [
              88.14547270516492,
              27.908236061112937,
              0.0
            ],
            [
              88.14557001970965,
              27.90778001844251,
              0.0
            ],
            [
              88.14587436617798,
              27.907412703739336,
              0.0
            ],
            [
              88.14617775858217,
              27.90704538903617,
              0.0
            ],
            [
              88.14617775858217,
              27.906999593956296,
              0.0
            ],
            [
              88.14725108076675,
              27.906672349948018,
              0.0
            ],
            [
              88.147711893758,
              27.906531148451734,
              0.0
            ],
            [
              88.14822327214995,
              27.906435742035328,
              0.0
            ],
            [
              88.1486840851412,
              27.906295494603206,
              0.0
            ],
            [
              88.14914394406827,
              27.90615524717109,
              0.0
            ],
            [
              88.1496028489312,
              27.905877614499342,
              0.0
            ],
            [
              88.15001023432926,
              27.90560093589176,
              0.0
            ],
            [
              88.15052256678536,
              27.905505529475352,
              0.0
            ],
            [
              88.15103489924147,
              27.905501713218698,
              0.0
            ],
            [
              88.15154818576174,
              27.905496942897873,
              0.0
            ],
            [
              88.15206051821785,
              27.90549312664122,
              0.0
            ],
            [
              88.15257380473813,
              27.905488356320397,
              0.0
            ],
            [
              88.1530870912584,
              27.905484540063743,
              0.0
            ],
            [
              88.15360037777866,
              27.9055255648228,
              0.0
            ],
            [
              88.15411271023478,
              27.905520794501978,
              0.0
            ],
            [
              88.15457638541852,
              27.90569920450066,
              0.0
            ],
            [
              88.15498949520156,
              27.90596920465909,
              0.0
            ],
            [
              88.15530147418322,
              27.906331749041442,
              0.0
            ],
            [
              88.15576514936696,
              27.906555000055832,
              0.0
            ],
            [
              88.15617921321416,
              27.906825000214265,
              0.0
            ],
            [
              88.1565923229972,
              27.907095000372703,
              0.0
            ],
            [
              88.15705695224511,
              27.907365000531136,
              0.0
            ],
            [
              88.15752062742885,
              27.90754341052982,
              0.0
            ],
            [
              88.15798334854843,
              27.9077218205285,
              0.0
            ],
            [
              88.15844797779634,
              27.907945071542894,
              0.0
            ],
            [
              88.15886108757938,
              27.908215071701324,
              0.0
            ],
            [
              88.15932476276312,
              27.908439276779884,
              0.0
            ],
            [
              88.15937628222798,
              27.908439276779884,
              0.0
            ],
            [
              88.16015002826505,
              27.90879705084141,
              0.0
            ],
            [
              88.16061274938463,
              27.908929665760215,
              0.0
            ],
            [
              88.1610754705042,
              27.909062280679024,
              0.0
            ],
            [
              88.16153914568793,
              27.909195849661995,
              0.0
            ],
            [
              88.16205243220821,
              27.90923687442105,
              0.0
            ],
            [
              88.16256571872849,
              27.909277899180108,
              0.0
            ],
            [
              88.16307900524875,
              27.90927408292345,
              0.0
            ],
            [
              88.16359133770487,
              27.90926931260263,
              0.0
            ],
            [
              88.16410462422513,
              27.90926454228181,
              0.0
            ],
            [
              88.1646179107454,
              27.909260726025153,
              0.0
            ],
            [
              88.16518271673054,
              27.909301750784206,
              0.0
            ],
            [
              88.16569504918664,
              27.909296980463388,
              0.0
            ],
            [
              88.16620833570693,
              27.90929316420673,
              0.0
            ],
            [
              88.1667216222272,
              27.90928839388591,
              0.0
            ],
            [
              88.1672339546833,
              27.90928362356509,
              0.0
            ],
            [
              88.16774724120359,
              27.909279807308433,
              0.0
            ],
            [
              88.16825957365968,
              27.909275036987612,
              0.0
            ],
            [
              88.16877381424412,
              27.90931701581083,
              0.0
            ],
            [
              88.16923748942786,
              27.90949447174535,
              0.0
            ],
            [
              88.1697517300123,
              27.90962708666416,
              0.0
            ],
            [
              88.17016483979535,
              27.90989708682259,
              0.0
            ],
            [
              88.17062851497909,
              27.91012129190115,
              0.0
            ],
            [
              88.17114466369185,
              27.910344542915542,
              0.0
            ],
            [
              88.17165795021212,
              27.910431362754473,
              0.0
            ],
            [
              88.17222371026142,
              27.91051722852924,
              0.0
            ],
            [
              88.17268643138098,
              27.910650797512208,
              0.0
            ],
            [
              88.17315010656473,
              27.91082920751089,
              0.0
            ],
            [
              88.17366339308501,
              27.910870232269946,
              0.0
            ],
            [
              88.17407650286805,
              27.91114023242838,
              0.0
            ],
            [
              88.1745401780518,
              27.911318642427062,
              0.0
            ],
            [
              88.1750048072997,
              27.911541893441456,
              0.0
            ],
            [
              88.17546848248342,
              27.911766098520012,
              0.0
            ],
            [
              88.17593311173134,
              27.91199030359857,
              0.0
            ],
            [
              88.17639678691508,
              27.912167759533087,
              0.0
            ],
            [
              88.17686141616299,
              27.91243775969152,
              0.0
            ],
            [
              88.17737470268325,
              27.912478784450578,
              0.0
            ],
            [
              88.17788894326769,
              27.912611399369386,
              0.0
            ],
            [
              88.17835261845143,
              27.91274401428819,
              0.0
            ],
            [
              88.17881533957102,
              27.912876629206995,
              0.0
            ],
            [
              88.17932958015544,
              27.91296344904593,
              0.0
            ],
            [
              88.17984286667573,
              27.913004473804982,
              0.0
            ],
            [
              88.180356153196,
              27.91304549856404,
              0.0
            ],
            [
              88.18087039378042,
              27.91313231840297,
              0.0
            ],
            [
              88.18138463436486,
              27.913264933321773,
              0.0
            ],
            [
              88.18184735548444,
              27.91339754824058,
              0.0
            ],
            [
              88.18236159606887,
              27.913438572999638,
              0.0
            ],
            [
              88.18287488258916,
              27.91347959775869,
              0.0
            ],
            [
              88.18333760370874,
              27.9136122126775,
              0.0
            ],
            [
              88.18380127889246,
              27.91379062267618,
              0.0
            ],
            [
              88.18426590814038,
              27.914014827754738,
              0.0
            ],
            [
              88.18472862925995,
              27.914147442673546,
              0.0
            ],
            [
              88.18524191578021,
              27.9141884674326,
              0.0
            ],
            [
              88.1857552023005,
              27.914229492191655,
              0.0
            ],
            [
              88.1859565098391,
              27.914137902031904,
              0.0
            ],
            [
              88.18635435459554,
              27.914137902031904,
              0.0
            ],
            [
              88.18765569811534,
              27.914395499356207,
              0.0
            ],
            [
              88.18822050410047,
              27.91443652411526,
              0.0
            ],
            [
              88.18873283655657,
              27.914431753794442,
              0.0
            ],
            [
              88.189247077141,
              27.914472778553495,
              0.0
            ],
            [
              88.18976036366128,
              27.914559598392426,
              0.0
            ],
            [
              88.19027460424573,
              27.91460062315148,
              0.0
            ],
            [
              88.19078693670183,
              27.914596806894824,
              0.0
            ],
            [
              88.1913002232221,
              27.914592036574003,
              0.0
            ],
            [
              88.1916560891553,
              27.91426956288655,
              0.0
            ],
            [
              88.19165036477033,
              27.913814474280283,
              0.0
            ],
            [
              88.19205775016837,
              27.913536841608536,
              0.0
            ],
            [
              88.19251856315962,
              27.913396594176415,
              0.0
            ],
            [
              88.19287347502866,
              27.91307412048896,
              0.0
            ],
            [
              88.19307478256728,
              27.912662918834243,
              0.0
            ],
            [
              88.19312057764716,
              27.912206876163815,
              0.0
            ],
            [
              88.19301276839661,
              27.911751787557552,
              0.0
            ],
            [
              88.1930079980758,
              27.911295744887127,
              0.0
            ],
            [
              88.19300322775497,
              27.91084065628086,
              0.0
            ],
            [
              88.19299845743416,
              27.910384613610432,
              0.0
            ],
            [
              88.1926864784525,
              27.91002302329225,
              0.0
            ],
            [
              88.19237449947086,
              27.90966143297406,
              0.0
            ],
            [
              88.1919613896878,
              27.909391432815628,
              0.0
            ],
            [
              88.19149771450405,
              27.909213022816946,
              0.0
            ],
            [
              88.19103308525617,
              27.90898881773839,
              0.0
            ],
            [
              88.19098251985545,
              27.908989771802556,
              0.0
            ],
            [
              88.18980138842034,
              27.90890867634861,
              0.0
            ],
            [
              88.18928810190006,
              27.908913446669427,
              0.0
            ],
            [
              88.18877576944395,
              27.908917262926085,
              0.0
            ],
            [
              88.18826248292369,
              27.908922033246906,
              0.0
            ],
            [
              88.1877491964034,
              27.90888100848785,
              0.0
            ],
            [
              88.18718439041828,
              27.908839983728793,
              0.0
            ],
            [
              88.18667014983384,
              27.908753163889866,
              0.0
            ],
            [
              88.18620742871427,
              27.908620548971058,
              0.0
            ],
            [
              88.18574375353053,
              27.90848793405225,
              0.0
            ],
            [
              88.1852295129461,
              27.90835531913344,
              0.0
            ],
            [
              88.18476679182652,
              27.90822270421464,
              0.0
            ],
            [
              88.18425350530623,
              27.908181679455584,
              0.0
            ],
            [
              88.18373926472181,
              27.908049064536776,
              0.0
            ],
            [
              88.1832746354739,
              27.907825813522383,
              0.0
            ],
            [
              88.18286152569085,
              27.90755581336395,
              0.0
            ],
            [
              88.18239785050712,
              27.90742319844514,
              0.0
            ],
            [
              88.18193512938754,
              27.907290583526336,
              0.0
            ],
            [
              88.18157258500518,
              27.90697478828803,
              0.0
            ],
            [
              88.18115947522215,
              27.906704788129595,
              0.0
            ],
            [
              88.18074541137493,
              27.906388992891287,
              0.0
            ],
            [
              88.1802817361912,
              27.906210582892605,
              0.0
            ],
            [
              88.17981901507163,
              27.906077967973797,
              0.0
            ],
            [
              88.17930382042303,
              27.905900512039278,
              0.0
            ],
            [
              88.17925230095815,
              27.905900512039278,
              0.0
            ],
            [
              88.1778622294711,
              27.90536528204323,
              0.0
            ],
            [
              88.17744816562389,
              27.905096235948964,
              0.0
            ],
            [
              88.17698449044015,
              27.904872030870408,
              0.0
            ],
            [
              88.17657138065711,
              27.904602030711974,
              0.0
            ],
            [
              88.17625940167545,
              27.904240440393785,
              0.0
            ],
            [
              88.17604950755937,
              27.903832100931563,
              0.0
            ],
            [
              88.17584056750744,
              27.90342376146934,
              0.0
            ],
            [
              88.17568219285619,
              27.903014467942953,
              0.0
            ],
            [
              88.17552381820495,
              27.902606128480727,
              0.0
            ],
            [
              88.17536544355372,
              27.90219683495434,
              0.0
            ],
            [
              88.17536067323289,
              27.901741746348076,
              0.0
            ],
            [
              88.17520229858167,
              27.901332452821684,
              0.0
            ],
            [
              88.17504296986625,
              27.900878318279588,
              0.0
            ],
            [
              88.17478251034947,
              27.900469978817362,
              0.0
            ],
            [
              88.17452109676852,
              27.9000625934193,
              0.0
            ],
            [
              88.17449915329274,
              27.900036833686872,
              0.0
            ],
            [
              88.17481590259521,
              27.89998722235034,
              0.0
            ],
            [
              88.17532060253801,
              27.89983266395576,
              0.0
            ],
            [
              88.17591116825557,
              27.899827893634942,
              0.0
            ],
            [
              88.17633668087274,
              27.90012460758997,
              0.0
            ],
            [
              88.17676123942576,
              27.90034595047603,
              0.0
            ],
            [
              88.17726593936855,
              27.900191392081453,
              0.0
            ],
            [
              88.17734512669418,
              27.899741073796008,
              0.0
            ],
            [
              88.17739378396654,
              27.89946344112426,
              0.0
            ],
            [
              88.17750922573039,
              27.899289801446404,
              0.0
            ],
            [
              88.17775823647722,
              27.898912946101593,
              0.0
            ],
            [
              88.17809215893465,
              27.89853513669262,
              0.0
            ],
            [
              88.1784251273279,
              27.898157327283645,
              0.0
            ],
            [
              88.17858922636414,
              27.897706054934037,
              0.0
            ],
            [
              88.17833162903983,
              27.897333015845884,
              0.0
            ],
            [
              88.17815798936196,
              27.89688460568877,
              0.0
            ],
            [
              88.17815321904114,
              27.896435241467486,
              0.0
            ],
            [
              88.17806449107388,
              27.89598587724621,
              0.0
            ],
            [
              88.17780689374959,
              27.895612838158055,
              0.0
            ],
            [
              88.17738233519657,
              27.89539149527199,
              0.0
            ],
            [
              88.17695777664356,
              27.895170152385926,
              0.0
            ],
            [
              88.17636530279766,
              27.894950717628188,
              0.0
            ],
            [
              88.17577187488762,
              27.894730328806286,
              0.0
            ],
            [
              88.17562017868553,
              27.894654957737323,
              0.0
            ],
            [
              88.17557629173398,
              27.894206547580207,
              0.0
            ],
            [
              88.17544653900765,
              27.89376481587224,
              0.0
            ],
            [
              88.1754083764411,
              27.89369135293161,
              0.0
            ],
            [
              88.17568123879202,
              27.893445204377276,
              0.0
            ],
            [
              88.17541982521107,
              27.893036864915054,
              0.0
            ],
            [
              88.17510880029357,
              27.89267527459687,
              0.0
            ],
            [
              88.17489890617748,
              27.892266935134646,
              0.0
            ],
            [
              88.17453636179513,
              27.891951139896335,
              0.0
            ],
            [
              88.17432646767904,
              27.89154280043411,
              0.0
            ],
            [
              88.17421961249266,
              27.891087711827847,
              0.0
            ],
            [
              88.17416332270697,
              27.89063262322158,
              0.0
            ],
            [
              88.17416236864281,
              27.890586828141707,
              0.0
            ],
            [
              88.17404788094314,
              27.889494424673842,
              0.0
            ],
            [
              88.17409463008717,
              27.889038382003413,
              0.0
            ],
            [
              88.17408985976635,
              27.888582339332984,
              0.0
            ],
            [
              88.17403166185234,
              27.88833523671449,
              0.0
            ],
            [
              88.17413947110288,
              27.888195943346535,
              0.0
            ],
            [
              88.17435699773229,
              27.888021349604507,
              0.0
            ],
            [
              88.1739209904093,
              27.888024211797,
              0.0
            ],
            [
              88.17335809255249,
              27.888028982117824,
              0.0
            ],
            [
              88.17279519469571,
              27.887934529765577,
              0.0
            ],
            [
              88.17211971726753,
              27.887940254150564,
              0.0
            ],
            [
              88.17144328577521,
              27.887845801798317,
              0.0
            ],
            [
              88.1708803879184,
              27.88775039538191,
              0.0
            ],
            [
              88.17042816150463,
              27.887554812228277,
              0.0
            ],
            [
              88.16986526364782,
              27.887559582549095,
              0.0
            ],
            [
              88.16930141172685,
              27.88746417613269,
              0.0
            ],
            [
              88.16873851387005,
              27.887368769716282,
              0.0
            ],
            [
              88.16828628745628,
              27.887173186562645,
              0.0
            ],
            [
              88.16772243553531,
              27.88707778014624,
              0.0
            ],
            [
              88.16715858361434,
              27.88698237372983,
              0.0
            ],
            [
              88.16670635720057,
              27.886785836512033,
              0.0
            ],
            [
              88.16614155121545,
              27.886591207422562,
              0.0
            ],
            [
              88.16546511972311,
              27.88639657833309,
              0.0
            ],
            [
              88.16490126780215,
              27.88630117191668,
              0.0
            ],
            [
              88.16433836994534,
              27.886305942237502,
              0.0
            ],
            [
              88.16377451802437,
              27.886111313148028,
              0.0
            ],
            [
              88.1632106661034,
              27.886015906731622,
              0.0
            ],
            [
              88.16264681418244,
              27.885920500315216,
              0.0
            ],
            [
              88.16208296226147,
              27.88582509389881,
              0.0
            ],
            [
              88.16152006440466,
              27.885730641546566,
              0.0
            ],
            [
              88.16095525841952,
              27.88553505839293,
              0.0
            ],
            [
              88.16016529329167,
              27.885341383367624,
              0.0
            ],
            [
              88.15960144137071,
              27.88524693101538,
              0.0
            ],
            [
              88.1591501690211,
              27.885050393797577,
              0.0
            ],
            [
              88.15858631710013,
              27.88495498738117,
              0.0
            ],
            [
              88.15802246517916,
              27.884859580964765,
              0.0
            ],
            [
              88.15756928470121,
              27.8845638210739,
              0.0
            ],
            [
              88.15711705828745,
              27.8843672838561,
              0.0
            ],
            [
              88.15655320636648,
              27.884272831503857,
              0.0
            ],
            [
              88.15598840038135,
              27.883977071612996,
              0.0
            ],
            [
              88.15542359439623,
              27.883782442523525,
              0.0
            ],
            [
              88.15497041391828,
              27.8834857285685,
              0.0
            ],
            [
              88.15451627937618,
              27.883089791940407,
              0.0
            ],
            [
              88.15406309889823,
              27.88279403204954,
              0.0
            ],
            [
              88.15372058986335,
              27.882397141357288,
              0.0
            ],
            [
              88.1532674093854,
              27.88210042740226,
              0.0
            ],
            [
              88.15281422890747,
              27.881804667511396,
              0.0
            ],
            [
              88.15236104842953,
              27.88150795355637,
              0.0
            ],
            [
              88.15179433431608,
              27.88111297099244,
              0.0
            ],
            [
              88.15134019977397,
              27.88071703436435,
              0.0
            ],
            [
              88.15088606523187,
              27.880321097736257,
              0.0
            ],
            [
              88.15043288475394,
              27.88002438378123,
              0.0
            ],
            [
              88.15009132978321,
              27.879627493088975,
              0.0
            ],
            [
              88.14974977481246,
              27.87923060239672,
              0.0
            ],
            [
              88.14952079941308,
              27.878832757640303,
              0.0
            ],
            [
              88.14917829037819,
              27.878435866948045,
              0.0
            ],
            [
              88.14924316674134,
              27.87813533673636,
              0.0
            ],
            [
              88.14917542818569,
              27.878136290800526,
              0.0
            ],
            [
              88.14861348439304,
              27.878140107057185,
              0.0
            ],
            [
              88.1480515406004,
              27.87824505411523,
              0.0
            ],
            [
              88.14749055087192,
              27.878350001173278,
              0.0
            ],
            [
              88.14692860707929,
              27.878453994167163,
              0.0
            ],
            [
              88.14648115098633,
              27.878658163898276,
              0.0
            ],
            [
              88.14603369489339,
              27.878961556302453,
              0.0
            ],
            [
              88.14547461329325,
              27.87926590277079,
              0.0
            ],
            [
              88.14491457762892,
              27.879471026566065,
              0.0
            ],
            [
              88.14435358790045,
              27.87967519629718,
              0.0
            ],
            [
              88.14379164410782,
              27.879679966618,
              0.0
            ],
            [
              88.14322874625101,
              27.87968473693882,
              0.0
            ],
            [
              88.14266680245836,
              27.87968950725964,
              0.0
            ],
            [
              88.14210295053739,
              27.879594100843235,
              0.0
            ],
            [
              88.14153909861643,
              27.879498694426825,
              0.0
            ],
            [
              88.14097620075962,
              27.87940328801042,
              0.0
            ],
            [
              88.14041234883865,
              27.879307881594013,
              0.0
            ],
            [
              88.13985231317434,
              27.87951300538929,
              0.0
            ],
            [
              88.1394048570814,
              27.879816397793466,
              0.0
            ],
            [
              88.13895930911677,
              27.880219966934867,
              0.0
            ],
            [
              88.1386263407235,
              27.880622582012105,
              0.0
            ],
            [
              88.13829241826609,
              27.881025197089347,
              0.0
            ],
            [
              88.13784687030146,
              27.88142876623075,
              0.0
            ],
            [
              88.13740036827267,
              27.88173215863493,
              0.0
            ],
            [
              88.13695386624389,
              27.88213572777633,
              0.0
            ],
            [
              88.13650736421509,
              27.88244007424467,
              0.0
            ],
            [
              88.13605895405799,
              27.882643289911616,
              0.0
            ],
            [
              88.13581852988864,
              27.882753007290486,
              0.0
            ]
          ]
        ]
      }
    }
  ],
  "properties": {
    "site_id": "south-lhonak",
    "observation_date": "2025-10-15",
    "version": "phase-2-retreat-v1.0"
  }
}