{
  "type": "FeatureCollection",
  "features": [
    {
      "type": "Feature",
      "properties": {
        "site_id": "thulagi",
        "glacier_id": "RGI2000-v7.0-G-15-09021",
        "observation_date": "2016-10-15",
        "area_km2": 6.92,
        "area_2016_km2": 6.92,
        "scale_factor": 1.0,
        "source": "Phase 2 GeoAI derived boundary (versioned, reviewed) \u2014 scaled from RGI 2000 baseline by measured area change; confidence + image-quality documented in measurements.ts",
        "source_id": "phase-2-geoai-v1.0",
        "processing_version": "phase-2-retreat-v1.0",
        "crs": "EPSG:4326",
        "status": "approved",
        "boundary_asset": "data/derived/phase2/boundaries/thulagi/2016-10-15.geojson"
      },
      "geometry": {
        "type": "Polygon",
        "coordinates": [
          [
            [
              84.48103533308476,
              28.69811832898318,
              0.0
            ],
            [
              84.48714732782905,
              28.700067568077568,
              0.0
            ],
            [
              84.48993105273644,
              28.689926092510433,
              0.0
            ],
            [
              84.48898258246298,
              28.67884078107069,
              0.0
            ],
            [
              84.48951924039424,
              28.670485514145373,
              0.0
            ],
            [
              84.48559897804176,
              28.66667532327833,
              0.0
            ],
            [
              84.48092293829443,
              28.663848579847535,
              0.0
            ],
            [
              84.47432056338337,
              28.66076122148486,
              0.0
            ],
            [
              84.46805458502726,
              28.669284561271105,
              0.0
            ],
            [
              84.46743101370909,
              28.68134444583062,
              0.0
            ],
            [
              84.46913909256682,
              28.689742599014433,
              0.0
            ],
            [
              84.47539061120983,
              28.693234649784305,
              0.0
            ],
            [
              84.48103533308476,
              28.69811832898318,
              0.0
            ]
          ]
        ]
      }
    }
  ],
  "properties": {
    "site_id": "thulagi",
    "observation_date": "2016-10-15",
    "version": "phase-2-retreat-v1.0"
  }
}