{
  "type": "FeatureCollection",
  "features": [
    {
      "type": "Feature",
      "properties": {
        "site_id": "thulagi",
        "glacier_id": "RGI2000-v7.0-G-15-09021",
        "observation_date": "2021-10-15",
        "area_km2": 6.643,
        "area_2016_km2": 6.92,
        "scale_factor": 0.9798,
        "source": "Phase 2 GeoAI derived boundary (versioned, reviewed) \u2014 scaled from RGI 2000 baseline by measured area change; confidence + image-quality documented in measurements.ts",
        "source_id": "phase-2-geoai-v1.0",
        "processing_version": "phase-2-retreat-v1.0",
        "crs": "EPSG:4326",
        "status": "approved",
        "boundary_asset": "data/derived/phase2/boundaries/thulagi/2021-10-15.geojson"
      },
      "geometry": {
        "type": "Polygon",
        "coordinates": [
          [
            [
              84.48101014262232,
              28.69775592243679,
              0.0
            ],
            [
              84.48699855985036,
              28.6996657501547,
              0.0
            ],
            [
              84.48972600103625,
              28.68972932357962,
              0.0
            ],
            [
              84.48879670774274,
              28.678868144409613,
              0.0
            ],
            [
              84.48932251506679,
              28.670681811388445,
              0.0
            ],
            [
              84.48548151591804,
              28.66694865820607,
              0.0
            ],
            [
              84.4809000203256,
              28.66417906828193,
              0.0
            ],
            [
              84.47443113785475,
              28.661154132760604,
              0.0
            ],
            [
              84.46829185038673,
              28.669505140402425,
              0.0
            ],
            [
              84.46768088696466,
              28.681321187942675,
              0.0
            ],
            [
              84.46935443042902,
              28.689549540111432,
              0.0
            ],
            [
              84.47547955054274,
              28.69297098562413,
              0.0
            ],
            [
              84.48101014262232,
              28.69775592243679,
              0.0
            ]
          ]
        ]
      }
    }
  ],
  "properties": {
    "site_id": "thulagi",
    "observation_date": "2021-10-15",
    "version": "phase-2-retreat-v1.0"
  }
}