{"type": "FeatureCollection", "features": [{"type": "Feature", "properties": {"rgi_id": "RGI2000-v7.0-G-15-06763", "site_id": "imja-tsho", "kind": "glacier", "name": "Imja\u2013Lhotse Shar Glacier", "observation_date": "2000-10-30", "image_id": "LE07_L2SP_140041_20001030_20200918_02_T1", "inventory_doi": "https://doi.org/10.5194/essd-12-2169-2020", "status": "historical_baseline", "source_url": "https://github.com/GLIMS-RGI/lake_terminating", "recordId": "imja-tsho-glacier"}, "geometry": {"type": "Polygon", "coordinates": [[[86.968351, 27.891438, 0.0], [86.968387, 27.891277, 0.0], [86.968816, 27.891155, 0.0], [86.969387, 27.890655, 0.0], [86.969637, 27.890298, 0.0], [86.969887, 27.889798, 0.0], [86.970101, 27.889156, 0.0], [86.970279, 27.888371, 0.0], [86.970351, 27.887478, 0.0], [86.969994, 27.886515, 0.0], [86.969658, 27.886263, 0.0], [86.969873, 27.886072, 0.0], [86.970189, 27.885679, 0.0], [86.970631, 27.885399, 0.0], [86.971074, 27.885174, 0.0], [86.971516, 27.88495, 0.0], [86.971643, 27.8845, 0.0], [86.971264, 27.884163, 0.0], [86.970758, 27.883995, 0.0], [86.970379, 27.883658, 0.0], [86.96981, 27.883658, 0.0], [86.969368, 27.883882, 0.0], [86.968925, 27.884219, 0.0], [86.968672, 27.884668, 0.0], [86.968293, 27.885117, 0.0], [86.967977, 27.88551, 0.0], [86.967598, 27.885903, 0.0], [86.967282, 27.886353, 0.0], [86.966965, 27.886746, 0.0], [86.966713, 27.887139, 0.0], [86.966144, 27.887251, 0.0], [86.966108, 27.887259, 0.0], [86.965954, 27.886801, 0.0], [86.965891, 27.886352, 0.0], [86.965765, 27.885903, 0.0], [86.965259, 27.885622, 0.0], [86.964817, 27.885285, 0.0], [86.964438, 27.884948, 0.0], [86.964186, 27.884555, 0.0], [86.964154, 27.884485, 0.0], [86.963806, 27.884454, 0.0], [86.963806, 27.884106, 0.0], [86.963807, 27.8836, 0.0], [86.963744, 27.883095, 0.0], [86.963365, 27.882702, 0.0], [86.962859, 27.882477, 0.0], [86.962686, 27.882345, 0.0], [86.962702, 27.882222, 0.0], [86.962733, 27.881971, 0.0], [86.962765, 27.881713, 0.0], [86.962934, 27.881676, 0.0], [86.96344, 27.881507, 0.0], [86.964009, 27.881395, 0.0], [86.964577, 27.881395, 0.0], [86.965083, 27.881339, 0.0], [86.965652, 27.881339, 0.0], [86.965968, 27.880946, 0.0], [86.965842, 27.880497, 0.0], [86.965399, 27.880272, 0.0], [86.964894, 27.880104, 0.0], [86.964388, 27.880048, 0.0], [86.964262, 27.879598, 0.0], [86.964325, 27.879149, 0.0], [86.964073, 27.8787, 0.0], [86.963567, 27.878587, 0.0], [86.963062, 27.878531, 0.0], [86.962556, 27.878419, 0.0], [86.962051, 27.878475, 0.0], [86.961545, 27.878699, 0.0], [86.961292, 27.879092, 0.0], [86.961259, 27.879144, 0.0], [86.961154, 27.878995, 0.0], [86.960901, 27.878602, 0.0], [86.960396, 27.878265, 0.0], [86.960207, 27.877815, 0.0], [86.960207, 27.87731, 0.0], [86.960081, 27.876861, 0.0], [86.959702, 27.876524, 0.0], [86.959196, 27.876355, 0.0], [86.958691, 27.876243, 0.0], [86.958185, 27.876074, 0.0], [86.957743, 27.875737, 0.0], [86.957301, 27.875512, 0.0], [86.956795, 27.875344, 0.0], [86.95629, 27.875175, 0.0], [86.956201, 27.875136, 0.0], [86.956175, 27.875104, 0.0], [86.95567, 27.874767, 0.0], [86.955291, 27.87443, 0.0], [86.954722, 27.874373, 0.0], [86.954153, 27.874317, 0.0], [86.953714, 27.87417, 0.0], [86.953787, 27.873976, 0.0], [86.954124, 27.873602, 0.0], [86.954546, 27.873303, 0.0], [86.954715, 27.873182, 0.0], [86.954789, 27.873193, 0.0], [86.955379, 27.873194, 0.0], [86.955884, 27.873119, 0.0], [86.95639, 27.872969, 0.0], [86.956895, 27.872745, 0.0], [86.957485, 27.872745, 0.0], [86.958075, 27.872745, 0.0], [86.958665, 27.872745, 0.0], [86.958749, 27.872296, 0.0], [86.958328, 27.871997, 0.0], [86.958207, 27.871925, 0.0], [86.957577, 27.8718, 0.0], [86.956945, 27.87173, 0.0], [86.956313, 27.871519, 0.0], [86.955761, 27.871379, 0.0], [86.955208, 27.871238, 0.0], [86.954734, 27.871027, 0.0], [86.954667, 27.870998, 0.0], [86.954587, 27.871211, 0.0], [86.954238, 27.871677, 0.0], [86.953888, 27.872142, 0.0], [86.953713, 27.872607, 0.0], [86.953364, 27.873073, 0.0], [86.953015, 27.873538, 0.0], [86.95284, 27.874004, 0.0], [86.95249, 27.874469, 0.0], [86.952141, 27.874934, 0.0], [86.951792, 27.8754, 0.0], [86.951791, 27.875496, 0.0], [86.952086, 27.875309, 0.0], [86.952339, 27.874916, 0.0], [86.952637, 27.875103, 0.0], [86.952865, 27.875218, 0.0], [86.952941, 27.875399, 0.0], [86.95313, 27.875848, 0.0], [86.953319, 27.876297, 0.0], [86.953635, 27.87669, 0.0], [86.953888, 27.877084, 0.0], [86.954172, 27.877487, 0.0], [86.954342, 27.877574, 0.0], [86.954784, 27.877799, 0.0], [86.955289, 27.87808, 0.0], [86.955542, 27.878473, 0.0], [86.955605, 27.878922, 0.0], [86.955553, 27.879105, 0.0], [86.955719, 27.879499, 0.0], [86.955719, 27.880004, 0.0], [86.955738, 27.88016, 0.0], [86.955484, 27.880394, 0.0], [86.954498, 27.880775, 0.0], [86.954581, 27.881071, 0.0], [86.954644, 27.88152, 0.0], [86.954581, 27.881969, 0.0], [86.954454, 27.882474, 0.0], [86.95458, 27.882924, 0.0], [86.954833, 27.883317, 0.0], [86.954959, 27.883766, 0.0], [86.955085, 27.884271, 0.0], [86.955022, 27.884721, 0.0], [86.954832, 27.88517, 0.0], [86.954327, 27.885282, 0.0], [86.953948, 27.884945, 0.0], [86.953758, 27.884496, 0.0], [86.953632, 27.884046, 0.0], [86.953506, 27.883597, 0.0], [86.953253, 27.883204, 0.0], [86.952874, 27.882867, 0.0], [86.952622, 27.882474, 0.0], [86.952622, 27.881968, 0.0], [86.952685, 27.881519, 0.0], [86.952369, 27.88107, 0.0], [86.952306, 27.880621, 0.0], [86.952307, 27.880059, 0.0], [86.952307, 27.879554, 0.0], [86.95237, 27.879105, 0.0], [86.95237, 27.878599, 0.0], [86.952371, 27.878094, 0.0], [86.952244, 27.877644, 0.0], [86.952118, 27.877195, 0.0], [86.951929, 27.876746, 0.0], [86.95174, 27.876297, 0.0], [86.951643, 27.875953, 0.0], [86.951267, 27.876175, 0.0], [86.950743, 27.87633, 0.0], [86.95022, 27.876485, 0.0], [86.949696, 27.876795, 0.0], [86.949172, 27.877106, 0.0], [86.949047, 27.877216, 0.0], [86.949085, 27.877306, 0.0], [86.949211, 27.877756, 0.0], [86.949337, 27.878205, 0.0], [86.949464, 27.87871, 0.0], [86.949527, 27.87916, 0.0], [86.949274, 27.879553, 0.0], [86.948705, 27.879665, 0.0], [86.948136, 27.879833, 0.0], [86.948199, 27.880282, 0.0], [86.948325, 27.880731, 0.0], [86.948831, 27.880956, 0.0], [86.949146, 27.881349, 0.0], [86.949273, 27.881799, 0.0], [86.949462, 27.882304, 0.0], [86.949841, 27.882641, 0.0], [86.95022, 27.883034, 0.0], [86.950599, 27.883371, 0.0], [86.951041, 27.883709, 0.0], [86.951296, 27.883935, 0.0], [86.95142, 27.884046, 0.0], [86.951799, 27.884383, 0.0], [86.952052, 27.884776, 0.0], [86.952368, 27.885169, 0.0], [86.95262, 27.885618, 0.0], [86.952873, 27.886011, 0.0], [86.953189, 27.886405, 0.0], [86.953441, 27.886798, 0.0], [86.953567, 27.887247, 0.0], [86.95363, 27.887809, 0.0], [86.953504, 27.888258, 0.0], [86.953314, 27.888707, 0.0], [86.953061, 27.8891, 0.0], [86.952745, 27.889493, 0.0], [86.952239, 27.889661, 0.0], [86.952105, 27.889697, 0.0], [86.952056, 27.889755, 0.0], [86.951625, 27.89009, 0.0], [86.951141, 27.890328, 0.0], [86.950711, 27.890615, 0.0], [86.950281, 27.890901, 0.0], [86.949797, 27.891235, 0.0], [86.949474, 27.891617, 0.0], [86.949098, 27.891952, 0.0], [86.948613, 27.892238, 0.0], [86.948492, 27.892286, 0.0], [86.948452, 27.892334, 0.0], [86.948022, 27.89262, 0.0], [86.947592, 27.892906, 0.0], [86.947161, 27.893193, 0.0], [86.946677, 27.893479, 0.0], [86.946247, 27.893766, 0.0], [86.945817, 27.894052, 0.0], [86.945279, 27.894195, 0.0], [86.944795, 27.894339, 0.0], [86.944257, 27.894434, 0.0], [86.943666, 27.894529, 0.0], [86.943128, 27.894624, 0.0], [86.94259, 27.894672, 0.0], [86.942053, 27.89472, 0.0], [86.941515, 27.894719, 0.0], [86.940977, 27.894719, 0.0], [86.940591, 27.894719, 0.0], [86.938734, 27.894613, 0.0], [86.93657, 27.894775, 0.0], [86.934108, 27.894907, 0.0], [86.933936, 27.89489, 0.0], [86.933611, 27.89505, 0.0], [86.933073, 27.895145, 0.0], [86.932536, 27.895193, 0.0], [86.931998, 27.895193, 0.0], [86.931746, 27.895215, 0.0], [86.93146, 27.89524, 0.0], [86.931148, 27.895518, 0.0], [86.930709, 27.895517, 0.0], [86.930035, 27.895517, 0.0], [86.929473, 27.895716, 0.0], [86.928799, 27.895716, 0.0], [86.928124, 27.895915, 0.0], [86.927563, 27.896015, 0.0], [86.927338, 27.896514, 0.0], [86.927112, 27.897013, 0.0], [86.92655, 27.897312, 0.0], [86.926887, 27.897712, 0.0], [86.927224, 27.898211, 0.0], [86.927448, 27.89871, 0.0], [86.927673, 27.899209, 0.0], [86.927785, 27.899709, 0.0], [86.927897, 27.900208, 0.0], [86.928459, 27.900108, 0.0], [86.928991, 27.900014, 0.0], [86.929133, 27.900109, 0.0], [86.929575, 27.900109, 0.0], [86.929695, 27.900109, 0.0], [86.930256, 27.900309, 0.0], [86.930348, 27.900325, 0.0], [86.930377, 27.90042, 0.0], [86.931962, 27.900746, 0.0], [86.934356, 27.901238, 0.0], [86.936381, 27.902016, 0.0], [86.938545, 27.902713, 0.0], [86.940617, 27.904064, 0.0], [86.942366, 27.905905, 0.0], [86.9437, 27.907951, 0.0], [86.944436, 27.90967, 0.0], [86.944849, 27.911634, 0.0], [86.945309, 27.913638, 0.0], [86.946229, 27.915275, 0.0], [86.947195, 27.917198, 0.0], [86.948392, 27.918999, 0.0], [86.94891, 27.920151, 0.0], [86.949384, 27.920642, 0.0], [86.949805, 27.921092, 0.0], [86.950142, 27.921466, 0.0], [86.950564, 27.921916, 0.0], [86.950816, 27.92244, 0.0], [86.950985, 27.922964, 0.0], [86.951069, 27.923488, 0.0], [86.951068, 27.924012, 0.0], [86.951068, 27.924536, 0.0], [86.951068, 27.92506, 0.0], [86.951068, 27.925584, 0.0], [86.950815, 27.926034, 0.0], [86.950477, 27.926408, 0.0], [86.950056, 27.926707, 0.0], [86.949634, 27.927006, 0.0], [86.949128, 27.927381, 0.0], [86.948706, 27.92768, 0.0], [86.9482, 27.928129, 0.0], [86.947863, 27.928503, 0.0], [86.94761, 27.928952, 0.0], [86.947357, 27.929401, 0.0], [86.947188, 27.929851, 0.0], [86.946851, 27.9303, 0.0], [86.946682, 27.930749, 0.0], [86.946429, 27.931198, 0.0], [86.946091, 27.931647, 0.0], [86.945923, 27.932096, 0.0], [86.945669, 27.932545, 0.0], [86.945332, 27.933069, 0.0], [86.945079, 27.933518, 0.0], [86.944741, 27.933893, 0.0], [86.944429, 27.934239, 0.0], [86.944506, 27.934465, 0.0], [86.944721, 27.934895, 0.0], [86.944721, 27.935151, 0.0], [86.944741, 27.935165, 0.0], [86.945162, 27.935465, 0.0], [86.945668, 27.935765, 0.0], [86.946005, 27.936139, 0.0], [86.946089, 27.936588, 0.0], [86.946206, 27.936624, 0.0], [86.946746, 27.936678, 0.0], [86.947062, 27.936771, 0.0], [86.94792, 27.936379, 0.0], [86.947947, 27.936377, 0.0], [86.948485, 27.936378, 0.0], [86.949023, 27.936378, 0.0], [86.949453, 27.936091, 0.0], [86.949507, 27.935614, 0.0], [86.949507, 27.935368, 0.0], [86.949508, 27.935136, 0.0], [86.949615, 27.935009, 0.0], [86.949546, 27.934643, 0.0], [86.949462, 27.934194, 0.0], [86.949378, 27.933745, 0.0], [86.949378, 27.93322, 0.0], [86.949968, 27.933071, 0.0], [86.950221, 27.93352, 0.0], [86.95039, 27.93397, 0.0], [86.950726, 27.934419, 0.0], [86.950913, 27.934806, 0.0], [86.95139, 27.935089, 0.0], [86.951874, 27.93528, 0.0], [86.952358, 27.935471, 0.0], [86.952896, 27.935567, 0.0], [86.95338, 27.935376, 0.0], [86.953757, 27.935042, 0.0], [86.953434, 27.93466, 0.0], [86.95295, 27.934421, 0.0], [86.952412, 27.934325, 0.0], [86.951982, 27.93399, 0.0], [86.951952, 27.933721, 0.0], [86.9529, 27.932135, 0.0], [86.953032, 27.932102, 0.0], [86.953113, 27.931746, 0.0], [86.953382, 27.931316, 0.0], [86.953866, 27.931125, 0.0], [86.95435, 27.931268, 0.0], [86.954798, 27.931534, 0.0], [86.954834, 27.931555, 0.0], [86.955318, 27.931699, 0.0], [86.955748, 27.931412, 0.0], [86.955749, 27.930934, 0.0], [86.955641, 27.930457, 0.0], [86.955635, 27.930425, 0.0], [86.955684, 27.93036, 0.0], [86.956126, 27.929485, 0.0], [86.956181, 27.928998, 0.0], [86.956362, 27.928464, 0.0], [86.956602, 27.927984, 0.0], [86.956843, 27.927557, 0.0], [86.957143, 27.927184, 0.0], [86.957564, 27.926864, 0.0], [86.958104, 27.926864, 0.0], [86.958645, 27.926971, 0.0], [86.959186, 27.927131, 0.0], [86.959269, 27.927168, 0.0], [86.959726, 27.927078, 0.0], [86.960267, 27.927078, 0.0], [86.960808, 27.927078, 0.0], [86.961348, 27.927079, 0.0], [86.961708, 27.927399, 0.0], [86.961408, 27.927772, 0.0], [86.961528, 27.928252, 0.0], [86.961708, 27.928679, 0.0], [86.961648, 27.929159, 0.0], [86.961107, 27.929213, 0.0], [86.960566, 27.929266, 0.0], [86.960566, 27.929479, 0.0], [86.960566, 27.929725, 0.0], [86.961145, 27.930335, 0.0], [86.962726, 27.932031, 0.0], [86.963003, 27.932751, 0.0], [86.962148, 27.933949, 0.0], [86.962127, 27.934122, 0.0], [86.962126, 27.934602, 0.0], [86.962066, 27.935082, 0.0], [86.962006, 27.935615, 0.0], [86.961886, 27.936096, 0.0], [86.961885, 27.936506, 0.0], [86.961885, 27.936576, 0.0], [86.961945, 27.937056, 0.0], [86.961945, 27.937536, 0.0], [86.961853, 27.937632, 0.0], [86.961853, 27.938091, 0.0], [86.961768, 27.93854, 0.0], [86.961347, 27.93884, 0.0], [86.960841, 27.938989, 0.0], [86.960588, 27.93854, 0.0], [86.960588, 27.938016, 0.0], [86.960588, 27.937492, 0.0], [86.960589, 27.936893, 0.0], [86.960757, 27.936444, 0.0], [86.961155, 27.936267, 0.0], [86.961155, 27.935918, 0.0], [86.961155, 27.93542, 0.0], [86.960835, 27.934993, 0.0], [86.960274, 27.93485, 0.0], [86.959713, 27.934708, 0.0], [86.959153, 27.934494, 0.0], [86.958592, 27.934352, 0.0], [86.958112, 27.934067, 0.0], [86.957631, 27.93428, 0.0], [86.957791, 27.934778, 0.0], [86.958111, 27.935134, 0.0], [86.958512, 27.935419, 0.0], [86.958815, 27.935635, 0.0], [86.958651, 27.936022, 0.0], [86.958462, 27.936471, 0.0], [86.958335, 27.936921, 0.0], [86.958272, 27.93737, 0.0], [86.95787, 27.937553, 0.0], [86.957309, 27.937695, 0.0], [86.95719, 27.937695, 0.0], [86.956816, 27.93751, 0.0], [86.956374, 27.937286, 0.0], [86.956305, 27.937263, 0.0], [86.955995, 27.937537, 0.0], [86.955805, 27.938043, 0.0], [86.955489, 27.938436, 0.0], [86.955488, 27.938465, 0.0], [86.955488, 27.93897, 0.0], [86.95554, 27.939338, 0.0], [86.955461, 27.939425, 0.0], [86.955045, 27.939194, 0.0], [86.954603, 27.938914, 0.0], [86.954211, 27.938739, 0.0], [86.954035, 27.938323, 0.0], [86.953574, 27.93822, 0.0], [86.953339, 27.938585, 0.0], [86.953149, 27.939034, 0.0], [86.95296, 27.939483, 0.0], [86.952454, 27.939371, 0.0], [86.952517, 27.938921, 0.0], [86.95277, 27.938528, 0.0], [86.95315, 27.938135, 0.0], [86.953023, 27.938098, 0.0], [86.952834, 27.937649, 0.0], [86.95277, 27.937549, 0.0], [86.952581, 27.937256, 0.0], [86.952139, 27.936862, 0.0], [86.95195, 27.936667, 0.0], [86.951506, 27.936666, 0.0], [86.951063, 27.936891, 0.0], [86.950747, 27.937284, 0.0], [86.950241, 27.93734, 0.0], [86.949861, 27.937677, 0.0], [86.950051, 27.938126, 0.0], [86.950177, 27.938575, 0.0], [86.950114, 27.939024, 0.0], [86.949608, 27.93908, 0.0], [86.949039, 27.93908, 0.0], [86.948533, 27.939024, 0.0], [86.94809, 27.939304, 0.0], [86.9479, 27.939753, 0.0], [86.947647, 27.940146, 0.0], [86.947141, 27.940371, 0.0], [86.946635, 27.940315, 0.0], [86.94613, 27.940202, 0.0], [86.945561, 27.940146, 0.0], [86.945118, 27.94037, 0.0], [86.945434, 27.940763, 0.0], [86.945876, 27.941044, 0.0], [86.946319, 27.941381, 0.0], [86.946571, 27.941774, 0.0], [86.946698, 27.942224, 0.0], [86.946824, 27.942673, 0.0], [86.946887, 27.943122, 0.0], [86.946887, 27.943628, 0.0], [86.946886, 27.944133, 0.0], [86.946571, 27.944203, 0.0], [86.946869, 27.9446, 0.0], [86.947043, 27.945065, 0.0], [86.947567, 27.945531, 0.0], [86.947742, 27.945996, 0.0], [86.947916, 27.946462, 0.0], [86.948091, 27.946927, 0.0], [86.94844, 27.947393, 0.0], [86.948789, 27.947859, 0.0], [86.949035, 27.948005, 0.0], [86.949036, 27.947904, 0.0], [86.949162, 27.947455, 0.0], [86.949317, 27.947216, 0.0], [86.949414, 27.947166, 0.0], [86.949857, 27.946886, 0.0], [86.950426, 27.946773, 0.0], [86.950416, 27.946798, 0.0], [86.950256, 27.947296, 0.0], [86.950095, 27.947794, 0.0], [86.950015, 27.948363, 0.0], [86.949935, 27.948861, 0.0], [86.949878, 27.949211, 0.0], [86.950011, 27.949566, 0.0], [86.950361, 27.950031, 0.0], [86.950535, 27.950497, 0.0], [86.95071, 27.951118, 0.0], [86.950884, 27.951583, 0.0], [86.950884, 27.952049, 0.0], [86.950884, 27.952514, 0.0], [86.951058, 27.95298, 0.0], [86.951058, 27.953445, 0.0], [86.951058, 27.953911, 0.0], [86.951058, 27.954376, 0.0], [86.951057, 27.954842, 0.0], [86.951057, 27.955462, 0.0], [86.951057, 27.955928, 0.0], [86.951057, 27.956393, 0.0], [86.951056, 27.957014, 0.0], [86.951056, 27.957116, 0.0], [86.951513, 27.957, 0.0], [86.952019, 27.956926, 0.0], [86.952525, 27.956851, 0.0], [86.953115, 27.956851, 0.0], [86.95379, 27.956851, 0.0], [86.954464, 27.956852, 0.0], [86.955054, 27.956852, 0.0], [86.95556, 27.956927, 0.0], [86.956066, 27.957002, 0.0], [86.956741, 27.957002, 0.0], [86.957415, 27.957002, 0.0], [86.958005, 27.957002, 0.0], [86.958596, 27.957003, 0.0], [86.959102, 27.956853, 0.0], [86.959692, 27.956778, 0.0], [86.960198, 27.956704, 0.0], [86.960704, 27.956629, 0.0], [86.961294, 27.956554, 0.0], [86.961834, 27.956494, 0.0], [86.961947, 27.956428, 0.0], [86.962544, 27.956295, 0.0], [86.963141, 27.956295, 0.0], [86.963738, 27.956296, 0.0], [86.964334, 27.956296, 0.0], [86.964931, 27.956296, 0.0], [86.965528, 27.956296, 0.0], [86.966125, 27.956164, 0.0], [86.966721, 27.956031, 0.0], [86.967467, 27.956032, 0.0], [86.968213, 27.955899, 0.0], [86.96881, 27.955767, 0.0], [86.969407, 27.955767, 0.0], [86.969854, 27.955502, 0.0], [86.970451, 27.955502, 0.0], [86.971048, 27.95537, 0.0], [86.971794, 27.955238, 0.0], [86.97254, 27.955238, 0.0], [86.973136, 27.955105, 0.0], [86.973733, 27.954973, 0.0], [86.97433, 27.954841, 0.0], [86.974927, 27.954708, 0.0], [86.975524, 27.954576, 0.0], [86.975971, 27.954311, 0.0], [86.976568, 27.954179, 0.0], [86.977165, 27.954179, 0.0], [86.977761, 27.954179, 0.0], [86.978358, 27.954047, 0.0], [86.978806, 27.953782, 0.0], [86.979428, 27.953782, 0.0], [86.97976, 27.953414, 0.0], [86.980182, 27.953039, 0.0], [86.980772, 27.952815, 0.0], [86.981278, 27.952665, 0.0], [86.981784, 27.95259, 0.0], [86.98229, 27.952366, 0.0], [86.982796, 27.952291, 0.0], [86.983357, 27.952078, 0.0], [86.983357, 27.95196, 0.0], [86.983357, 27.951436, 0.0], [86.983259, 27.950912, 0.0], [86.98316, 27.950388, 0.0], [86.983161, 27.949865, 0.0], [86.983062, 27.949341, 0.0], [86.982866, 27.948905, 0.0], [86.982768, 27.948381, 0.0], [86.982473, 27.947945, 0.0], [86.982375, 27.947421, 0.0], [86.982375, 27.946897, 0.0], [86.982362, 27.946831, 0.0], [86.982206, 27.9469, 0.0], [86.9817, 27.947125, 0.0], [86.981194, 27.947349, 0.0], [86.980689, 27.947499, 0.0], [86.980183, 27.947724, 0.0], [86.979677, 27.947948, 0.0], [86.979171, 27.948173, 0.0], [86.978665, 27.948322, 0.0], [86.978159, 27.948622, 0.0], [86.977805, 27.948779, 0.0], [86.977813, 27.948726, 0.0], [86.977973, 27.948228, 0.0], [86.978214, 27.947802, 0.0], [86.978534, 27.947446, 0.0], [86.978855, 27.94709, 0.0], [86.979336, 27.946806, 0.0], [86.979977, 27.94645, 0.0], [86.980537, 27.946308, 0.0], [86.981068, 27.946241, 0.0], [86.981195, 27.946376, 0.0], [86.9817, 27.946451, 0.0], [86.982291, 27.946526, 0.0], [86.982277, 27.946374, 0.0], [86.982178, 27.94585, 0.0], [86.98208, 27.945326, 0.0], [86.981884, 27.94489, 0.0], [86.981785, 27.944366, 0.0], [86.981785, 27.944205, 0.0], [86.981604, 27.944405, 0.0], [86.981579, 27.944387, 0.0], [86.981419, 27.943818, 0.0], [86.981259, 27.94332, 0.0], [86.981179, 27.942822, 0.0], [86.981099, 27.942324, 0.0], [86.981099, 27.941684, 0.0], [86.981099, 27.941509, 0.0], [86.981111, 27.941584, 0.0], [86.981448, 27.941959, 0.0], [86.981728, 27.941876, 0.0], [86.981688, 27.941661, 0.0], [86.981589, 27.941137, 0.0], [86.981491, 27.940613, 0.0], [86.981295, 27.940177, 0.0], [86.981098, 27.93974, 0.0], [86.980902, 27.939304, 0.0], [86.980705, 27.93878, 0.0], [86.980509, 27.938344, 0.0], [86.980312, 27.93782, 0.0], [86.980294, 27.937764, 0.0], [86.980058, 27.937344, 0.0], [86.979818, 27.936918, 0.0], [86.979578, 27.936491, 0.0], [86.979017, 27.936348, 0.0], [86.97871, 27.936348, 0.0], [86.978711, 27.936106, 0.0], [86.978711, 27.9356, 0.0], [86.978774, 27.935151, 0.0], [86.978774, 27.934646, 0.0], [86.978964, 27.934197, 0.0], [86.979343, 27.933804, 0.0], [86.979723, 27.933467, 0.0], [86.979849, 27.933018, 0.0], [86.97966, 27.932568, 0.0], [86.979407, 27.932175, 0.0], [86.97928, 27.931726, 0.0], [86.979154, 27.931277, 0.0], [86.978964, 27.930827, 0.0], [86.978965, 27.930322, 0.0], [86.979028, 27.929873, 0.0], [86.979028, 27.929368, 0.0], [86.978902, 27.928918, 0.0], [86.978522, 27.928581, 0.0], [86.978206, 27.928188, 0.0], [86.977953, 27.927795, 0.0], [86.978017, 27.927346, 0.0], [86.97827, 27.926953, 0.0], [86.978776, 27.926785, 0.0], [86.978839, 27.926279, 0.0], [86.978839, 27.925774, 0.0], [86.978839, 27.925268, 0.0], [86.978776, 27.924819, 0.0], [86.978776, 27.924314, 0.0], [86.978713, 27.923865, 0.0], [86.97865, 27.923359, 0.0], [86.978587, 27.92291, 0.0], [86.97846, 27.922461, 0.0], [86.978397, 27.922012, 0.0], [86.978397, 27.92145, 0.0], [86.978397, 27.921124, 0.0], [86.978587, 27.920888, 0.0], [86.97884, 27.920495, 0.0], [86.979093, 27.920102, 0.0], [86.979409, 27.919709, 0.0], [86.979667, 27.919579, 0.0], [86.979431, 27.919317, 0.0], [86.97894, 27.919055, 0.0], [86.978449, 27.918619, 0.0], [86.977958, 27.918357, 0.0], [86.977467, 27.918008, 0.0], [86.977074, 27.917659, 0.0], [86.976681, 27.917309, 0.0], [86.976411, 27.91707, 0.0], [86.976349, 27.917288, 0.0], [86.975907, 27.917063, 0.0], [86.975338, 27.917007, 0.0], [86.974972, 27.917007, 0.0], [86.974948, 27.917102, 0.0], [86.974732, 27.917294, 0.0], [86.974415, 27.917687, 0.0], [86.973973, 27.918024, 0.0], [86.973783, 27.918473, 0.0], [86.973341, 27.918754, 0.0], [86.973277, 27.919259, 0.0], [86.973783, 27.919428, 0.0], [86.974478, 27.919428, 0.0], [86.97511, 27.919372, 0.0], [86.975616, 27.919484, 0.0], [86.975806, 27.919933, 0.0], [86.975553, 27.920326, 0.0], [86.97511, 27.920607, 0.0], [86.974857, 27.921, 0.0], [86.97492, 27.921449, 0.0], [86.974478, 27.921674, 0.0], [86.973972, 27.921562, 0.0], [86.973466, 27.921449, 0.0], [86.972961, 27.921281, 0.0], [86.972265, 27.921224, 0.0], [86.971696, 27.921393, 0.0], [86.971506, 27.921842, 0.0], [86.97157, 27.922291, 0.0], [86.971949, 27.922628, 0.0], [86.972391, 27.922853, 0.0], [86.972834, 27.923077, 0.0], [86.973339, 27.923302, 0.0], [86.973782, 27.923527, 0.0], [86.974288, 27.923752, 0.0], [86.974793, 27.92392, 0.0], [86.975299, 27.923976, 0.0], [86.975742, 27.924257, 0.0], [86.975931, 27.924706, 0.0], [86.975994, 27.925156, 0.0], [86.975804, 27.925605, 0.0], [86.975615, 27.926054, 0.0], [86.975551, 27.926503, 0.0], [86.975614, 27.926952, 0.0], [86.975488, 27.927402, 0.0], [86.975361, 27.927851, 0.0], [86.975235, 27.928356, 0.0], [86.974982, 27.928749, 0.0], [86.974729, 27.929142, 0.0], [86.974286, 27.929367, 0.0], [86.973844, 27.929591, 0.0], [86.973275, 27.92976, 0.0], [86.972769, 27.929816, 0.0], [86.972742, 27.92982, 0.0], [86.97234, 27.929749, 0.0], [86.9718, 27.929695, 0.0], [86.971291, 27.929645, 0.0], [86.971199, 27.929482, 0.0], [86.971186, 27.928375, 0.0], [86.970645, 27.924785, 0.0], [86.970398, 27.924449, 0.0], [86.970488, 27.923964, 0.0], [86.970488, 27.923486, 0.0], [86.970434, 27.923009, 0.0], [86.970273, 27.922579, 0.0], [86.970112, 27.922149, 0.0], [86.969951, 27.921719, 0.0], [86.969736, 27.921289, 0.0], [86.969413, 27.920811, 0.0], [86.969252, 27.920333, 0.0], [86.969091, 27.919903, 0.0], [86.968822, 27.919473, 0.0], [86.968553, 27.919043, 0.0], [86.968284, 27.918565, 0.0], [86.968015, 27.918135, 0.0], [86.9678, 27.917705, 0.0], [86.967585, 27.917275, 0.0], [86.967263, 27.916893, 0.0], [86.966994, 27.916415, 0.0], [86.966618, 27.916081, 0.0], [86.966241, 27.915746, 0.0], [86.965758, 27.91546, 0.0], [86.965274, 27.915125, 0.0], [86.964844, 27.914839, 0.0], [86.96436, 27.914647, 0.0], [86.963876, 27.914504, 0.0], [86.963338, 27.914408, 0.0], [86.9628, 27.914408, 0.0], [86.962262, 27.914408, 0.0], [86.961725, 27.914408, 0.0], [86.961241, 27.914646, 0.0], [86.96086, 27.914796, 0.0], [86.960714, 27.914783, 0.0], [86.960214, 27.914997, 0.0], [86.959857, 27.915318, 0.0], [86.958608, 27.915497, 0.0], [86.957858, 27.915425, 0.0], [86.957038, 27.914997, 0.0], [86.955324, 27.914212, 0.0], [86.954146, 27.912891, 0.0], [86.952308, 27.910912, 0.0], [86.951482, 27.909632, 0.0], [86.950469, 27.907831, 0.0], [86.949826, 27.905964, 0.0], [86.949651, 27.905715, 0.0], [86.949685, 27.905182, 0.0], [86.949435, 27.903968, 0.0], [86.948864, 27.902897, 0.0], [86.947972, 27.901862, 0.0], [86.946508, 27.900649, 0.0], [86.945295, 27.899863, 0.0], [86.94474, 27.899703, 0.0], [86.944533, 27.899115, 0.0], [86.947389, 27.897807, 0.0], [86.950152, 27.896786, 0.0], [86.952593, 27.896132, 0.0], [86.95304, 27.895995, 0.0], [86.95329, 27.895823, 0.0], [86.95372, 27.895536, 0.0], [86.954204, 27.895345, 0.0], [86.954742, 27.895298, 0.0], [86.955279, 27.895202, 0.0], [86.955348, 27.895182, 0.0], [86.955428, 27.895128, 0.0], [86.955636, 27.89499, 0.0], [86.956966, 27.89476, 0.0], [86.958608, 27.894831, 0.0], [86.959536, 27.895366, 0.0], [86.959964, 27.895473, 0.0], [86.961071, 27.895116, 0.0], [86.961392, 27.894617, 0.0], [86.960642, 27.894367, 0.0], [86.959929, 27.894081, 0.0], [86.959714, 27.893582, 0.0], [86.960036, 27.892868, 0.0], [86.960892, 27.891976, 0.0], [86.961356, 27.89144, 0.0], [86.962855, 27.891155, 0.0], [86.963926, 27.891333, 0.0], [86.96464, 27.891262, 0.0], [86.965237, 27.891232, 0.0], [86.965194, 27.891574, 0.0], [86.965257, 27.892023, 0.0], [86.965763, 27.892136, 0.0], [86.966332, 27.892136, 0.0], [86.966837, 27.892024, 0.0], [86.967343, 27.891912, 0.0], [86.967849, 27.891799, 0.0], [86.968351, 27.891601, 0.0], [86.968351, 27.891438, 0.0]], [[86.967718, 27.951356, 0.0], [86.967157, 27.953775, 0.0], [86.966516, 27.953704, 0.0], [86.966035, 27.953419, 0.0], [86.965475, 27.953277, 0.0], [86.964914, 27.953205, 0.0], [86.964513, 27.952921, 0.0], [86.964193, 27.952423, 0.0], [86.964193, 27.951925, 0.0], [86.964194, 27.951356, 0.0], [86.964354, 27.950787, 0.0], [86.964514, 27.950289, 0.0], [86.964835, 27.949933, 0.0], [86.965396, 27.950004, 0.0], [86.965876, 27.950218, 0.0], [86.966357, 27.950502, 0.0], [86.966757, 27.950787, 0.0], [86.967158, 27.951072, 0.0], [86.967558, 27.951356, 0.0], [86.967718, 27.951356, 0.0]], [[86.974647, 27.933809, 0.0], [86.973952, 27.933977, 0.0], [86.973383, 27.933977, 0.0], [86.972814, 27.933977, 0.0], [86.972497, 27.93437, 0.0], [86.97294, 27.934707, 0.0], [86.973382, 27.934988, 0.0], [86.973825, 27.935213, 0.0], [86.974331, 27.935381, 0.0], [86.974836, 27.93555, 0.0], [86.975342, 27.935606, 0.0], [86.975873, 27.935606, 0.0], [86.975929, 27.936049, 0.0], [86.975928, 27.936425, 0.0], [86.975413, 27.93649, 0.0], [86.974852, 27.93649, 0.0], [86.974291, 27.936419, 0.0], [86.97373, 27.936419, 0.0], [86.97317, 27.936561, 0.0], [86.972609, 27.936703, 0.0], [86.972208, 27.936987, 0.0], [86.972048, 27.937485, 0.0], [86.972152, 27.937559, 0.0], [86.971855, 27.937946, 0.0], [86.971422, 27.937907, 0.0], [86.970853, 27.937739, 0.0], [86.970347, 27.937514, 0.0], [86.969841, 27.937402, 0.0], [86.969398, 27.937626, 0.0], [86.969398, 27.938188, 0.0], [86.969398, 27.938693, 0.0], [86.969398, 27.939198, 0.0], [86.969398, 27.939816, 0.0], [86.969391, 27.93987, 0.0], [86.969018, 27.939965, 0.0], [86.968896, 27.939992, 0.0], [86.968853, 27.939939, 0.0], [86.968766, 27.939881, 0.0], [86.96883, 27.939656, 0.0], [86.968893, 27.939207, 0.0], [86.968893, 27.938701, 0.0], [86.968767, 27.938252, 0.0], [86.968514, 27.937859, 0.0], [86.968135, 27.93741, 0.0], [86.968102, 27.937359, 0.0], [86.968171, 27.937052, 0.0], [86.968225, 27.936575, 0.0], [86.96844, 27.936145, 0.0], [86.968548, 27.935667, 0.0], [86.968925, 27.935333, 0.0], [86.969463, 27.935285, 0.0], [86.969947, 27.935046, 0.0], [86.970431, 27.934808, 0.0], [86.970861, 27.934521, 0.0], [86.971184, 27.934139, 0.0], [86.971399, 27.933709, 0.0], [86.971453, 27.933232, 0.0], [86.971504, 27.932785, 0.0], [86.971619, 27.932683, 0.0], [86.971859, 27.932257, 0.0], [86.97204, 27.93183, 0.0], [86.972094, 27.931701, 0.0], [86.972389, 27.931669, 0.0], [86.973084, 27.931669, 0.0], [86.973274, 27.932118, 0.0], [86.973527, 27.932511, 0.0], [86.973906, 27.932848, 0.0], [86.974349, 27.933129, 0.0], [86.974728, 27.933466, 0.0], [86.974915, 27.933756, 0.0], [86.974647, 27.933809, 0.0]]]}}]}