{"type": "FeatureCollection", "features": [{"type": "Feature", "properties": {"rgi_id": "RGI2000-v7.0-G-15-06122", "site_id": "thulagi", "kind": "glacier", "name": "Thulagi Glacier", "observation_date": "2002-12-05", "image_id": "LE07_L2SP_142040_20021205_20200916_02_T1", "inventory_doi": "https://doi.org/10.5194/essd-12-2169-2020", "status": "historical_baseline", "source_url": "https://github.com/GLIMS-RGI/lake_terminating", "recordId": "thulagi-glacier"}, "geometry": {"type": "Polygon", "coordinates": [[[84.51765, 28.54617, 0.0], [84.517734, 28.546408, 0.0], [84.517994, 28.546842, 0.0], [84.518146, 28.547274, 0.0], [84.518352, 28.547708, 0.0], [84.518666, 28.548143, 0.0], [84.519194, 28.548678, 0.0], [84.519675, 28.548926, 0.0], [84.520212, 28.549079, 0.0], [84.520751, 28.549136, 0.0], [84.521291, 28.549194, 0.0], [84.52183, 28.549251, 0.0], [84.522311, 28.549499, 0.0], [84.52285, 28.549557, 0.0], [84.523391, 28.549566, 0.0], [84.523872, 28.549814, 0.0], [84.524351, 28.550109, 0.0], [84.524503, 28.550542, 0.0], [84.5246, 28.551021, 0.0], [84.524861, 28.551455, 0.0], [84.525067, 28.551889, 0.0], [84.525273, 28.552322, 0.0], [84.525698, 28.552616, 0.0], [84.526124, 28.55291, 0.0], [84.526661, 28.552968, 0.0], [84.527255, 28.553243, 0.0], [84.527804, 28.553253, 0.0], [84.528354, 28.553263, 0.0], [84.528903, 28.553273, 0.0], [84.529448, 28.553477, 0.0], [84.529998, 28.553487, 0.0], [84.530542, 28.553692, 0.0], [84.530641, 28.554179, 0.0], [84.530089, 28.554266, 0.0], [84.529535, 28.55445, 0.0], [84.528981, 28.554634, 0.0], [84.528761, 28.554662, 0.0], [84.52875, 28.555115, 0.0], [84.528739, 28.5556, 0.0], [84.528727, 28.556085, 0.0], [84.528866, 28.556411, 0.0], [84.529048, 28.556479, 0.0], [84.529595, 28.556586, 0.0], [84.53014, 28.556791, 0.0], [84.530687, 28.556898, 0.0], [84.531235, 28.557005, 0.0], [84.531782, 28.557112, 0.0], [84.532329, 28.557219, 0.0], [84.532762, 28.557518, 0.0], [84.533146, 28.557783, 0.0], [84.532845, 28.558163, 0.0], [84.532838, 28.558462, 0.0], [84.532866, 28.558462, 0.0], [84.533699, 28.558355, 0.0], [84.534255, 28.558243, 0.0], [84.534811, 28.558131, 0.0], [84.535365, 28.558141, 0.0], [84.536057, 28.558153, 0.0], [84.53661, 28.558163, 0.0], [84.537167, 28.558051, 0.0], [84.53772, 28.558061, 0.0], [84.538273, 28.558071, 0.0], [84.53883, 28.557959, 0.0], [84.539389, 28.557725, 0.0], [84.540087, 28.557493, 0.0], [84.540643, 28.557381, 0.0], [84.541202, 28.557147, 0.0], [84.541902, 28.556793, 0.0], [84.542462, 28.556559, 0.0], [84.543159, 28.556327, 0.0], [84.543718, 28.556092, 0.0], [84.544274, 28.55598, 0.0], [84.544834, 28.555746, 0.0], [84.54539, 28.555634, 0.0], [84.545949, 28.555399, 0.0], [84.546505, 28.555287, 0.0], [84.5472, 28.555178, 0.0], [84.547759, 28.554943, 0.0], [84.548315, 28.554831, 0.0], [84.548872, 28.554719, 0.0], [84.549428, 28.554607, 0.0], [84.549987, 28.554372, 0.0], [84.550126, 28.554351, 0.0], [84.550134, 28.554008, 0.0], [84.549869, 28.553515, 0.0], [84.549318, 28.553383, 0.0], [84.54877, 28.553128, 0.0], [84.548217, 28.553118, 0.0], [84.547658, 28.553353, 0.0], [84.547101, 28.553465, 0.0], [84.546404, 28.553697, 0.0], [84.545845, 28.553931, 0.0], [84.545611, 28.554079, 0.0], [84.545593, 28.554067, 0.0], [84.545468, 28.553952, 0.0], [84.544992, 28.554152, 0.0], [84.544547, 28.554529, 0.0], [84.543816, 28.554772, 0.0], [84.543229, 28.555018, 0.0], [84.542645, 28.555135, 0.0], [84.542065, 28.555125, 0.0], [84.541484, 28.555114, 0.0], [84.540901, 28.555232, 0.0], [84.540459, 28.55548, 0.0], [84.540018, 28.555729, 0.0], [84.539437, 28.555718, 0.0], [84.538996, 28.555967, 0.0], [84.538059, 28.556248, 0.0], [84.537636, 28.555956, 0.0], [84.537091, 28.555752, 0.0], [84.536436, 28.555546, 0.0], [84.536003, 28.555247, 0.0], [84.535571, 28.554948, 0.0], [84.53525, 28.554554, 0.0], [84.534817, 28.554255, 0.0], [84.534384, 28.553956, 0.0], [84.534723, 28.553573, 0.0], [84.534624, 28.553086, 0.0], [84.534077, 28.552979, 0.0], [84.533418, 28.552967, 0.0], [84.532868, 28.552957, 0.0], [84.532326, 28.552656, 0.0], [84.53215, 28.552386, 0.0], [84.532615, 28.552151, 0.0], [84.53314, 28.551886, 0.0], [84.533562, 28.551618, 0.0], [84.534085, 28.551444, 0.0], [84.534506, 28.551177, 0.0], [84.535029, 28.551003, 0.0], [84.535553, 28.550829, 0.0], [84.536076, 28.550656, 0.0], [84.536497, 28.550388, 0.0], [84.536819, 28.549936, 0.0], [84.537241, 28.549668, 0.0], [84.53756, 28.549308, 0.0], [84.537779, 28.548853, 0.0], [84.538101, 28.548401, 0.0], [84.538111, 28.547943, 0.0], [84.538115, 28.547786, 0.0], [84.5386, 28.547625, 0.0], [84.539149, 28.547635, 0.0], [84.539582, 28.547934, 0.0], [84.53979, 28.548423, 0.0], [84.539889, 28.548911, 0.0], [84.539988, 28.549398, 0.0], [84.540086, 28.549885, 0.0], [84.540075, 28.55037, 0.0], [84.539736, 28.550752, 0.0], [84.539288, 28.551132, 0.0], [84.538841, 28.551415, 0.0], [84.538502, 28.551798, 0.0], [84.538056, 28.552081, 0.0], [84.537825, 28.552562, 0.0], [84.538034, 28.553051, 0.0], [84.538061, 28.553052, 0.0], [84.537807, 28.553338, 0.0], [84.537796, 28.553823, 0.0], [84.537894, 28.554311, 0.0], [84.538213, 28.554802, 0.0], [84.538643, 28.555198, 0.0], [84.539195, 28.555111, 0.0], [84.539641, 28.554828, 0.0], [84.53998, 28.554445, 0.0], [84.539881, 28.553958, 0.0], [84.539673, 28.553469, 0.0], [84.539574, 28.552982, 0.0], [84.539591, 28.552915, 0.0], [84.539796, 28.552889, 0.0], [84.540348, 28.552802, 0.0], [84.5409, 28.552715, 0.0], [84.541452, 28.552628, 0.0], [84.542003, 28.552541, 0.0], [84.542333, 28.552547, 0.0], [84.542649, 28.553135, 0.0], [84.543192, 28.553436, 0.0], [84.54375, 28.553058, 0.0], [84.544197, 28.552774, 0.0], [84.544366, 28.552583, 0.0], [84.544861, 28.552592, 0.0], [84.54541, 28.552602, 0.0], [84.54596, 28.552612, 0.0], [84.546619, 28.552624, 0.0], [84.547278, 28.552636, 0.0], [84.54783, 28.552549, 0.0], [84.548276, 28.552266, 0.0], [84.548833, 28.551985, 0.0], [84.549047, 28.551849, 0.0], [84.548842, 28.551597, 0.0], [84.548743, 28.551109, 0.0], [84.548754, 28.550624, 0.0], [84.548766, 28.550139, 0.0], [84.549212, 28.549856, 0.0], [84.549876, 28.549674, 0.0], [84.55037, 28.549683, 0.0], [84.55021, 28.549486, 0.0], [84.550871, 28.5494, 0.0], [84.551421, 28.54941, 0.0], [84.551968, 28.549517, 0.0], [84.552513, 28.549721, 0.0], [84.55306, 28.549828, 0.0], [84.553493, 28.550127, 0.0], [84.554148, 28.550333, 0.0], [84.554698, 28.550343, 0.0], [84.555247, 28.550353, 0.0], [84.555797, 28.550363, 0.0], [84.55635, 28.550179, 0.0], [84.556907, 28.549898, 0.0], [84.557248, 28.549418, 0.0], [84.557479, 28.548937, 0.0], [84.55749, 28.548452, 0.0], [84.557501, 28.547967, 0.0], [84.557292, 28.547478, 0.0], [84.55686, 28.547179, 0.0], [84.556315, 28.546975, 0.0], [84.555773, 28.547044, 0.0], [84.555992, 28.546678, 0.0], [84.555996, 28.546484, 0.0], [84.556119, 28.545903, 0.0], [84.55635, 28.545422, 0.0], [84.556689, 28.54504, 0.0], [84.557135, 28.544757, 0.0], [84.557582, 28.544474, 0.0], [84.557813, 28.543992, 0.0], [84.557826, 28.54341, 0.0], [84.557837, 28.542925, 0.0], [84.557739, 28.542438, 0.0], [84.557187, 28.542525, 0.0], [84.556848, 28.542907, 0.0], [84.556727, 28.54339, 0.0], [84.556496, 28.543872, 0.0], [84.556265, 28.544353, 0.0], [84.555819, 28.544636, 0.0], [84.55583, 28.544151, 0.0], [84.555731, 28.543664, 0.0], [84.555633, 28.543177, 0.0], [84.555646, 28.542594, 0.0], [84.555657, 28.542109, 0.0], [84.555669, 28.541624, 0.0], [84.555348, 28.54123, 0.0], [84.554794, 28.541414, 0.0], [84.554455, 28.541796, 0.0], [84.554224, 28.542277, 0.0], [84.554213, 28.542763, 0.0], [84.554092, 28.543246, 0.0], [84.553971, 28.543729, 0.0], [84.55396, 28.544214, 0.0], [84.553839, 28.544697, 0.0], [84.5535, 28.54508, 0.0], [84.552948, 28.545167, 0.0], [84.552394, 28.545351, 0.0], [84.552282, 28.545446, 0.0], [84.552291, 28.545058, 0.0], [84.552083, 28.544569, 0.0], [84.551984, 28.544081, 0.0], [84.551775, 28.543592, 0.0], [84.551677, 28.543105, 0.0], [84.551578, 28.542618, 0.0], [84.551589, 28.542133, 0.0], [84.551601, 28.541648, 0.0], [84.551551, 28.541402, 0.0], [84.551868, 28.541133, 0.0], [84.55229, 28.540866, 0.0], [84.552713, 28.540507, 0.0], [84.553236, 28.540333, 0.0], [84.553865, 28.540069, 0.0], [84.554426, 28.539939, 0.0], [84.554498, 28.539953, 0.0], [84.555047, 28.539963, 0.0], [84.555597, 28.539972, 0.0], [84.556256, 28.539984, 0.0], [84.556808, 28.539897, 0.0], [84.557254, 28.539614, 0.0], [84.5577, 28.539331, 0.0], [84.558041, 28.538852, 0.0], [84.55838, 28.538469, 0.0], [84.558718, 28.538087, 0.0], [84.559057, 28.537705, 0.0], [84.559068, 28.53722, 0.0], [84.559079, 28.536735, 0.0], [84.559091, 28.536249, 0.0], [84.559102, 28.535764, 0.0], [84.559223, 28.535281, 0.0], [84.559454, 28.5348, 0.0], [84.559792, 28.534418, 0.0], [84.559913, 28.533934, 0.0], [84.560034, 28.533451, 0.0], [84.560265, 28.53297, 0.0], [84.560277, 28.532485, 0.0], [84.559734, 28.532184, 0.0], [84.558967, 28.532073, 0.0], [84.558422, 28.531869, 0.0], [84.557763, 28.531857, 0.0], [84.557654, 28.531797, 0.0], [84.557327, 28.531694, 0.0], [84.557218, 28.531653, 0.0], [84.557196, 28.531653, 0.0], [84.556999, 28.531591, 0.0], [84.557011, 28.531106, 0.0], [84.557022, 28.530621, 0.0], [84.557253, 28.530139, 0.0], [84.557699, 28.529856, 0.0], [84.558255, 28.529575, 0.0], [84.558807, 28.529488, 0.0], [84.559253, 28.529205, 0.0], [84.559701, 28.528824, 0.0], [84.560257, 28.528543, 0.0], [84.56031, 28.528499, 0.0], [84.560667, 28.528688, 0.0], [84.561232, 28.528986, 0.0], [84.561717, 28.529211, 0.0], [84.562202, 28.529436, 0.0], [84.562695, 28.529301, 0.0], [84.563195, 28.528877, 0.0], [84.563774, 28.528527, 0.0], [84.564189, 28.528246, 0.0], [84.564446, 28.527746, 0.0], [84.5647, 28.527318, 0.0], [84.565197, 28.527038, 0.0], [84.565532, 28.526684, 0.0], [84.565866, 28.526329, 0.0], [84.566201, 28.525974, 0.0], [84.566536, 28.52562, 0.0], [84.566791, 28.525192, 0.0], [84.567209, 28.524766, 0.0], [84.567464, 28.524338, 0.0], [84.567557, 28.523835, 0.0], [84.56765, 28.523332, 0.0], [84.567827, 28.522758, 0.0], [84.56792, 28.522255, 0.0], [84.568013, 28.521752, 0.0], [84.568106, 28.521248, 0.0], [84.568118, 28.520744, 0.0], [84.568129, 28.520239, 0.0], [84.568141, 28.519735, 0.0], [84.568153, 28.51923, 0.0], [84.568164, 28.518725, 0.0], [84.568094, 28.518219, 0.0], [84.568106, 28.517714, 0.0], [84.568119, 28.517138, 0.0], [84.568131, 28.516633, 0.0], [84.568149, 28.51658, 0.0], [84.568132, 28.516561, 0.0], [84.568102, 28.516505, 0.0], [84.567894, 28.516682, 0.0], [84.567448, 28.516965, 0.0], [84.567217, 28.517446, 0.0], [84.566987, 28.517928, 0.0], [84.566648, 28.51831, 0.0], [84.566527, 28.518793, 0.0], [84.566076, 28.51927, 0.0], [84.565527, 28.51926, 0.0], [84.565094, 28.518961, 0.0], [84.564996, 28.518474, 0.0], [84.565007, 28.517989, 0.0], [84.565345, 28.517607, 0.0], [84.565686, 28.517128, 0.0], [84.566027, 28.516648, 0.0], [84.566477, 28.516171, 0.0], [84.566816, 28.515789, 0.0], [84.567264, 28.515409, 0.0], [84.567607, 28.514832, 0.0], [84.567684, 28.514746, 0.0], [84.567692, 28.514389, 0.0], [84.567704, 28.513885, 0.0], [84.567715, 28.51338, 0.0], [84.567888, 28.512951, 0.0], [84.568223, 28.512596, 0.0], [84.568558, 28.512241, 0.0], [84.568894, 28.511815, 0.0], [84.569311, 28.511461, 0.0], [84.569729, 28.511036, 0.0], [84.569766, 28.511011, 0.0], [84.5699, 28.510679, 0.0], [84.570155, 28.510251, 0.0], [84.570248, 28.509747, 0.0], [84.570156, 28.509438, 0.0], [84.570092, 28.509456, 0.0], [84.569515, 28.509662, 0.0], [84.569022, 28.509798, 0.0], [84.568641, 28.509791, 0.0], [84.568604, 28.509705, 0.0], [84.568171, 28.509406, 0.0], [84.567624, 28.509299, 0.0], [84.567075, 28.509289, 0.0], [84.566306, 28.509276, 0.0], [84.565759, 28.509169, 0.0], [84.5651, 28.509157, 0.0], [84.564553, 28.50905, 0.0], [84.56412, 28.508751, 0.0], [84.563463, 28.508642, 0.0], [84.562916, 28.508535, 0.0], [84.562257, 28.508524, 0.0], [84.561829, 28.50861, 0.0], [84.561783, 28.508586, 0.0], [84.5613, 28.508289, 0.0], [84.560816, 28.508064, 0.0], [84.560331, 28.507839, 0.0], [84.55985, 28.507469, 0.0], [84.559662, 28.507322, 0.0], [84.559388, 28.507317, 0.0], [84.55943, 28.50723, 0.0], [84.559768, 28.506848, 0.0], [84.560109, 28.506369, 0.0], [84.560557, 28.505988, 0.0], [84.561003, 28.505705, 0.0], [84.561342, 28.505323, 0.0], [84.56168, 28.504941, 0.0], [84.562021, 28.504462, 0.0], [84.562142, 28.503978, 0.0], [84.562153, 28.503493, 0.0], [84.562164, 28.503008, 0.0], [84.562178, 28.502426, 0.0], [84.562189, 28.501941, 0.0], [84.56231, 28.501457, 0.0], [84.562321, 28.500972, 0.0], [84.562552, 28.500491, 0.0], [84.562783, 28.50001, 0.0], [84.562904, 28.499527, 0.0], [84.563025, 28.499043, 0.0], [84.563146, 28.49856, 0.0], [84.563157, 28.498075, 0.0], [84.563124, 28.497913, 0.0], [84.563161, 28.497881, 0.0], [84.563609, 28.497501, 0.0], [84.563948, 28.497118, 0.0], [84.564286, 28.496736, 0.0], [84.564735, 28.496356, 0.0], [84.565073, 28.495974, 0.0], [84.565304, 28.495492, 0.0], [84.565425, 28.495009, 0.0], [84.565436, 28.494524, 0.0], [84.565227, 28.494035, 0.0], [84.564909, 28.493544, 0.0], [84.56481, 28.493057, 0.0], [84.564266, 28.492853, 0.0], [84.5636, 28.493132, 0.0], [84.563154, 28.493415, 0.0], [84.563141, 28.493998, 0.0], [84.56294, 28.494415, 0.0], [84.562914, 28.494285, 0.0], [84.562928, 28.493703, 0.0], [84.563161, 28.493124, 0.0], [84.563391, 28.492643, 0.0], [84.563403, 28.492158, 0.0], [84.563414, 28.491673, 0.0], [84.563425, 28.491187, 0.0], [84.563436, 28.490702, 0.0], [84.563227, 28.490213, 0.0], [84.563129, 28.489726, 0.0], [84.56292, 28.489237, 0.0], [84.562822, 28.48875, 0.0], [84.562613, 28.488261, 0.0], [84.562295, 28.48777, 0.0], [84.561974, 28.487376, 0.0], [84.561429, 28.487172, 0.0], [84.560983, 28.487455, 0.0], [84.560753, 28.487936, 0.0], [84.560304, 28.488316, 0.0], [84.559966, 28.488699, 0.0], [84.560065, 28.489186, 0.0], [84.560385, 28.48958, 0.0], [84.560594, 28.490069, 0.0], [84.560802, 28.490558, 0.0], [84.560791, 28.491043, 0.0], [84.561, 28.491532, 0.0], [84.561098, 28.492019, 0.0], [84.561417, 28.49251, 0.0], [84.561405, 28.492996, 0.0], [84.561394, 28.493481, 0.0], [84.561163, 28.493962, 0.0], [84.561042, 28.494445, 0.0], [84.561042, 28.494465, 0.0], [84.560933, 28.494443, 0.0], [84.560386, 28.494336, 0.0], [84.559836, 28.494327, 0.0], [84.559287, 28.494317, 0.0], [84.559168, 28.494357, 0.0], [84.559172, 28.494331, 0.0], [84.557857, 28.49474, 0.0], [84.557775, 28.494739, 0.0], [84.557041, 28.494726, 0.0], [84.556303, 28.494857, 0.0], [84.55581, 28.494992, 0.0], [84.555317, 28.495127, 0.0], [84.555216, 28.495155, 0.0], [84.555322, 28.494731, 0.0], [84.555443, 28.494248, 0.0], [84.555122, 28.493854, 0.0], [84.554571, 28.493941, 0.0], [84.554017, 28.494125, 0.0], [84.553571, 28.494408, 0.0], [84.553018, 28.494592, 0.0], [84.552464, 28.494776, 0.0], [84.552125, 28.495159, 0.0], [84.551787, 28.495541, 0.0], [84.551666, 28.496024, 0.0], [84.551595, 28.496171, 0.0], [84.551373, 28.49621, 0.0], [84.550799, 28.496344, 0.0], [84.550306, 28.496479, 0.0], [84.549971, 28.496834, 0.0], [84.549636, 28.497189, 0.0], [84.549382, 28.497617, 0.0], [84.549127, 28.498045, 0.0], [84.549032, 28.49862, 0.0], [84.54902, 28.499125, 0.0], [84.549009, 28.499629, 0.0], [84.548997, 28.500134, 0.0], [84.548904, 28.500637, 0.0], [84.548889, 28.501286, 0.0], [84.548898, 28.501312, 0.0], [84.548844, 28.501388, 0.0], [84.548422, 28.501655, 0.0], [84.548001, 28.501923, 0.0], [84.54758, 28.50219, 0.0], [84.547258, 28.502643, 0.0], [84.54704, 28.503097, 0.0], [84.547343, 28.503469, 0.0], [84.547861, 28.503478, 0.0], [84.548384, 28.503305, 0.0], [84.548907, 28.503131, 0.0], [84.549227, 28.50277, 0.0], [84.549648, 28.502502, 0.0], [84.550173, 28.502237, 0.0], [84.550379, 28.502106, 0.0], [84.550584, 28.50211, 0.0], [84.551237, 28.502122, 0.0], [84.551808, 28.502132, 0.0], [84.552461, 28.502144, 0.0], [84.552954, 28.502008, 0.0], [84.553525, 28.502019, 0.0], [84.55418, 28.501958, 0.0], [84.554673, 28.501823, 0.0], [84.555166, 28.501688, 0.0], [84.555659, 28.501552, 0.0], [84.555995, 28.501126, 0.0], [84.556168, 28.500696, 0.0], [84.556341, 28.500266, 0.0], [84.556515, 28.499837, 0.0], [84.556688, 28.499407, 0.0], [84.556943, 28.498979, 0.0], [84.557117, 28.498477, 0.0], [84.557454, 28.498051, 0.0], [84.557709, 28.497622, 0.0], [84.557963, 28.497194, 0.0], [84.558218, 28.496766, 0.0], [84.558475, 28.496266, 0.0], [84.558596, 28.496112, 0.0], [84.558805, 28.496152, 0.0], [84.559352, 28.496259, 0.0], [84.559902, 28.496269, 0.0], [84.560332, 28.496665, 0.0], [84.560765, 28.496964, 0.0], [84.560898, 28.497056, 0.0], [84.560756, 28.497352, 0.0], [84.560745, 28.497838, 0.0], [84.560733, 28.498323, 0.0], [84.560832, 28.49881, 0.0], [84.561041, 28.499299, 0.0], [84.561357, 28.499887, 0.0], [84.561785, 28.50038, 0.0], [84.561991, 28.500966, 0.0], [84.56198, 28.501452, 0.0], [84.561969, 28.501937, 0.0], [84.561523, 28.50222, 0.0], [84.561077, 28.502503, 0.0], [84.560523, 28.502687, 0.0], [84.559969, 28.502872, 0.0], [84.559631, 28.503254, 0.0], [84.55929, 28.503733, 0.0], [84.559169, 28.504216, 0.0], [84.558826, 28.504792, 0.0], [84.558595, 28.505274, 0.0], [84.558149, 28.505557, 0.0], [84.5576, 28.505547, 0.0], [84.557055, 28.505343, 0.0], [84.556929, 28.505341, 0.0], [84.556946, 28.505322, 0.0], [84.557067, 28.504839, 0.0], [84.557188, 28.504355, 0.0], [84.557199, 28.50387, 0.0], [84.556991, 28.503381, 0.0], [84.556441, 28.503371, 0.0], [84.55589, 28.503458, 0.0], [84.555224, 28.503738, 0.0], [84.554778, 28.504021, 0.0], [84.55411, 28.504397, 0.0], [84.553207, 28.505449, 0.0], [84.552866, 28.505928, 0.0], [84.552635, 28.506409, 0.0], [84.552472, 28.506748, 0.0], [84.552404, 28.50689, 0.0], [84.552283, 28.507373, 0.0], [84.552052, 28.507855, 0.0], [84.551714, 28.508237, 0.0], [84.55116, 28.508421, 0.0], [84.550839, 28.508027, 0.0], [84.550911, 28.507739, 0.0], [84.55096, 28.507544, 0.0], [84.550971, 28.507059, 0.0], [84.550873, 28.506571, 0.0], [84.550326, 28.506464, 0.0], [84.549777, 28.506455, 0.0], [84.54933, 28.506738, 0.0], [84.548884, 28.507021, 0.0], [84.548546, 28.507403, 0.0], [84.548315, 28.507884, 0.0], [84.547974, 28.508363, 0.0], [84.547528, 28.508647, 0.0], [84.547436, 28.50875, 0.0], [84.547189, 28.509029, 0.0], [84.546849, 28.509508, 0.0], [84.546728, 28.509991, 0.0], [84.546497, 28.510472, 0.0], [84.545945, 28.51056, 0.0], [84.545512, 28.510261, 0.0], [84.545282, 28.509977, 0.0], [84.545192, 28.509866, 0.0], [84.545093, 28.509379, 0.0], [84.545104, 28.508894, 0.0], [84.544672, 28.508595, 0.0], [84.544127, 28.508391, 0.0], [84.54358, 28.508284, 0.0], [84.543242, 28.508666, 0.0], [84.54323, 28.509151, 0.0], [84.543551, 28.509546, 0.0], [84.544091, 28.509944, 0.0], [84.544522, 28.51034, 0.0], [84.544771, 28.510627, 0.0], [84.544669, 28.51073, 0.0], [84.544253, 28.511083, 0.0], [84.543836, 28.511436, 0.0], [84.543562, 28.511622, 0.0], [84.543504, 28.511551, 0.0], [84.543391, 28.511678, 0.0], [84.543053, 28.51206, 0.0], [84.542822, 28.512542, 0.0], [84.542591, 28.513023, 0.0], [84.542145, 28.513306, 0.0], [84.541936, 28.512817, 0.0], [84.542057, 28.512334, 0.0], [84.542398, 28.511854, 0.0], [84.542737, 28.511472, 0.0], [84.542748, 28.510987, 0.0], [84.542751, 28.510851, 0.0], [84.542759, 28.510502, 0.0], [84.542771, 28.510017, 0.0], [84.542338, 28.509718, 0.0], [84.541791, 28.509611, 0.0], [84.541242, 28.509601, 0.0], [84.540583, 28.509589, 0.0], [84.540033, 28.509579, 0.0], [84.539829, 28.509611, 0.0], [84.539814, 28.509575, 0.0], [84.539715, 28.509088, 0.0], [84.539726, 28.508603, 0.0], [84.539957, 28.508121, 0.0], [84.540625, 28.507745, 0.0], [84.541179, 28.507561, 0.0], [84.541733, 28.507377, 0.0], [84.542287, 28.507193, 0.0], [84.54284, 28.507009, 0.0], [84.543179, 28.506627, 0.0], [84.54341, 28.506145, 0.0], [84.543411, 28.50611, 0.0], [84.543862, 28.505881, 0.0], [84.544182, 28.50552, 0.0], [84.544195, 28.504971, 0.0], [84.543998, 28.504509, 0.0], [84.543484, 28.504316, 0.0], [84.542967, 28.504215, 0.0], [84.542448, 28.504206, 0.0], [84.542027, 28.504473, 0.0], [84.541604, 28.504832, 0.0], [84.541183, 28.505099, 0.0], [84.541022, 28.505236, 0.0], [84.540691, 28.504931, 0.0], [84.54015, 28.504533, 0.0], [84.539718, 28.504234, 0.0], [84.539285, 28.503935, 0.0], [84.538624, 28.50402, 0.0], [84.538068, 28.504301, 0.0], [84.537947, 28.504785, 0.0], [84.537935, 28.50527, 0.0], [84.537705, 28.505751, 0.0], [84.537803, 28.506238, 0.0], [84.538124, 28.506632, 0.0], [84.538332, 28.507121, 0.0], [84.53854, 28.50761, 0.0], [84.538529, 28.508096, 0.0], [84.538188, 28.508575, 0.0], [84.537639, 28.508565, 0.0], [84.537207, 28.508266, 0.0], [84.536998, 28.507777, 0.0], [84.536565, 28.507478, 0.0], [84.536021, 28.507273, 0.0], [84.535366, 28.507067, 0.0], [84.534709, 28.506958, 0.0], [84.534581, 28.50694, 0.0], [84.534498, 28.506801, 0.0], [84.534341, 28.506675, 0.0], [84.534256, 28.506454, 0.0], [84.534109, 28.505989, 0.0], [84.533963, 28.505524, 0.0], [84.533712, 28.505104, 0.0], [84.533407, 28.504729, 0.0], [84.533049, 28.504353, 0.0], [84.532585, 28.504067, 0.0], [84.532174, 28.503783, 0.0], [84.531837, 28.503473, 0.0], [84.532037, 28.503367, 0.0], [84.532013, 28.502077, 0.0], [84.53197, 28.501599, 0.0], [84.531764, 28.501166, 0.0], [84.531559, 28.500685, 0.0], [84.531299, 28.50025, 0.0], [84.531147, 28.499818, 0.0], [84.531058, 28.499005, 0.0], [84.531129, 28.49829, 0.0], [84.531355, 28.497864, 0.0], [84.531474, 28.497389, 0.0], [84.531754, 28.496964, 0.0], [84.532087, 28.496588, 0.0], [84.532527, 28.496262, 0.0], [84.53302, 28.495985, 0.0], [84.533442, 28.495747, 0.0], [84.533667, 28.495818, 0.0], [84.534238, 28.495828, 0.0], [84.534973, 28.495842, 0.0], [84.535544, 28.495852, 0.0], [84.536278, 28.495865, 0.0], [84.53685, 28.495876, 0.0], [84.537421, 28.495886, 0.0], [84.539792, 28.495713, 0.0], [84.540285, 28.495577, 0.0], [84.54094, 28.495517, 0.0], [84.541514, 28.495383, 0.0], [84.541929, 28.495102, 0.0], [84.542102, 28.494673, 0.0], [84.542357, 28.494244, 0.0], [84.54253, 28.493815, 0.0], [84.542787, 28.493315, 0.0], [84.543042, 28.492887, 0.0], [84.543456, 28.492606, 0.0], [84.543871, 28.492325, 0.0], [84.544367, 28.492045, 0.0], [84.545105, 28.491914, 0.0], [84.54568, 28.49178, 0.0], [84.546094, 28.491499, 0.0], [84.546594, 28.491076, 0.0], [84.54701, 28.490722, 0.0], [84.547265, 28.490294, 0.0], [84.547681, 28.489941, 0.0], [84.548098, 28.489588, 0.0], [84.548596, 28.489237, 0.0], [84.549094, 28.488885, 0.0], [84.549508, 28.488604, 0.0], [84.549925, 28.488251, 0.0], [84.550259, 28.487896, 0.0], [84.550674, 28.487615, 0.0], [84.551089, 28.487334, 0.0], [84.551343, 28.486906, 0.0], [84.551598, 28.486478, 0.0], [84.551771, 28.486048, 0.0], [84.551866, 28.485473, 0.0], [84.551878, 28.484968, 0.0], [84.551725, 28.484533, 0.0], [84.551736, 28.484028, 0.0], [84.55175, 28.483452, 0.0], [84.551763, 28.482875, 0.0], [84.551693, 28.482369, 0.0], [84.551292, 28.482073, 0.0], [84.550805, 28.48192, 0.0], [84.550234, 28.48191, 0.0], [84.549736, 28.482261, 0.0], [84.549563, 28.482691, 0.0], [84.54939, 28.483121, 0.0], [84.549217, 28.48355, 0.0], [84.549044, 28.48398, 0.0], [84.54887, 28.484409, 0.0], [84.548378, 28.484545, 0.0], [84.547895, 28.484248, 0.0], [84.547906, 28.483743, 0.0], [84.547911, 28.483532, 0.0], [84.547595, 28.483582, 0.0], [84.547077, 28.483573, 0.0], [84.54656, 28.483472, 0.0], [84.546042, 28.483463, 0.0], [84.545525, 28.483362, 0.0], [84.545328, 28.4829, 0.0], [84.545301, 28.482866, 0.0], [84.545229, 28.483045, 0.0], [84.545056, 28.483475, 0.0], [84.544882, 28.483905, 0.0], [84.544709, 28.484334, 0.0], [84.544536, 28.484764, 0.0], [84.544363, 28.485193, 0.0], [84.544106, 28.485694, 0.0], [84.54377, 28.48612, 0.0], [84.543597, 28.48655, 0.0], [84.543423, 28.48698, 0.0], [84.54333, 28.487483, 0.0], [84.543318, 28.487987, 0.0], [84.543307, 28.488492, 0.0], [84.543214, 28.488995, 0.0], [84.543202, 28.4895, 0.0], [84.543027, 28.490001, 0.0], [84.542692, 28.490356, 0.0], [84.542357, 28.490711, 0.0], [84.541941, 28.491064, 0.0], [84.541446, 28.491271, 0.0], [84.54087, 28.491477, 0.0], [84.540376, 28.491684, 0.0], [84.539883, 28.49182, 0.0], [84.539308, 28.491953, 0.0], [84.538815, 28.492089, 0.0], [84.538244, 28.492078, 0.0], [84.537751, 28.492214, 0.0], [84.53718, 28.492203, 0.0], [84.536524, 28.492336, 0.0], [84.535951, 28.492397, 0.0], [84.535862, 28.492413, 0.0], [84.535319, 28.492398, 0.0], [84.534829, 28.492532, 0.0], [84.534391, 28.492811, 0.0], [84.533952, 28.493089, 0.0], [84.533462, 28.493224, 0.0], [84.533024, 28.493502, 0.0], [84.532532, 28.493732, 0.0], [84.532091, 28.494106, 0.0], [84.531705, 28.494433, 0.0], [84.531319, 28.49476, 0.0], [84.530828, 28.494942, 0.0], [84.530286, 28.495028, 0.0], [84.529858, 28.494829, 0.0], [84.529005, 28.494336, 0.0], [84.528908, 28.493857, 0.0], [84.528593, 28.493469, 0.0], [84.528441, 28.493037, 0.0], [84.527707, 28.492069, 0.0], [84.527447, 28.491634, 0.0], [84.527077, 28.491293, 0.0], [84.526707, 28.490905, 0.0], [84.526392, 28.490517, 0.0], [84.526077, 28.490129, 0.0], [84.525656, 28.489644, 0.0], [84.525396, 28.48921, 0.0], [84.525136, 28.488776, 0.0], [84.524821, 28.488388, 0.0], [84.52445, 28.488047, 0.0], [84.52408, 28.487706, 0.0], [84.523765, 28.487318, 0.0], [84.523505, 28.486884, 0.0], [84.523191, 28.486449, 0.0], [84.522985, 28.486015, 0.0], [84.522833, 28.485583, 0.0], [84.522407, 28.485288, 0.0], [84.521928, 28.484993, 0.0], [84.52103, 28.484118, 0.0], [84.520715, 28.48373, 0.0], [84.52029, 28.483388, 0.0], [84.520084, 28.482954, 0.0], [84.519716, 28.482518, 0.0], [84.519346, 28.482177, 0.0], [84.518866, 28.48193, 0.0], [84.518385, 28.481682, 0.0], [84.51796, 28.481388, 0.0], [84.517645, 28.481, 0.0], [84.517275, 28.480612, 0.0], [84.516794, 28.480412, 0.0], [84.516425, 28.480023, 0.0], [84.516054, 28.479682, 0.0], [84.515684, 28.479341, 0.0], [84.515201, 28.479189, 0.0], [84.514719, 28.479037, 0.0], [84.514236, 28.478885, 0.0], [84.513755, 28.478638, 0.0], [84.513215, 28.478628, 0.0], [84.512678, 28.478522, 0.0], [84.512157, 28.478438, 0.0], [84.511764, 28.478315, 0.0], [84.511225, 28.478257, 0.0], [84.510687, 28.478152, 0.0], [84.510148, 28.478094, 0.0], [84.509609, 28.478036, 0.0], [84.508799, 28.478022, 0.0], [84.508207, 28.477915, 0.0], [84.507726, 28.477716, 0.0], [84.507188, 28.47761, 0.0], [84.506649, 28.477553, 0.0], [84.50611, 28.477495, 0.0], [84.50557, 28.477485, 0.0], [84.504977, 28.477426, 0.0], [84.504435, 28.477464, 0.0], [84.503894, 28.477502, 0.0], [84.503353, 28.47754, 0.0], [84.502812, 28.477578, 0.0], [84.502272, 28.477568, 0.0], [84.501731, 28.477605, 0.0], [84.501188, 28.477691, 0.0], [84.500648, 28.477681, 0.0], [84.500106, 28.477767, 0.0], [84.499566, 28.477757, 0.0], [84.499025, 28.477794, 0.0], [84.498482, 28.47788, 0.0], [84.49794, 28.477965, 0.0], [84.497129, 28.477998, 0.0], [84.496586, 28.478084, 0.0], [84.496044, 28.478169, 0.0], [84.495555, 28.478303, 0.0], [84.495065, 28.478438, 0.0], [84.494574, 28.47862, 0.0], [84.494136, 28.478898, 0.0], [84.493645, 28.47908, 0.0], [84.493648, 28.479115, 0.0], [84.493845, 28.479577, 0.0], [84.494041, 28.480039, 0.0], [84.494236, 28.480592, 0.0], [84.494538, 28.480965, 0.0], [84.494946, 28.481247, 0.0], [84.495458, 28.481531, 0.0], [84.495973, 28.481724, 0.0], [84.496487, 28.481917, 0.0], [84.496588, 28.481937, 0.0], [84.496658, 28.481904, 0.0], [84.497149, 28.481722, 0.0], [84.49769, 28.481685, 0.0], [84.49823, 28.481695, 0.0], [84.49877, 28.481704, 0.0], [84.49931, 28.481714, 0.0], [84.499904, 28.481725, 0.0], [84.500499, 28.481736, 0.0], [84.501039, 28.481746, 0.0], [84.501119, 28.481755, 0.0], [84.501427, 28.48167, 0.0], [84.50192, 28.481535, 0.0], [84.502492, 28.481546, 0.0], [84.503063, 28.481556, 0.0], [84.503634, 28.481567, 0.0], [84.504205, 28.481577, 0.0], [84.504776, 28.481588, 0.0], [84.505347, 28.481598, 0.0], [84.505918, 28.481609, 0.0], [84.506489, 28.481619, 0.0], [84.507059, 28.481702, 0.0], [84.507628, 28.481784, 0.0], [84.508198, 28.481867, 0.0], [84.508767, 28.481949, 0.0], [84.509338, 28.48196, 0.0], [84.509824, 28.482113, 0.0], [84.510098, 28.482428, 0.0], [84.510208, 28.48244, 0.0], [84.510746, 28.482545, 0.0], [84.511228, 28.482745, 0.0], [84.51171, 28.482897, 0.0], [84.512157, 28.483134, 0.0], [84.512573, 28.48355, 0.0], [84.51299, 28.483967, 0.0], [84.513942, 28.484513, 0.0], [84.514367, 28.484807, 0.0], [84.514682, 28.485195, 0.0], [84.515053, 28.485536, 0.0], [84.515478, 28.48583, 0.0], [84.515738, 28.486265, 0.0], [84.516053, 28.486652, 0.0], [84.516205, 28.487085, 0.0], [84.516465, 28.487519, 0.0], [84.516836, 28.48786, 0.0], [84.517151, 28.488248, 0.0], [84.517466, 28.488636, 0.0], [84.517781, 28.489023, 0.0], [84.518151, 28.489364, 0.0], [84.518468, 28.489704, 0.0], [84.518784, 28.490044, 0.0], [84.519099, 28.490432, 0.0], [84.519414, 28.49082, 0.0], [84.519729, 28.491207, 0.0], [84.520099, 28.491596, 0.0], [84.520414, 28.491984, 0.0], [84.520674, 28.492418, 0.0], [84.521044, 28.492759, 0.0], [84.521359, 28.493147, 0.0], [84.521619, 28.493581, 0.0], [84.521933, 28.494017, 0.0], [84.522358, 28.494358, 0.0], [84.522728, 28.494699, 0.0], [84.523098, 28.49504, 0.0], [84.523206, 28.495042, 0.0], [84.524162, 28.495776, 0.0], [84.524314, 28.496208, 0.0], [84.524629, 28.496596, 0.0], [84.524943, 28.497031, 0.0], [84.524932, 28.497509, 0.0], [84.524867, 28.497985, 0.0], [84.524856, 28.498462, 0.0], [84.524845, 28.498939, 0.0], [84.524888, 28.499417, 0.0], [84.52497, 28.499827, 0.0], [84.524423, 28.500384, 0.0], [84.524082, 28.500863, 0.0], [84.523743, 28.501245, 0.0], [84.523622, 28.501728, 0.0], [84.523611, 28.502214, 0.0], [84.52349, 28.502697, 0.0], [84.523259, 28.503178, 0.0], [84.522918, 28.503657, 0.0], [84.522577, 28.504136, 0.0], [84.522566, 28.504621, 0.0], [84.522664, 28.505108, 0.0], [84.522872, 28.505598, 0.0], [84.523193, 28.505992, 0.0], [84.523439, 28.506096, 0.0], [84.523432, 28.506395, 0.0], [84.523631, 28.506815, 0.0], [84.523936, 28.50719, 0.0], [84.524241, 28.507565, 0.0], [84.524272, 28.507581, 0.0], [84.52434, 28.507798, 0.0], [84.524592, 28.508218, 0.0], [84.524897, 28.508593, 0.0], [84.525096, 28.509012, 0.0], [84.525398, 28.509526, 0.0], [84.525597, 28.509946, 0.0], [84.525849, 28.510366, 0.0], [84.526314, 28.510605, 0.0], [84.526778, 28.510891, 0.0], [84.527302, 28.510854, 0.0], [84.527878, 28.510819, 0.0], [84.528454, 28.510783, 0.0], [84.52903, 28.510747, 0.0], [84.529553, 28.510757, 0.0], [84.530128, 28.510767, 0.0], [84.530651, 28.510777, 0.0], [84.531174, 28.510786, 0.0], [84.531695, 28.510842, 0.0], [84.532218, 28.510851, 0.0], [84.53274, 28.510907, 0.0], [84.53326, 28.511009, 0.0], [84.533672, 28.511293, 0.0], [84.534084, 28.511578, 0.0], [84.534607, 28.511588, 0.0], [84.53496, 28.511594, 0.0], [84.5353, 28.511829, 0.0], [84.535506, 28.512262, 0.0], [84.535745, 28.512482, 0.0], [84.535457, 28.512602, 0.0], [84.534901, 28.512883, 0.0], [84.534563, 28.513266, 0.0], [84.534224, 28.513648, 0.0], [84.533963, 28.513813, 0.0], [84.533679, 28.513463, 0.0], [84.533248, 28.513067, 0.0], [84.532816, 28.512768, 0.0], [84.532269, 28.512661, 0.0], [84.531713, 28.512942, 0.0], [84.531374, 28.513324, 0.0], [84.530818, 28.513605, 0.0], [84.530479, 28.513987, 0.0], [84.530248, 28.514469, 0.0], [84.530127, 28.514952, 0.0], [84.530116, 28.515437, 0.0], [84.529562, 28.515621, 0.0], [84.529006, 28.515902, 0.0], [84.528558, 28.516282, 0.0], [84.528217, 28.516761, 0.0], [84.527983, 28.51734, 0.0], [84.527645, 28.517722, 0.0], [84.527414, 28.518203, 0.0], [84.527292, 28.518686, 0.0], [84.527613, 28.51908, 0.0], [84.528162, 28.51909, 0.0], [84.528826, 28.518908, 0.0], [84.529083, 28.518823, 0.0], [84.529079, 28.518972, 0.0], [84.529014, 28.519449, 0.0], [84.529003, 28.519926, 0.0], [84.528992, 28.520403, 0.0], [84.52882, 28.52083, 0.0], [84.528158, 28.52139, 0.0], [84.528157, 28.521438, 0.0], [84.527771, 28.521765, 0.0], [84.52728, 28.521947, 0.0], [84.526791, 28.522082, 0.0], [84.52643, 28.52225, 0.0], [84.526119, 28.521868, 0.0], [84.525579, 28.52147, 0.0], [84.525034, 28.521266, 0.0], [84.524482, 28.521353, 0.0], [84.523929, 28.521537, 0.0], [84.523375, 28.521721, 0.0], [84.523125, 28.521804, 0.0], [84.523155, 28.521717, 0.0], [84.5233, 28.521415, 0.0], [84.52373, 28.521214, 0.0], [84.524223, 28.520937, 0.0], [84.524716, 28.520659, 0.0], [84.524942, 28.520234, 0.0], [84.524627, 28.519846, 0.0], [84.524311, 28.519458, 0.0], [84.524051, 28.519024, 0.0], [84.523747, 28.518813, 0.0], [84.523999, 28.518529, 0.0], [84.52423, 28.518048, 0.0], [84.524131, 28.517561, 0.0], [84.524033, 28.517073, 0.0], [84.524044, 28.516588, 0.0], [84.524056, 28.516103, 0.0], [84.523847, 28.515614, 0.0], [84.523303, 28.51541, 0.0], [84.522755, 28.515303, 0.0], [84.522415, 28.515782, 0.0], [84.522293, 28.516265, 0.0], [84.522172, 28.516748, 0.0], [84.522051, 28.517231, 0.0], [84.521712, 28.517614, 0.0], [84.521371, 28.518093, 0.0], [84.521193, 28.518206, 0.0], [84.521152, 28.518089, 0.0], [84.520502, 28.517689, 0.0], [84.520474, 28.517688, 0.0], [84.520389, 28.517784, 0.0], [84.519943, 28.518067, 0.0], [84.519605, 28.518449, 0.0], [84.519048, 28.51873, 0.0], [84.518495, 28.518914, 0.0], [84.517941, 28.519098, 0.0], [84.517387, 28.519282, 0.0], [84.516831, 28.519563, 0.0], [84.516277, 28.519747, 0.0], [84.515925, 28.51974, 0.0], [84.515945, 28.519838, 0.0], [84.51649, 28.520042, 0.0], [84.51638, 28.52004, 0.0], [84.515831, 28.52003, 0.0], [84.515288, 28.519729, 0.0], [84.51529, 28.519632, 0.0], [84.515302, 28.519147, 0.0], [84.515313, 28.518661, 0.0], [84.515325, 28.518176, 0.0], [84.515663, 28.517794, 0.0], [84.516217, 28.51761, 0.0], [84.516769, 28.517523, 0.0], [84.51732, 28.517436, 0.0], [84.517984, 28.517254, 0.0], [84.518536, 28.517167, 0.0], [84.519089, 28.516983, 0.0], [84.519538, 28.516603, 0.0], [84.519984, 28.51632, 0.0], [84.520215, 28.515839, 0.0], [84.51967, 28.515635, 0.0], [84.519121, 28.515625, 0.0], [84.518572, 28.515615, 0.0], [84.517803, 28.515601, 0.0], [84.517254, 28.515591, 0.0], [84.516704, 28.515581, 0.0], [84.516155, 28.515571, 0.0], [84.515606, 28.515561, 0.0], [84.515061, 28.515356, 0.0], [84.514853, 28.514867, 0.0], [84.514303, 28.514857, 0.0], [84.513969, 28.51507, 0.0], [84.51396, 28.51542, 0.0], [84.514051, 28.515972, 0.0], [84.514041, 28.51643, 0.0], [84.51403, 28.516888, 0.0], [84.514019, 28.517346, 0.0], [84.514008, 28.517804, 0.0], [84.513998, 28.518262, 0.0], [84.51409, 28.518722, 0.0], [84.514078, 28.519272, 0.0], [84.514067, 28.51973, 0.0], [84.514264, 28.520192, 0.0], [84.51446, 28.520654, 0.0], [84.514657, 28.521116, 0.0], [84.514854, 28.521578, 0.0], [84.51505, 28.52204, 0.0], [84.515561, 28.522416, 0.0], [84.515969, 28.522698, 0.0], [84.516378, 28.522981, 0.0], [84.516743, 28.523317, 0.0], [84.516747, 28.523153, 0.0], [84.517193, 28.52287, 0.0], [84.517532, 28.522488, 0.0], [84.517786, 28.522201, 0.0], [84.518088, 28.522207, 0.0], [84.518079, 28.522571, 0.0], [84.518404, 28.522795, 0.0], [84.518944, 28.523193, 0.0], [84.519374, 28.523589, 0.0], [84.519695, 28.523984, 0.0], [84.520127, 28.524283, 0.0], [84.52056, 28.524582, 0.0], [84.520767, 28.524725, 0.0], [84.520656, 28.525166, 0.0], [84.520425, 28.525647, 0.0], [84.520086, 28.526029, 0.0], [84.519533, 28.526213, 0.0], [84.518988, 28.526009, 0.0], [84.518438, 28.525999, 0.0], [84.517992, 28.526282, 0.0], [84.518091, 28.526769, 0.0], [84.518189, 28.527256, 0.0], [84.518622, 28.527556, 0.0], [84.519164, 28.527857, 0.0], [84.519597, 28.528156, 0.0], [84.519918, 28.52855, 0.0], [84.519698, 28.528546, 0.0], [84.518929, 28.528532, 0.0], [84.518265, 28.528714, 0.0], [84.517926, 28.529096, 0.0], [84.517805, 28.529579, 0.0], [84.517684, 28.530062, 0.0], [84.517672, 28.530548, 0.0], [84.517661, 28.531033, 0.0], [84.517982, 28.531427, 0.0], [84.518235, 28.531602, 0.0], [84.518082, 28.531817, 0.0], [84.517526, 28.532098, 0.0], [84.517078, 28.532478, 0.0], [84.516629, 28.532858, 0.0], [84.516398, 28.533339, 0.0], [84.516277, 28.533822, 0.0], [84.516155, 28.534306, 0.0], [84.515817, 28.534688, 0.0], [84.51526, 28.534969, 0.0], [84.514814, 28.535252, 0.0], [84.514475, 28.535634, 0.0], [84.514244, 28.536115, 0.0], [84.513905, 28.536497, 0.0], [84.513567, 28.536879, 0.0], [84.513335, 28.53736, 0.0], [84.513883, 28.537467, 0.0], [84.514437, 28.537283, 0.0], [84.515068, 28.537019, 0.0], [84.514974, 28.537523, 0.0], [84.514719, 28.537951, 0.0], [84.514625, 28.538454, 0.0], [84.514722, 28.538566, 0.0], [84.51442, 28.538736, 0.0], [84.514778, 28.538822, 0.0], [84.515328, 28.538954, 0.0], [84.515735, 28.539328, 0.0], [84.516138, 28.539824, 0.0], [84.516403, 28.540318, 0.0], [84.516669, 28.540812, 0.0], [84.516934, 28.541305, 0.0], [84.517061, 28.541797, 0.0], [84.517188, 28.542288, 0.0], [84.517453, 28.542781, 0.0], [84.51758, 28.543273, 0.0], [84.517568, 28.543761, 0.0], [84.517695, 28.544253, 0.0], [84.517684, 28.544741, 0.0], [84.517669, 28.545352, 0.0], [84.517658, 28.545841, 0.0], [84.51765, 28.54617, 0.0]], [[84.546339, 28.537825, 0.0], [84.546037, 28.537453, 0.0], [84.545689, 28.53726, 0.0], [84.545659, 28.537114, 0.0], [84.545671, 28.536629, 0.0], [84.545682, 28.536143, 0.0], [84.545685, 28.536008, 0.0], [84.546235, 28.536018, 0.0], [84.546784, 28.536028, 0.0], [84.546828, 28.536028, 0.0], [84.546995, 28.53642, 0.0], [84.54754, 28.536624, 0.0], [84.547848, 28.536837, 0.0], [84.547601, 28.537115, 0.0], [84.547282, 28.537476, 0.0], [84.54686, 28.537743, 0.0], [84.546596, 28.537967, 0.0], [84.546339, 28.537825, 0.0]], [[84.546598, 28.534568, 0.0], [84.546053, 28.534364, 0.0], [84.545506, 28.534257, 0.0], [84.544959, 28.53415, 0.0], [84.544409, 28.53414, 0.0], [84.54364, 28.534126, 0.0], [84.543782, 28.534459, 0.0], [84.543633, 28.534456, 0.0], [84.543085, 28.534349, 0.0], [84.542765, 28.533955, 0.0], [84.542666, 28.533468, 0.0], [84.54268, 28.532886, 0.0], [84.542691, 28.532401, 0.0], [84.542595, 28.531816, 0.0], [84.542606, 28.531331, 0.0], [84.542615, 28.530936, 0.0], [84.54275, 28.530822, 0.0], [84.543189, 28.530543, 0.0], [84.543575, 28.530216, 0.0], [84.543586, 28.529739, 0.0], [84.543597, 28.529262, 0.0], [84.543501, 28.528735, 0.0], [84.543349, 28.528302, 0.0], [84.543468, 28.527827, 0.0], [84.543589, 28.527304, 0.0], [84.543761, 28.526877, 0.0], [84.543987, 28.526452, 0.0], [84.544374, 28.526077, 0.0], [84.545031, 28.525707, 0.0], [84.545032, 28.525659, 0.0], [84.545418, 28.525332, 0.0], [84.54559, 28.524905, 0.0], [84.546319, 28.523961, 0.0], [84.546403, 28.524022, 0.0], [84.546945, 28.524323, 0.0], [84.547378, 28.524622, 0.0], [84.547645, 28.524951, 0.0], [84.547589, 28.525014, 0.0], [84.547577, 28.5255, 0.0], [84.547676, 28.525987, 0.0], [84.547775, 28.526474, 0.0], [84.547763, 28.526959, 0.0], [84.547752, 28.527444, 0.0], [84.547741, 28.527929, 0.0], [84.54784, 28.528417, 0.0], [84.54816, 28.528811, 0.0], [84.548369, 28.5293, 0.0], [84.548358, 28.529785, 0.0], [84.548127, 28.530266, 0.0], [84.547461, 28.530545, 0.0], [84.54714, 28.530151, 0.0], [84.546595, 28.529947, 0.0], [84.545936, 28.529935, 0.0], [84.545386, 28.529925, 0.0], [84.54472, 28.530205, 0.0], [84.544382, 28.530587, 0.0], [84.543933, 28.530967, 0.0], [84.543702, 28.531448, 0.0], [84.543361, 28.531927, 0.0], [84.54357, 28.532416, 0.0], [84.544115, 28.53262, 0.0], [84.54477, 28.532826, 0.0], [84.545202, 28.533126, 0.0], [84.545635, 28.533425, 0.0], [84.546178, 28.533726, 0.0], [84.546723, 28.53393, 0.0], [84.547131, 28.534212, 0.0], [84.547044, 28.534285, 0.0], [84.546598, 28.534568, 0.0]], [[84.525453, 28.532955, 0.0], [84.525141, 28.533051, 0.0], [84.525094, 28.532819, 0.0], [84.524549, 28.532615, 0.0], [84.524103, 28.532898, 0.0], [84.523551, 28.532985, 0.0], [84.522997, 28.533169, 0.0], [84.52245, 28.533062, 0.0], [84.522461, 28.532576, 0.0], [84.522802, 28.532097, 0.0], [84.522924, 28.531614, 0.0], [84.522949, 28.531514, 0.0], [84.523477, 28.53143, 0.0], [84.523924, 28.531147, 0.0], [84.52437, 28.530864, 0.0], [84.524709, 28.530482, 0.0], [84.525047, 28.5301, 0.0], [84.525388, 28.529621, 0.0], [84.525729, 28.529141, 0.0], [84.52596, 28.52866, 0.0], [84.526519, 28.528282, 0.0], [84.527077, 28.527904, 0.0], [84.527308, 28.527423, 0.0], [84.527647, 28.527041, 0.0], [84.527878, 28.52656, 0.0], [84.528217, 28.526177, 0.0], [84.528359, 28.525882, 0.0], [84.528864, 28.525891, 0.0], [84.529405, 28.525853, 0.0], [84.529898, 28.525576, 0.0], [84.530284, 28.525248, 0.0], [84.53067, 28.524921, 0.0], [84.530951, 28.524497, 0.0], [84.531123, 28.52407, 0.0], [84.531295, 28.523644, 0.0], [84.531467, 28.523217, 0.0], [84.531639, 28.52279, 0.0], [84.531758, 28.522315, 0.0], [84.531931, 28.521841, 0.0], [84.532103, 28.521414, 0.0], [84.532276, 28.520988, 0.0], [84.532395, 28.520513, 0.0], [84.53246, 28.520036, 0.0], [84.532471, 28.519559, 0.0], [84.532536, 28.519083, 0.0], [84.532708, 28.518656, 0.0], [84.532934, 28.518231, 0.0], [84.533161, 28.517805, 0.0], [84.533495, 28.517382, 0.0], [84.533721, 28.516956, 0.0], [84.533786, 28.51648, 0.0], [84.53386, 28.516184, 0.0], [84.534086, 28.516189, 0.0], [84.534161, 28.516365, 0.0], [84.534369, 28.516854, 0.0], [84.534578, 28.517343, 0.0], [84.534676, 28.51783, 0.0], [84.534775, 28.518317, 0.0], [84.534873, 28.518804, 0.0], [84.534862, 28.51929, 0.0], [84.534961, 28.519777, 0.0], [84.53511, 28.519961, 0.0], [84.5351, 28.520419, 0.0], [84.535141, 28.520944, 0.0], [84.53514, 28.520992, 0.0], [84.535183, 28.52147, 0.0], [84.535118, 28.521947, 0.0], [84.535053, 28.522423, 0.0], [84.534882, 28.522779, 0.0], [84.534717, 28.522891, 0.0], [84.534218, 28.5231, 0.0], [84.533799, 28.523384, 0.0], [84.53338, 28.523667, 0.0], [84.532958, 28.524096, 0.0], [84.532537, 28.524453, 0.0], [84.532198, 28.524883, 0.0], [84.532023, 28.525317, 0.0], [84.531846, 28.525824, 0.0], [84.531752, 28.526331, 0.0], [84.531577, 28.526765, 0.0], [84.531482, 28.527273, 0.0], [84.531225, 28.527705, 0.0], [84.530968, 28.528137, 0.0], [84.530544, 28.528639, 0.0], [84.530369, 28.529073, 0.0], [84.530357, 28.529582, 0.0], [84.53051, 28.530095, 0.0], [84.530545, 28.530349, 0.0], [84.530241, 28.530734, 0.0], [84.529821, 28.531231, 0.0], [84.529486, 28.531586, 0.0], [84.528991, 28.531793, 0.0], [84.528415, 28.531999, 0.0], [84.527838, 28.532205, 0.0], [84.52726, 28.532483, 0.0], [84.526687, 28.532544, 0.0], [84.526029, 28.532749, 0.0], [84.525453, 28.532955, 0.0]], [[84.538582, 28.543645, 0.0], [84.539013, 28.544041, 0.0], [84.539562, 28.544051, 0.0], [84.540112, 28.544061, 0.0], [84.540773, 28.543976, 0.0], [84.541325, 28.543889, 0.0], [84.54144, 28.543871, 0.0], [84.541625, 28.544156, 0.0], [84.541822, 28.544618, 0.0], [84.542231, 28.544901, 0.0], [84.542639, 28.545183, 0.0], [84.543048, 28.545466, 0.0], [84.543194, 28.545634, 0.0], [84.542928, 28.545859, 0.0], [84.542917, 28.546344, 0.0], [84.543015, 28.546832, 0.0], [84.542784, 28.547313, 0.0], [84.542714, 28.547593, 0.0], [84.542562, 28.547406, 0.0], [84.542466, 28.546822, 0.0], [84.542145, 28.546428, 0.0], [84.541825, 28.546033, 0.0], [84.541392, 28.545734, 0.0], [84.540849, 28.545433, 0.0], [84.5403, 28.545423, 0.0], [84.53975, 28.545413, 0.0], [84.539196, 28.545598, 0.0], [84.538533, 28.54578, 0.0], [84.537917, 28.545859, 0.0], [84.537855, 28.545555, 0.0], [84.537866, 28.545097, 0.0], [84.537877, 28.544638, 0.0], [84.537684, 28.543993, 0.0], [84.537408, 28.54348, 0.0], [84.537706, 28.543143, 0.0], [84.538108, 28.543062, 0.0], [84.538262, 28.543251, 0.0], [84.538582, 28.543645, 0.0]], [[84.545895, 28.545913, 0.0], [84.546341, 28.54563, 0.0], [84.546415, 28.545631, 0.0], [84.546559, 28.545731, 0.0], [84.547106, 28.545838, 0.0], [84.547651, 28.546042, 0.0], [84.547972, 28.546436, 0.0], [84.54818, 28.546925, 0.0], [84.548169, 28.54741, 0.0], [84.547723, 28.547693, 0.0], [84.547274, 28.548074, 0.0], [84.546725, 28.548064, 0.0], [84.546285, 28.548056, 0.0], [84.546292, 28.547765, 0.0], [84.545971, 28.54737, 0.0], [84.545873, 28.546883, 0.0], [84.545884, 28.546398, 0.0], [84.545895, 28.545913, 0.0]], [[84.552038, 28.546509, 0.0], [84.552064, 28.546406, 0.0], [84.552258, 28.546513, 0.0], [84.552807, 28.546523, 0.0], [84.553361, 28.546339, 0.0], [84.553809, 28.545959, 0.0], [84.554469, 28.545971, 0.0], [84.555018, 28.545981, 0.0], [84.555227, 28.54647, 0.0], [84.555545, 28.546961, 0.0], [84.55554, 28.547187, 0.0], [84.555314, 28.547442, 0.0], [84.555083, 28.547923, 0.0], [84.554968, 28.548164, 0.0], [84.55496, 28.548503, 0.0], [84.554511, 28.548884, 0.0], [84.554065, 28.549167, 0.0], [84.553619, 28.54945, 0.0], [84.553074, 28.549246, 0.0], [84.552865, 28.548757, 0.0], [84.552876, 28.548272, 0.0], [84.552915, 28.548208, 0.0], [84.552879, 28.548175, 0.0], [84.552336, 28.547874, 0.0], [84.552015, 28.54748, 0.0], [84.552027, 28.546994, 0.0], [84.552038, 28.546509, 0.0]]]}}]}