{"type": "FeatureCollection", "features": [{"type": "Feature", "properties": {"rgi_id": "RGI2000-v7.0-G-15-08533", "site_id": "tsho-rolpa", "kind": "glacier", "name": "Trakarding Glacier", "observation_date": "2000-10-30", "image_id": "LE07_L2SP_140041_20001030_20200918_02_T1", "inventory_doi": "https://doi.org/10.5194/essd-12-2169-2020", "status": "historical_baseline", "source_url": "https://github.com/GLIMS-RGI/lake_terminating", "recordId": "tsho-rolpa-glacier"}, "geometry": {"type": "Polygon", "coordinates": [[[86.554157, 27.878858, 0.0], [86.554157, 27.878825, 0.0], [86.55408, 27.878333, 0.0], [86.554003, 27.877842, 0.0], [86.554005, 27.87735, 0.0], [86.554165, 27.876859, 0.0], [86.554339, 27.876552, 0.0], [86.5543, 27.87634, 0.0], [86.554302, 27.875859, 0.0], [86.554124, 27.875378, 0.0], [86.553855, 27.874976, 0.0], [86.553767, 27.874495, 0.0], [86.553679, 27.874014, 0.0], [86.553681, 27.873533, 0.0], [86.553628, 27.873358, 0.0], [86.553155, 27.872988, 0.0], [86.552623, 27.872828, 0.0], [86.552148, 27.873037, 0.0], [86.55185, 27.873405, 0.0], [86.551552, 27.873825, 0.0], [86.551373, 27.874298, 0.0], [86.551016, 27.874666, 0.0], [86.550718, 27.875033, 0.0], [86.55042, 27.875506, 0.0], [86.550122, 27.875873, 0.0], [86.549883, 27.876346, 0.0], [86.549763, 27.876872, 0.0], [86.549426, 27.876914, 0.0], [86.548951, 27.877123, 0.0], [86.548791, 27.877614, 0.0], [86.548709, 27.878246, 0.0], [86.54847, 27.878666, 0.0], [86.548437, 27.878871, 0.0], [86.548274, 27.878993, 0.0], [86.547992, 27.879391, 0.0], [86.547766, 27.879839, 0.0], [86.547932, 27.880289, 0.0], [86.547987, 27.880737, 0.0], [86.547648, 27.881085, 0.0], [86.547322, 27.881245, 0.0], [86.547275, 27.881329, 0.0], [86.547036, 27.88175, 0.0], [86.546639, 27.882099, 0.0], [86.546404, 27.881677, 0.0], [86.546274, 27.881206, 0.0], [86.546249, 27.881115, 0.0], [86.546013, 27.880693, 0.0], [86.545778, 27.880271, 0.0], [86.545464, 27.879849, 0.0], [86.54507, 27.879497, 0.0], [86.544598, 27.879215, 0.0], [86.5445, 27.87916, 0.0], [86.544395, 27.878781, 0.0], [86.544397, 27.878312, 0.0], [86.544399, 27.877843, 0.0], [86.544401, 27.877374, 0.0], [86.544359, 27.876905, 0.0], [86.544231, 27.876045, 0.0], [86.544233, 27.875577, 0.0], [86.544235, 27.875108, 0.0], [86.544193, 27.874639, 0.0], [86.544107, 27.874131, 0.0], [86.544021, 27.873624, 0.0], [86.544034, 27.873607, 0.0], [86.544273, 27.873187, 0.0], [86.544511, 27.872767, 0.0], [86.544356, 27.872205, 0.0], [86.544271, 27.871937, 0.0], [86.544283, 27.871906, 0.0], [86.544339, 27.871428, 0.0], [86.544448, 27.870951, 0.0], [86.54445, 27.870507, 0.0], [86.544528, 27.87004, 0.0], [86.544604, 27.869575, 0.0], [86.544681, 27.86911, 0.0], [86.544758, 27.868645, 0.0], [86.544835, 27.868113, 0.0], [86.544987, 27.867649, 0.0], [86.545063, 27.867184, 0.0], [86.545215, 27.866719, 0.0], [86.545366, 27.866254, 0.0], [86.545368, 27.865789, 0.0], [86.545071, 27.865389, 0.0], [86.544773, 27.864989, 0.0], [86.544401, 27.864655, 0.0], [86.544103, 27.864189, 0.0], [86.543806, 27.863789, 0.0], [86.543434, 27.863389, 0.0], [86.543285, 27.863189, 0.0], [86.543286, 27.86299, 0.0], [86.543288, 27.862524, 0.0], [86.543215, 27.861926, 0.0], [86.543068, 27.86146, 0.0], [86.54307, 27.860995, 0.0], [86.543072, 27.860529, 0.0], [86.543148, 27.860064, 0.0], [86.543524, 27.859733, 0.0], [86.54375, 27.859268, 0.0], [86.543976, 27.858804, 0.0], [86.544128, 27.858339, 0.0], [86.544279, 27.857874, 0.0], [86.544356, 27.857409, 0.0], [86.544433, 27.856944, 0.0], [86.544585, 27.856413, 0.0], [86.544736, 27.855948, 0.0], [86.544888, 27.855483, 0.0], [86.54474, 27.854951, 0.0], [86.544518, 27.854485, 0.0], [86.54422, 27.854085, 0.0], [86.544089, 27.853967, 0.0], [86.543848, 27.853751, 0.0], [86.5434, 27.853484, 0.0], [86.542878, 27.853283, 0.0], [86.54258, 27.852883, 0.0], [86.542582, 27.852417, 0.0], [86.542584, 27.851952, 0.0], [86.542586, 27.851487, 0.0], [86.542588, 27.851021, 0.0], [86.54259, 27.850556, 0.0], [86.542591, 27.850373, 0.0], [86.542599, 27.850356, 0.0], [86.54287, 27.849927, 0.0], [86.543087, 27.849498, 0.0], [86.543357, 27.849069, 0.0], [86.543397, 27.849005, 0.0], [86.543665, 27.848901, 0.0], [86.543821, 27.84904, 0.0], [86.544293, 27.849323, 0.0], [86.544846, 27.849465, 0.0], [86.545321, 27.849186, 0.0], [86.545638, 27.848766, 0.0], [86.545825, 27.848601, 0.0], [86.546034, 27.848416, 0.0], [86.54651, 27.848066, 0.0], [86.547063, 27.847928, 0.0], [86.547083, 27.847923, 0.0], [86.547616, 27.847789, 0.0], [86.548091, 27.84751, 0.0], [86.548488, 27.847161, 0.0], [86.548648, 27.84667, 0.0], [86.548719, 27.846239, 0.0], [86.549066, 27.846059, 0.0], [86.549035, 27.845975, 0.0], [86.548837, 27.845531, 0.0], [86.548759, 27.845176, 0.0], [86.54898, 27.844898, 0.0], [86.549273, 27.845272, 0.0], [86.549748, 27.845485, 0.0], [86.549793, 27.845365, 0.0], [86.549795, 27.844844, 0.0], [86.549797, 27.844322, 0.0], [86.549632, 27.843875, 0.0], [86.54955, 27.843427, 0.0], [86.549468, 27.84298, 0.0], [86.549302, 27.842532, 0.0], [86.549052, 27.842084, 0.0], [86.548886, 27.841637, 0.0], [86.548721, 27.841189, 0.0], [86.548555, 27.840741, 0.0], [86.548473, 27.840294, 0.0], [86.548224, 27.839772, 0.0], [86.548225, 27.839548, 0.0], [86.547823, 27.839658, 0.0], [86.547765, 27.839287, 0.0], [86.547767, 27.838796, 0.0], [86.547848, 27.838305, 0.0], [86.548087, 27.837814, 0.0], [86.547852, 27.837392, 0.0], [86.547696, 27.8369, 0.0], [86.547946, 27.83657, 0.0], [86.547819, 27.836343, 0.0], [86.547569, 27.835895, 0.0], [86.547319, 27.835447, 0.0], [86.547154, 27.834999, 0.0], [86.546988, 27.834552, 0.0], [86.546906, 27.834104, 0.0], [86.546656, 27.833656, 0.0], [86.546574, 27.833209, 0.0], [86.546532, 27.832897, 0.0], [86.545818, 27.832823, 0.0], [86.545343, 27.833032, 0.0], [86.545499, 27.833524, 0.0], [86.545497, 27.834015, 0.0], [86.545653, 27.834507, 0.0], [86.545888, 27.834929, 0.0], [86.545886, 27.835421, 0.0], [86.545805, 27.835912, 0.0], [86.545566, 27.836332, 0.0], [86.545328, 27.836752, 0.0], [86.544853, 27.836961, 0.0], [86.5443, 27.836959, 0.0], [86.543826, 27.837168, 0.0], [86.544219, 27.837521, 0.0], [86.544691, 27.837873, 0.0], [86.544768, 27.838365, 0.0], [86.544766, 27.838856, 0.0], [86.544606, 27.839347, 0.0], [86.544525, 27.839838, 0.0], [86.544444, 27.840329, 0.0], [86.544521, 27.840821, 0.0], [86.544519, 27.841312, 0.0], [86.544912, 27.841734, 0.0], [86.545385, 27.841947, 0.0], [86.545858, 27.842229, 0.0], [86.545975, 27.842299, 0.0], [86.545954, 27.842375, 0.0], [86.545952, 27.842844, 0.0], [86.545906, 27.843313, 0.0], [86.545816, 27.843781, 0.0], [86.545814, 27.84425, 0.0], [86.545724, 27.844718, 0.0], [86.545415, 27.845108, 0.0], [86.545281, 27.845616, 0.0], [86.545279, 27.846084, 0.0], [86.545101, 27.846514, 0.0], [86.54488, 27.846943, 0.0], [86.54457, 27.847332, 0.0], [86.544379, 27.847393, 0.0], [86.544224, 27.847352, 0.0], [86.543742, 27.847064, 0.0], [86.543689, 27.846729, 0.0], [86.54353, 27.846299, 0.0], [86.543371, 27.845868, 0.0], [86.543373, 27.84539, 0.0], [86.543213, 27.844912, 0.0], [86.543122, 27.8445, 0.0], [86.543129, 27.844476, 0.0], [86.543289, 27.843985, 0.0], [86.54337, 27.843494, 0.0], [86.543214, 27.843002, 0.0], [86.542979, 27.84258, 0.0], [86.542744, 27.842158, 0.0], [86.542509, 27.841736, 0.0], [86.542116, 27.841384, 0.0], [86.541881, 27.840962, 0.0], [86.541804, 27.84047, 0.0], [86.541648, 27.839979, 0.0], [86.541413, 27.839557, 0.0], [86.541178, 27.839065, 0.0], [86.540864, 27.838642, 0.0], [86.540608, 27.838241, 0.0], [86.540608, 27.838168, 0.0], [86.540611, 27.837643, 0.0], [86.540613, 27.837165, 0.0], [86.540615, 27.836687, 0.0], [86.540724, 27.83621, 0.0], [86.540834, 27.835685, 0.0], [86.54091, 27.835534, 0.0], [86.54099, 27.835545, 0.0], [86.541387, 27.835125, 0.0], [86.541487, 27.834776, 0.0], [86.541828, 27.834575, 0.0], [86.542304, 27.834225, 0.0], [86.542778, 27.834016, 0.0], [86.542842, 27.833904, 0.0], [86.543252, 27.834088, 0.0], [86.543804, 27.83409, 0.0], [86.543885, 27.833599, 0.0], [86.54365, 27.833177, 0.0], [86.543573, 27.832685, 0.0], [86.543521, 27.83252, 0.0], [86.543723, 27.832282, 0.0], [86.544021, 27.831915, 0.0], [86.54407, 27.831816, 0.0], [86.54414, 27.83181, 0.0], [86.544555, 27.831548, 0.0], [86.544971, 27.831181, 0.0], [86.545269, 27.830813, 0.0], [86.54534, 27.830688, 0.0], [86.545161, 27.830447, 0.0], [86.544911, 27.829999, 0.0], [86.544717, 27.82965, 0.0], [86.544681, 27.829706, 0.0], [86.544512, 27.82978, 0.0], [86.544477, 27.829731, 0.0], [86.544569, 27.82945, 0.0], [86.544334, 27.829028, 0.0], [86.544099, 27.828536, 0.0], [86.543785, 27.827973, 0.0], [86.543471, 27.827551, 0.0], [86.543394, 27.82706, 0.0], [86.543213, 27.826816, 0.0], [86.543396, 27.826709, 0.0], [86.543696, 27.826488, 0.0], [86.543669, 27.826344, 0.0], [86.543587, 27.825897, 0.0], [86.54359, 27.825301, 0.0], [86.543592, 27.824779, 0.0], [86.543593, 27.824581, 0.0], [86.543563, 27.824393, 0.0], [86.543487, 27.823901, 0.0], [86.543488, 27.823661, 0.0], [86.543431, 27.823288, 0.0], [86.543433, 27.822767, 0.0], [86.543435, 27.822245, 0.0], [86.543437, 27.821762, 0.0], [86.54326, 27.821444, 0.0], [86.542946, 27.821022, 0.0], [86.542632, 27.8206, 0.0], [86.542318, 27.820177, 0.0], [86.542004, 27.819755, 0.0], [86.541769, 27.819333, 0.0], [86.541771, 27.818842, 0.0], [86.541773, 27.818281, 0.0], [86.541854, 27.817789, 0.0], [86.541935, 27.817298, 0.0], [86.542049, 27.816948, 0.0], [86.541824, 27.816746, 0.0], [86.54151, 27.816324, 0.0], [86.54156, 27.816236, 0.0], [86.541415, 27.815975, 0.0], [86.541417, 27.815507, 0.0], [86.541419, 27.815039, 0.0], [86.541526, 27.814571, 0.0], [86.541738, 27.814104, 0.0], [86.541951, 27.813637, 0.0], [86.542268, 27.81317, 0.0], [86.542481, 27.812609, 0.0], [86.542541, 27.812556, 0.0], [86.542429, 27.812527, 0.0], [86.541876, 27.812525, 0.0], [86.541739, 27.812577, 0.0], [86.541922, 27.812254, 0.0], [86.541924, 27.811693, 0.0], [86.542477, 27.811695, 0.0], [86.542612, 27.811668, 0.0], [86.542381, 27.811392, 0.0], [86.542067, 27.811017, 0.0], [86.541753, 27.810641, 0.0], [86.541439, 27.810172, 0.0], [86.541125, 27.809703, 0.0], [86.540811, 27.809234, 0.0], [86.540603, 27.808766, 0.0], [86.5405, 27.808297, 0.0], [86.54008, 27.808015, 0.0], [86.53966, 27.80764, 0.0], [86.539417, 27.807368, 0.0], [86.539338, 27.807403, 0.0], [86.539195, 27.807653, 0.0], [86.539021, 27.807542, 0.0], [86.53839, 27.80747, 0.0], [86.53768, 27.807397, 0.0], [86.53697, 27.807325, 0.0], [86.536903, 27.807317, 0.0], [86.536848, 27.806964, 0.0], [86.536613, 27.806542, 0.0], [86.53614, 27.806259, 0.0], [86.535668, 27.806047, 0.0], [86.535115, 27.805975, 0.0], [86.534625, 27.805786, 0.0], [86.534626, 27.805351, 0.0], [86.53451, 27.804877, 0.0], [86.533977, 27.804823, 0.0], [86.533562, 27.805085, 0.0], [86.533028, 27.805293, 0.0], [86.532838, 27.805343, 0.0], [86.532436, 27.805449, 0.0], [86.531902, 27.805605, 0.0], [86.531418, 27.805652, 0.0], [86.531369, 27.805656, 0.0], [86.531153, 27.805775, 0.0], [86.530695, 27.80589, 0.0], [86.530142, 27.806028, 0.0], [86.52951, 27.806096, 0.0], [86.528878, 27.806164, 0.0], [86.528326, 27.806163, 0.0], [86.527773, 27.806231, 0.0], [86.527221, 27.806229, 0.0], [86.526589, 27.806227, 0.0], [86.526037, 27.806155, 0.0], [86.525327, 27.806082, 0.0], [86.524854, 27.80587, 0.0], [86.524461, 27.805518, 0.0], [86.524225, 27.805176, 0.0], [86.524183, 27.805175, 0.0], [86.524108, 27.805197, 0.0], [86.52409, 27.805105, 0.0], [86.524033, 27.804526, 0.0], [86.524015, 27.804478, 0.0], [86.523992, 27.804498, 0.0], [86.523464, 27.804777, 0.0], [86.523042, 27.805056, 0.0], [86.522725, 27.80543, 0.0], [86.522303, 27.805709, 0.0], [86.521775, 27.805988, 0.0], [86.521353, 27.806267, 0.0], [86.520721, 27.806452, 0.0], [86.520193, 27.806731, 0.0], [86.519761, 27.80673, 0.0], [86.519447, 27.806914, 0.0], [86.518895, 27.806912, 0.0], [86.518342, 27.80698, 0.0], [86.51771, 27.807048, 0.0], [86.517157, 27.807116, 0.0], [86.516604, 27.807325, 0.0], [86.516365, 27.807816, 0.0], [86.516521, 27.808307, 0.0], [86.516676, 27.808799, 0.0], [86.516832, 27.809291, 0.0], [86.516988, 27.809783, 0.0], [86.517302, 27.810205, 0.0], [86.517854, 27.810207, 0.0], [86.518407, 27.810209, 0.0], [86.518882, 27.80993, 0.0], [86.519356, 27.809651, 0.0], [86.519753, 27.809231, 0.0], [86.519834, 27.809171, 0.0], [86.519832, 27.809573, 0.0], [86.519915, 27.810022, 0.0], [86.520334, 27.810322, 0.0], [86.520795, 27.810548, 0.0], [86.521257, 27.810774, 0.0], [86.521719, 27.810963, 0.0], [86.522265, 27.811152, 0.0], [86.522726, 27.81134, 0.0], [86.523019, 27.811715, 0.0], [86.523033, 27.811887, 0.0], [86.523012, 27.8119, 0.0], [86.522537, 27.812249, 0.0], [86.522064, 27.812037, 0.0], [86.521671, 27.811685, 0.0], [86.521118, 27.811753, 0.0], [86.520566, 27.811751, 0.0], [86.520012, 27.81189, 0.0], [86.519538, 27.812169, 0.0], [86.518985, 27.812237, 0.0], [86.518588, 27.812657, 0.0], [86.518428, 27.813147, 0.0], [86.518426, 27.813639, 0.0], [86.518503, 27.81413, 0.0], [86.518737, 27.814623, 0.0], [86.518735, 27.815114, 0.0], [86.518812, 27.815605, 0.0], [86.518889, 27.816097, 0.0], [86.519044, 27.816589, 0.0], [86.519279, 27.817011, 0.0], [86.519754, 27.816732, 0.0], [86.520072, 27.816242, 0.0], [86.52039, 27.815751, 0.0], [86.520866, 27.815332, 0.0], [86.521341, 27.814983, 0.0], [86.521737, 27.814633, 0.0], [86.522055, 27.814213, 0.0], [86.522451, 27.813793, 0.0], [86.522926, 27.813514, 0.0], [86.523322, 27.813164, 0.0], [86.523421, 27.813077, 0.0], [86.523853, 27.813289, 0.0], [86.524146, 27.813701, 0.0], [86.524608, 27.813927, 0.0], [86.525155, 27.813854, 0.0], [86.525253, 27.81351, 0.0], [86.524946, 27.81318, 0.0], [86.524869, 27.812688, 0.0], [86.52495, 27.812197, 0.0], [86.525425, 27.811988, 0.0], [86.525978, 27.81185, 0.0], [86.526261, 27.811815, 0.0], [86.526485, 27.811982, 0.0], [86.527037, 27.812054, 0.0], [86.52759, 27.812126, 0.0], [86.528142, 27.812128, 0.0], [86.528332, 27.812045, 0.0], [86.528345, 27.812068, 0.0], [86.528817, 27.812491, 0.0], [86.529211, 27.812668, 0.0], [86.52921, 27.812914, 0.0], [86.529208, 27.813405, 0.0], [86.529284, 27.813897, 0.0], [86.529299, 27.81399, 0.0], [86.529147, 27.814232, 0.0], [86.529081, 27.814026, 0.0], [86.528688, 27.813674, 0.0], [86.528295, 27.813322, 0.0], [86.52805, 27.812992, 0.0], [86.527472, 27.813118, 0.0], [86.52684, 27.813186, 0.0], [86.526542, 27.813223, 0.0], [86.526478, 27.813667, 0.0], [86.526475, 27.814228, 0.0], [86.526473, 27.814719, 0.0], [86.52655, 27.815281, 0.0], [86.526547, 27.815843, 0.0], [86.526703, 27.816335, 0.0], [86.526701, 27.816826, 0.0], [86.526857, 27.817318, 0.0], [86.526934, 27.817809, 0.0], [86.52701, 27.818301, 0.0], [86.527074, 27.818531, 0.0], [86.526812, 27.818854, 0.0], [86.526456, 27.819221, 0.0], [86.526158, 27.819589, 0.0], [86.52586, 27.820009, 0.0], [86.525562, 27.820376, 0.0], [86.525206, 27.820744, 0.0], [86.524967, 27.820989, 0.0], [86.524561, 27.821108, 0.0], [86.52413, 27.82144, 0.0], [86.523752, 27.821774, 0.0], [86.523321, 27.822059, 0.0], [86.52273, 27.822152, 0.0], [86.522247, 27.822007, 0.0], [86.522045, 27.821872, 0.0], [86.522041, 27.821813, 0.0], [86.522043, 27.821345, 0.0], [86.522035, 27.82121, 0.0], [86.522126, 27.820944, 0.0], [86.522187, 27.82047, 0.0], [86.522189, 27.819996, 0.0], [86.522191, 27.819522, 0.0], [86.522312, 27.819049, 0.0], [86.522255, 27.818575, 0.0], [86.522079, 27.818101, 0.0], [86.521487, 27.818151, 0.0], [86.521248, 27.818572, 0.0], [86.521068, 27.819045, 0.0], [86.520975, 27.81941, 0.0], [86.520948, 27.819518, 0.0], [86.520532, 27.819885, 0.0], [86.520057, 27.820094, 0.0], [86.519822, 27.819672, 0.0], [86.519724, 27.81927, 0.0], [86.519706, 27.819198, 0.0], [86.519589, 27.818724, 0.0], [86.519057, 27.818564, 0.0], [86.518582, 27.818931, 0.0], [86.518343, 27.819351, 0.0], [86.518282, 27.819825, 0.0], [86.518282, 27.819925, 0.0], [86.518229, 27.820097, 0.0], [86.517691, 27.819559, 0.0], [86.517397, 27.81919, 0.0], [86.517102, 27.818768, 0.0], [86.516689, 27.81845, 0.0], [86.516276, 27.818133, 0.0], [86.515982, 27.817764, 0.0], [86.515628, 27.817394, 0.0], [86.515334, 27.817024, 0.0], [86.515099, 27.816602, 0.0], [86.514805, 27.816128, 0.0], [86.514452, 27.815705, 0.0], [86.514158, 27.815283, 0.0], [86.514448, 27.81505, 0.0], [86.514687, 27.814577, 0.0], [86.514807, 27.814104, 0.0], [86.515046, 27.813683, 0.0], [86.515271, 27.813367, 0.0], [86.515291, 27.813392, 0.0], [86.515765, 27.813183, 0.0], [86.515768, 27.812657, 0.0], [86.515711, 27.812077, 0.0], [86.515595, 27.811603, 0.0], [86.515301, 27.811181, 0.0], [86.514769, 27.810916, 0.0], [86.514296, 27.810704, 0.0], [86.513824, 27.810491, 0.0], [86.513292, 27.810279, 0.0], [86.512819, 27.810014, 0.0], [86.512228, 27.809907, 0.0], [86.511576, 27.809904, 0.0], [86.51137, 27.809924, 0.0], [86.511281, 27.809745, 0.0], [86.511106, 27.809218, 0.0], [86.511108, 27.808786, 0.0], [86.511552, 27.808609, 0.0], [86.512057, 27.808498, 0.0], [86.512521, 27.808276, 0.0], [86.512984, 27.80809, 0.0], [86.51328, 27.807718, 0.0], [86.513269, 27.807583, 0.0], [86.513601, 27.807332, 0.0], [86.513721, 27.806859, 0.0], [86.513308, 27.806541, 0.0], [86.512776, 27.806382, 0.0], [86.512426, 27.806742, 0.0], [86.511939, 27.806741, 0.0], [86.511308, 27.806738, 0.0], [86.510761, 27.806699, 0.0], [86.510131, 27.806697, 0.0], [86.509584, 27.806732, 0.0], [86.509162, 27.806992, 0.0], [86.508699, 27.807215, 0.0], [86.508193, 27.8074, 0.0], [86.507771, 27.807661, 0.0], [86.507391, 27.807996, 0.0], [86.507293, 27.808396, 0.0], [86.507195, 27.808497, 0.0], [86.506897, 27.808864, 0.0], [86.506481, 27.809231, 0.0], [86.506066, 27.809493, 0.0], [86.505768, 27.809913, 0.0], [86.506003, 27.810335, 0.0], [86.506536, 27.810179, 0.0], [86.506834, 27.809811, 0.0], [86.507191, 27.809444, 0.0], [86.507666, 27.809183, 0.0], [86.507729, 27.809108, 0.0], [86.507848, 27.809344, 0.0], [86.507678, 27.809792, 0.0], [86.507549, 27.81024, 0.0], [86.507463, 27.810688, 0.0], [86.507376, 27.810784, 0.0], [86.507014, 27.810783, 0.0], [86.50648, 27.810886, 0.0], [86.505948, 27.810885, 0.0], [86.505415, 27.810883, 0.0], [86.504882, 27.810828, 0.0], [86.50435, 27.810774, 0.0], [86.503818, 27.810561, 0.0], [86.503405, 27.810244, 0.0], [86.50311, 27.809874, 0.0], [86.502757, 27.809452, 0.0], [86.502463, 27.809082, 0.0], [86.501929, 27.809238, 0.0], [86.501749, 27.809711, 0.0], [86.501747, 27.810185, 0.0], [86.501908, 27.810533, 0.0], [86.501869, 27.810967, 0.0], [86.501741, 27.811416, 0.0], [86.501654, 27.811864, 0.0], [86.501671, 27.81191, 0.0], [86.501522, 27.811925, 0.0], [86.501585, 27.812394, 0.0], [86.50188, 27.812776, 0.0], [86.502076, 27.813216, 0.0], [86.502503, 27.813482, 0.0], [86.50303, 27.813572, 0.0], [86.503524, 27.813749, 0.0], [86.504017, 27.813868, 0.0], [86.504544, 27.813929, 0.0], [86.505072, 27.81393, 0.0], [86.505632, 27.813932, 0.0], [86.506159, 27.813934, 0.0], [86.506192, 27.813934, 0.0], [86.506587, 27.813994, 0.0], [86.507081, 27.814201, 0.0], [86.507541, 27.814437, 0.0], [86.508034, 27.814674, 0.0], [86.508461, 27.814968, 0.0], [86.508888, 27.815233, 0.0], [86.509316, 27.815499, 0.0], [86.509644, 27.815851, 0.0], [86.510071, 27.816146, 0.0], [86.510465, 27.81644, 0.0], [86.510537, 27.816473, 0.0], [86.510657, 27.816797, 0.0], [86.510952, 27.817219, 0.0], [86.511246, 27.817589, 0.0], [86.5116, 27.817959, 0.0], [86.512012, 27.818329, 0.0], [86.512366, 27.818698, 0.0], [86.512779, 27.819068, 0.0], [86.513073, 27.819438, 0.0], [86.513545, 27.819808, 0.0], [86.513899, 27.820178, 0.0], [86.514252, 27.8206, 0.0], [86.514547, 27.82097, 0.0], [86.5149, 27.82134, 0.0], [86.515195, 27.821709, 0.0], [86.51543, 27.822131, 0.0], [86.515605, 27.822605, 0.0], [86.51584, 27.82308, 0.0], [86.516075, 27.823555, 0.0], [86.516309, 27.824082, 0.0], [86.516544, 27.824556, 0.0], [86.516838, 27.824979, 0.0], [86.517192, 27.825348, 0.0], [86.517486, 27.825718, 0.0], [86.517745, 27.826089, 0.0], [86.517738, 27.826194, 0.0], [86.517472, 27.826603, 0.0], [86.517141, 27.826953, 0.0], [86.516347, 27.827566, 0.0], [86.515885, 27.827799, 0.0], [86.515455, 27.828061, 0.0], [86.515058, 27.828382, 0.0], [86.514662, 27.828673, 0.0], [86.514265, 27.828994, 0.0], [86.513703, 27.829344, 0.0], [86.513207, 27.829635, 0.0], [86.512744, 27.829897, 0.0], [86.512315, 27.830189, 0.0], [86.511885, 27.83048, 0.0], [86.511488, 27.830772, 0.0], [86.511124, 27.831093, 0.0], [86.510629, 27.831208, 0.0], [86.510398, 27.831325, 0.0], [86.509703, 27.831967, 0.0], [86.509273, 27.832229, 0.0], [86.508745, 27.832461, 0.0], [86.508315, 27.832782, 0.0], [86.507885, 27.833074, 0.0], [86.507389, 27.833394, 0.0], [86.50696, 27.833686, 0.0], [86.506595, 27.834065, 0.0], [86.506297, 27.834445, 0.0], [86.505867, 27.834707, 0.0], [86.505437, 27.834999, 0.0], [86.505041, 27.83529, 0.0], [86.504644, 27.835582, 0.0], [86.504214, 27.835844, 0.0], [86.503784, 27.836136, 0.0], [86.503453, 27.836486, 0.0], [86.503122, 27.836866, 0.0], [86.502758, 27.837216, 0.0], [86.502394, 27.837537, 0.0], [86.501964, 27.837799, 0.0], [86.501501, 27.838061, 0.0], [86.501038, 27.838352, 0.0], [86.500707, 27.838703, 0.0], [86.500245, 27.838906, 0.0], [86.49975, 27.839051, 0.0], [86.499287, 27.839254, 0.0], [86.498792, 27.839399, 0.0], [86.498297, 27.839573, 0.0], [86.497802, 27.839689, 0.0], [86.49734, 27.839892, 0.0], [86.496889, 27.840113, 0.0], [86.49641, 27.84031, 0.0], [86.495934, 27.84052, 0.0], [86.495497, 27.840765, 0.0], [86.4951, 27.84108, 0.0], [86.49482, 27.841467, 0.0], [86.494383, 27.841747, 0.0], [86.493986, 27.842062, 0.0], [86.493786, 27.842484, 0.0], [86.493507, 27.84287, 0.0], [86.49307, 27.843115, 0.0], [86.492633, 27.84336, 0.0], [86.492194, 27.843993, 0.0], [86.491835, 27.844414, 0.0], [86.491556, 27.8448, 0.0], [86.491277, 27.845186, 0.0], [86.490879, 27.845537, 0.0], [86.490482, 27.845853, 0.0], [86.490123, 27.846239, 0.0], [86.489805, 27.846625, 0.0], [86.489407, 27.846976, 0.0], [86.489009, 27.847291, 0.0], [86.48873, 27.847713, 0.0], [86.488213, 27.848168, 0.0], [86.487815, 27.848554, 0.0], [86.487773, 27.849012, 0.0], [86.48789, 27.84947, 0.0], [86.488165, 27.849859, 0.0], [86.48852, 27.850212, 0.0], [86.488994, 27.850425, 0.0], [86.489431, 27.85018, 0.0], [86.489869, 27.8499, 0.0], [86.490266, 27.849585, 0.0], [86.490624, 27.849234, 0.0], [86.491061, 27.848989, 0.0], [86.491498, 27.848744, 0.0], [86.491896, 27.848429, 0.0], [86.492294, 27.848113, 0.0], [86.492691, 27.847798, 0.0], [86.493128, 27.847518, 0.0], [86.493566, 27.847237, 0.0], [86.493963, 27.846887, 0.0], [86.49444, 27.846712, 0.0], [86.494877, 27.846397, 0.0], [86.495314, 27.846152, 0.0], [86.495633, 27.845766, 0.0], [86.495991, 27.845415, 0.0], [86.496428, 27.84517, 0.0], [86.496904, 27.844925, 0.0], [86.49742, 27.844822, 0.0], [86.497935, 27.844683, 0.0], [86.498451, 27.844614, 0.0], [86.498927, 27.844405, 0.0], [86.499443, 27.844195, 0.0], [86.499958, 27.844162, 0.0], [86.500791, 27.843989, 0.0], [86.501424, 27.843808, 0.0], [86.501473, 27.843857, 0.0], [86.501866, 27.843551, 0.0], [86.502307, 27.843319, 0.0], [86.502791, 27.843125, 0.0], [86.503275, 27.842931, 0.0], [86.503716, 27.84266, 0.0], [86.5042, 27.842505, 0.0], [86.504641, 27.842233, 0.0], [86.505082, 27.841922, 0.0], [86.505479, 27.841611, 0.0], [86.505876, 27.8413, 0.0], [86.50636, 27.841067, 0.0], [86.506888, 27.840913, 0.0], [86.507373, 27.84068, 0.0], [86.507813, 27.840447, 0.0], [86.508254, 27.840215, 0.0], [86.508739, 27.839982, 0.0], [86.509223, 27.839749, 0.0], [86.509795, 27.839556, 0.0], [86.510236, 27.839284, 0.0], [86.510676, 27.839051, 0.0], [86.511204, 27.838936, 0.0], [86.511909, 27.838509, 0.0], [86.512218, 27.838275, 0.0], [86.512746, 27.838121, 0.0], [86.513231, 27.837888, 0.0], [86.513628, 27.837538, 0.0], [86.514068, 27.837305, 0.0], [86.514465, 27.836994, 0.0], [86.514862, 27.836683, 0.0], [86.515259, 27.836333, 0.0], [86.515744, 27.836061, 0.0], [86.516228, 27.835789, 0.0], [86.516582, 27.835439, 0.0], [86.517109, 27.835323, 0.0], [86.517594, 27.835169, 0.0], [86.518122, 27.835014, 0.0], [86.518606, 27.834821, 0.0], [86.519134, 27.834627, 0.0], [86.519662, 27.834551, 0.0], [86.520189, 27.834514, 0.0], [86.520717, 27.834398, 0.0], [86.521201, 27.834244, 0.0], [86.521729, 27.834089, 0.0], [86.522258, 27.833896, 0.0], [86.523534, 27.833509, 0.0], [86.524281, 27.833434, 0.0], [86.524809, 27.833397, 0.0], [86.524919, 27.833397, 0.0], [86.525081, 27.83359, 0.0], [86.525394, 27.834059, 0.0], [86.525498, 27.834527, 0.0], [86.525812, 27.834903, 0.0], [86.526126, 27.835278, 0.0], [86.526546, 27.83556, 0.0], [86.526966, 27.835842, 0.0], [86.527491, 27.836031, 0.0], [86.528017, 27.83622, 0.0], [86.52838, 27.836351, 0.0], [86.528556, 27.836698, 0.0], [86.52868, 27.837147, 0.0], [86.528763, 27.837596, 0.0], [86.528845, 27.838045, 0.0], [86.52918, 27.838421, 0.0], [86.529388, 27.83887, 0.0], [86.529554, 27.839319, 0.0], [86.529847, 27.839844, 0.0], [86.530139, 27.840256, 0.0], [86.530348, 27.840668, 0.0], [86.530598, 27.84108, 0.0], [86.53068, 27.841641, 0.0], [86.530847, 27.842091, 0.0], [86.530929, 27.84254, 0.0], [86.531095, 27.842989, 0.0], [86.531177, 27.843475, 0.0], [86.531301, 27.843999, 0.0], [86.53151, 27.844411, 0.0], [86.531616, 27.844641, 0.0], [86.531614, 27.845023, 0.0], [86.531788, 27.845453, 0.0], [86.531786, 27.845922, 0.0], [86.531784, 27.846391, 0.0], [86.531837, 27.846644, 0.0], [86.531836, 27.846731, 0.0], [86.531803, 27.847126, 0.0], [86.53156, 27.847367, 0.0], [86.531032, 27.847482, 0.0], [86.53055, 27.847324, 0.0], [86.530155, 27.84701, 0.0], [86.530029, 27.846848, 0.0], [86.530071, 27.846388, 0.0], [86.529947, 27.845939, 0.0], [86.529527, 27.845639, 0.0], [86.529108, 27.845338, 0.0], [86.528684, 27.845148, 0.0], [86.528626, 27.845052, 0.0], [86.528408, 27.844621, 0.0], [86.528102, 27.84423, 0.0], [86.52762, 27.843915, 0.0], [86.527225, 27.843602, 0.0], [86.526831, 27.843288, 0.0], [86.526393, 27.843052, 0.0], [86.525954, 27.842816, 0.0], [86.525472, 27.84258, 0.0], [86.525089, 27.84255, 0.0], [86.524748, 27.842851, 0.0], [86.524224, 27.842916, 0.0], [86.523626, 27.84298, 0.0], [86.523102, 27.843111, 0.0], [86.522429, 27.843109, 0.0], [86.52209, 27.843108, 0.0], [86.521953, 27.84331, 0.0], [86.521468, 27.843543, 0.0], [86.521115, 27.843893, 0.0], [86.521037, 27.843889, 0.0], [86.52049, 27.843887, 0.0], [86.52013, 27.843752, 0.0], [86.520107, 27.843766, 0.0], [86.519583, 27.843963, 0.0], [86.519357, 27.844428, 0.0], [86.519056, 27.844826, 0.0], [86.518829, 27.84529, 0.0], [86.518752, 27.845755, 0.0], [86.51875, 27.846221, 0.0], [86.518674, 27.846686, 0.0], [86.518522, 27.84715, 0.0], [86.518445, 27.847615, 0.0], [86.518368, 27.848147, 0.0], [86.518333, 27.848253, 0.0], [86.51865, 27.848098, 0.0], [86.519051, 27.8477, 0.0], [86.519353, 27.847301, 0.0], [86.519554, 27.846858, 0.0], [86.519561, 27.846793, 0.0], [86.519762, 27.846764, 0.0], [86.520268, 27.846616, 0.0], [86.520595, 27.846569, 0.0], [86.520751, 27.846744, 0.0], [86.520881, 27.847213, 0.0], [86.520879, 27.847682, 0.0], [86.520569, 27.848071, 0.0], [86.520348, 27.8485, 0.0], [86.520346, 27.848969, 0.0], [86.520342, 27.849672, 0.0], [86.52056, 27.850103, 0.0], [86.520734, 27.850533, 0.0], [86.520996, 27.850925, 0.0], [86.521258, 27.851316, 0.0], [86.521608, 27.851669, 0.0], [86.521958, 27.852022, 0.0], [86.522036, 27.852045, 0.0], [86.522203, 27.852397, 0.0], [86.522597, 27.852749, 0.0], [86.523069, 27.853102, 0.0], [86.523146, 27.853593, 0.0], [86.523301, 27.854085, 0.0], [86.523457, 27.854647, 0.0], [86.523692, 27.855069, 0.0], [86.524244, 27.855211, 0.0], [86.524798, 27.855003, 0.0], [86.525352, 27.854794, 0.0], [86.525826, 27.854585, 0.0], [86.526381, 27.854236, 0.0], [86.526934, 27.854098, 0.0], [86.527409, 27.853889, 0.0], [86.527884, 27.85368, 0.0], [86.528358, 27.853471, 0.0], [86.528805, 27.853189, 0.0], [86.529206, 27.853102, 0.0], [86.529734, 27.852947, 0.0], [86.530263, 27.852715, 0.0], [86.53079, 27.852677, 0.0], [86.531318, 27.852562, 0.0], [86.531846, 27.852486, 0.0], [86.531963, 27.852443, 0.0], [86.53181, 27.852913, 0.0], [86.531658, 27.853378, 0.0], [86.531656, 27.853843, 0.0], [86.531504, 27.854375, 0.0], [86.531352, 27.854906, 0.0], [86.531201, 27.855371, 0.0], [86.531199, 27.855836, 0.0], [86.531197, 27.856301, 0.0], [86.531195, 27.856767, 0.0], [86.531268, 27.857232, 0.0], [86.531415, 27.857698, 0.0], [86.531638, 27.858164, 0.0], [86.531785, 27.85863, 0.0], [86.532007, 27.859096, 0.0], [86.532305, 27.859496, 0.0], [86.532453, 27.859962, 0.0], [86.532473, 27.860025, 0.0], [86.532603, 27.860497, 0.0], [86.532689, 27.860966, 0.0], [86.532643, 27.861435, 0.0], [86.532465, 27.861903, 0.0], [86.532331, 27.862371, 0.0], [86.532285, 27.862918, 0.0], [86.532151, 27.863386, 0.0], [86.532105, 27.863855, 0.0], [86.532015, 27.864323, 0.0], [86.531881, 27.864792, 0.0], [86.531879, 27.8653, 0.0], [86.531877, 27.865768, 0.0], [86.53183, 27.866471, 0.0], [86.531914, 27.867292, 0.0], [86.531955, 27.867996, 0.0], [86.532041, 27.868465, 0.0], [86.532039, 27.868933, 0.0], [86.532037, 27.869441, 0.0], [86.532079, 27.86991, 0.0], [86.532121, 27.870379, 0.0], [86.532119, 27.870848, 0.0], [86.532117, 27.871317, 0.0], [86.532071, 27.871785, 0.0], [86.532025, 27.872254, 0.0], [86.531998, 27.872394, 0.0], [86.531824, 27.872738, 0.0], [86.531585, 27.873263, 0.0], [86.531287, 27.873631, 0.0], [86.531108, 27.874104, 0.0], [86.531053, 27.87453, 0.0], [86.530784, 27.874672, 0.0], [86.530606, 27.875101, 0.0], [86.530604, 27.87557, 0.0], [86.530646, 27.876039, 0.0], [86.530336, 27.876428, 0.0], [86.529939, 27.87674, 0.0], [86.529499, 27.877012, 0.0], [86.528971, 27.877088, 0.0], [86.528443, 27.877086, 0.0], [86.528076, 27.877085, 0.0], [86.527958, 27.876919, 0.0], [86.527665, 27.876544, 0.0], [86.527288, 27.876131, 0.0], [86.526911, 27.875793, 0.0], [86.526534, 27.875455, 0.0], [86.526241, 27.875043, 0.0], [86.525864, 27.874705, 0.0], [86.525532, 27.874375, 0.0], [86.525534, 27.873932, 0.0], [86.525536, 27.873408, 0.0], [86.525538, 27.872922, 0.0], [86.525538, 27.872866, 0.0], [86.52554, 27.872436, 0.0], [86.525541, 27.87226, 0.0], [86.525637, 27.872227, 0.0], [86.525889, 27.871784, 0.0], [86.525941, 27.871296, 0.0], [86.525893, 27.870807, 0.0], [86.525545, 27.870451, 0.0], [86.525096, 27.870183, 0.0], [86.524698, 27.869871, 0.0], [86.5243, 27.869514, 0.0], [86.5238, 27.869646, 0.0], [86.523548, 27.870044, 0.0], [86.523048, 27.870131, 0.0], [86.522548, 27.870307, 0.0], [86.522147, 27.870617, 0.0], [86.521796, 27.871015, 0.0], [86.521494, 27.871413, 0.0], [86.521342, 27.871857, 0.0], [86.521109, 27.87197, 0.0], [86.520555, 27.872108, 0.0], [86.520003, 27.872036, 0.0], [86.519609, 27.871684, 0.0], [86.519135, 27.871893, 0.0], [86.519132, 27.872384, 0.0], [86.518972, 27.872875, 0.0], [86.51874, 27.873182, 0.0], [86.518401, 27.872879, 0.0], [86.517849, 27.872807, 0.0], [86.517531, 27.873227, 0.0], [86.516978, 27.873225, 0.0], [86.516425, 27.873223, 0.0], [86.516029, 27.873572, 0.0], [86.516026, 27.874064, 0.0], [86.516101, 27.874164, 0.0], [86.516019, 27.874297, 0.0], [86.515933, 27.874746, 0.0], [86.515931, 27.875232, 0.0], [86.515928, 27.875718, 0.0], [86.515884, 27.876204, 0.0], [86.515867, 27.87639, 0.0], [86.515715, 27.876315, 0.0], [86.515622, 27.876231, 0.0], [86.515621, 27.876379, 0.0], [86.515619, 27.87694, 0.0], [86.515618, 27.877102, 0.0], [86.515765, 27.87708, 0.0], [86.515754, 27.877138, 0.0], [86.515794, 27.877624, 0.0], [86.515875, 27.877814, 0.0], [86.515772, 27.877923, 0.0], [86.515613, 27.878133, 0.0], [86.515454, 27.878343, 0.0], [86.515452, 27.878835, 0.0], [86.515608, 27.879326, 0.0], [86.51608, 27.879679, 0.0], [86.516553, 27.879891, 0.0], [86.516795, 27.879923, 0.0], [86.517043, 27.880172, 0.0], [86.517525, 27.880369, 0.0], [86.517743, 27.8808, 0.0], [86.517917, 27.88123, 0.0], [86.517915, 27.881699, 0.0], [86.517869, 27.882167, 0.0], [86.517823, 27.882636, 0.0], [86.517776, 27.8833, 0.0], [86.517116, 27.883454, 0.0], [86.516588, 27.883452, 0.0], [86.516142, 27.883517, 0.0], [86.516142, 27.883469, 0.0], [86.515987, 27.882978, 0.0], [86.515831, 27.882486, 0.0], [86.515358, 27.882274, 0.0], [86.51504, 27.882694, 0.0], [86.514644, 27.883043, 0.0], [86.514169, 27.883252, 0.0], [86.513851, 27.883672, 0.0], [86.51377, 27.884163, 0.0], [86.513783, 27.884262, 0.0], [86.513683, 27.88434, 0.0], [86.513286, 27.884652, 0.0], [86.512845, 27.884923, 0.0], [86.512579, 27.885313, 0.0], [86.512313, 27.885742, 0.0], [86.51196, 27.886092, 0.0], [86.511891, 27.886146, 0.0], [86.511891, 27.886703, 0.0], [86.511923, 27.886735, 0.0], [86.511855, 27.886842, 0.0], [86.511854, 27.887127, 0.0], [86.515004, 27.888571, 0.0], [86.515108, 27.888525, 0.0], [86.515347, 27.888105, 0.0], [86.515408, 27.887631, 0.0], [86.51541, 27.887158, 0.0], [86.515394, 27.887021, 0.0], [86.515353, 27.886684, 0.0], [86.515887, 27.886528, 0.0], [86.51636, 27.88674, 0.0], [86.516378, 27.886888, 0.0], [86.51688, 27.887086, 0.0], [86.517318, 27.887361, 0.0], [86.517668, 27.88744, 0.0], [86.51777, 27.88754, 0.0], [86.518147, 27.887878, 0.0], [86.518609, 27.888142, 0.0], [86.51907, 27.888442, 0.0], [86.519575, 27.888594, 0.0], [86.520164, 27.888596, 0.0], [86.520628, 27.888373, 0.0], [86.520875, 27.888155, 0.0], [86.521317, 27.887922, 0.0], [86.521802, 27.88769, 0.0], [86.522286, 27.887535, 0.0], [86.522596, 27.887145, 0.0], [86.522949, 27.886795, 0.0], [86.523346, 27.886484, 0.0], [86.523919, 27.886251, 0.0], [86.52436, 27.88594, 0.0], [86.524625, 27.885551, 0.0], [86.525023, 27.885161, 0.0], [86.525463, 27.884928, 0.0], [86.525904, 27.884656, 0.0], [86.526345, 27.884424, 0.0], [86.526566, 27.884353, 0.0], [86.527084, 27.884319, 0.0], [86.527631, 27.884321, 0.0], [86.528221, 27.884323, 0.0], [86.528894, 27.884326, 0.0], [86.529441, 27.884327, 0.0], [86.529988, 27.884329, 0.0], [86.530535, 27.884331, 0.0], [86.531124, 27.884371, 0.0], [86.531671, 27.884372, 0.0], [86.532302, 27.884375, 0.0], [86.532849, 27.884414, 0.0], [86.533354, 27.884528, 0.0], [86.533859, 27.884604, 0.0], [86.534405, 27.884756, 0.0], [86.534952, 27.884758, 0.0], [86.535532, 27.884759, 0.0], [86.53584, 27.884925, 0.0], [86.53619, 27.885277, 0.0], [86.536584, 27.885591, 0.0], [86.536979, 27.885905, 0.0], [86.537108, 27.886413, 0.0], [86.537238, 27.886922, 0.0], [86.537412, 27.887352, 0.0], [86.537542, 27.887821, 0.0], [86.537672, 27.888291, 0.0], [86.53767, 27.888759, 0.0], [86.537712, 27.889228, 0.0], [86.537753, 27.889854, 0.0], [86.537619, 27.890322, 0.0], [86.537092, 27.890359, 0.0], [86.536609, 27.890162, 0.0], [86.53617, 27.889887, 0.0], [86.535643, 27.88969, 0.0], [86.535116, 27.889649, 0.0], [86.535084, 27.889642, 0.0], [86.534806, 27.889506, 0.0], [86.534301, 27.88928, 0.0], [86.533797, 27.889129, 0.0], [86.533443, 27.888955, 0.0], [86.533418, 27.888934, 0.0], [86.533263, 27.888442, 0.0], [86.532869, 27.888089, 0.0], [86.532396, 27.887807, 0.0], [86.531844, 27.887665, 0.0], [86.531291, 27.887663, 0.0], [86.530737, 27.887801, 0.0], [86.530185, 27.8878, 0.0], [86.529632, 27.887798, 0.0], [86.529079, 27.887796, 0.0], [86.528526, 27.887794, 0.0], [86.527973, 27.887792, 0.0], [86.52742, 27.88779, 0.0], [86.526867, 27.887788, 0.0], [86.526313, 27.887927, 0.0], [86.525838, 27.888136, 0.0], [86.525363, 27.888415, 0.0], [86.52514, 27.888758, 0.0], [86.525051, 27.888795, 0.0], [86.52461, 27.889067, 0.0], [86.524257, 27.889417, 0.0], [86.523859, 27.889728, 0.0], [86.523419, 27.889961, 0.0], [86.523204, 27.890174, 0.0], [86.523065, 27.890091, 0.0], [86.522433, 27.890019, 0.0], [86.52188, 27.890017, 0.0], [86.521327, 27.890085, 0.0], [86.520695, 27.890153, 0.0], [86.520141, 27.890222, 0.0], [86.519588, 27.89029, 0.0], [86.518956, 27.890288, 0.0], [86.518403, 27.890356, 0.0], [86.517849, 27.890494, 0.0], [86.517531, 27.890914, 0.0], [86.517434, 27.891211, 0.0], [86.517266, 27.891256, 0.0], [86.516781, 27.891541, 0.0], [86.516564, 27.89197, 0.0], [86.516508, 27.892447, 0.0], [86.516506, 27.892925, 0.0], [86.516503, 27.893403, 0.0], [86.516555, 27.893881, 0.0], [86.516553, 27.894358, 0.0], [86.516658, 27.894884, 0.0], [86.516818, 27.895315, 0.0], [86.516851, 27.895405, 0.0], [86.516851, 27.895435, 0.0], [86.516945, 27.895498, 0.0], [86.517471, 27.895687, 0.0], [86.517997, 27.895783, 0.0], [86.51836, 27.896027, 0.0], [86.518196, 27.895843, 0.0], [86.518029, 27.895394, 0.0], [86.517909, 27.895178, 0.0], [86.51799, 27.894758, 0.0], [86.518161, 27.894272, 0.0], [86.518457, 27.8939, 0.0], [86.518711, 27.893489, 0.0], [86.519217, 27.893341, 0.0], [86.519721, 27.89353, 0.0], [86.520183, 27.893831, 0.0], [86.520645, 27.894019, 0.0], [86.52115, 27.894133, 0.0], [86.521696, 27.894285, 0.0], [86.522201, 27.894399, 0.0], [86.522747, 27.894475, 0.0], [86.522805, 27.894484, 0.0], [86.522888, 27.894443, 0.0], [86.523441, 27.894444, 0.0], [86.524073, 27.894447, 0.0], [86.524626, 27.894449, 0.0], [86.525257, 27.894591, 0.0], [86.525808, 27.895014, 0.0], [86.525887, 27.89512, 0.0], [86.525885, 27.895576, 0.0], [86.525804, 27.896067, 0.0], [86.525723, 27.896558, 0.0], [86.525878, 27.89705, 0.0], [86.526149, 27.897171, 0.0], [86.52653, 27.896836, 0.0], [86.526877, 27.896749, 0.0], [86.526908, 27.896562, 0.0], [86.52691, 27.896071, 0.0], [86.526912, 27.895579, 0.0], [86.527029, 27.89534, 0.0], [86.527151, 27.895089, 0.0], [86.52763, 27.894848, 0.0], [86.527842, 27.894684, 0.0], [86.527845, 27.894206, 0.0], [86.527847, 27.893681, 0.0], [86.527795, 27.893203, 0.0], [86.527759, 27.892867, 0.0], [86.527893, 27.892399, 0.0], [86.527939, 27.89193, 0.0], [86.528073, 27.891462, 0.0], [86.528134, 27.891442, 0.0], [86.528567, 27.891766, 0.0], [86.529029, 27.891992, 0.0], [86.529491, 27.892255, 0.0], [86.529911, 27.892518, 0.0], [86.530415, 27.892669, 0.0], [86.531087, 27.892896, 0.0], [86.531254, 27.893345, 0.0], [86.531462, 27.893612, 0.0], [86.531361, 27.893739, 0.0], [86.531315, 27.894207, 0.0], [86.531753, 27.894482, 0.0], [86.532325, 27.894523, 0.0], [86.532808, 27.894681, 0.0], [86.532848, 27.894722, 0.0], [86.532888, 27.894996, 0.0], [86.533265, 27.895334, 0.0], [86.533558, 27.895709, 0.0], [86.533683, 27.896158, 0.0], [86.533976, 27.896533, 0.0], [86.534265, 27.896698, 0.0], [86.534392, 27.896904, 0.0], [86.534821, 27.897287, 0.0], [86.535142, 27.897718, 0.0], [86.535463, 27.898102, 0.0], [86.535784, 27.898485, 0.0], [86.536105, 27.898868, 0.0], [86.536394, 27.899257, 0.0], [86.536394, 27.899381, 0.0], [86.536523, 27.899851, 0.0], [86.536521, 27.900319, 0.0], [86.536563, 27.900788, 0.0], [86.536738, 27.901219, 0.0], [86.536867, 27.901688, 0.0], [86.536953, 27.902157, 0.0], [86.536873, 27.9022, 0.0], [86.536772, 27.902189, 0.0], [86.536225, 27.902112, 0.0], [86.53572, 27.901998, 0.0], [86.535173, 27.901922, 0.0], [86.534669, 27.90177, 0.0], [86.534463, 27.901741, 0.0], [86.534233, 27.90157, 0.0], [86.533761, 27.901288, 0.0], [86.533288, 27.901006, 0.0], [86.532815, 27.900794, 0.0], [86.532262, 27.900792, 0.0], [86.531709, 27.90072, 0.0], [86.531156, 27.900718, 0.0], [86.530603, 27.900716, 0.0], [86.53005, 27.900644, 0.0], [86.529497, 27.900572, 0.0], [86.528944, 27.90057, 0.0], [86.528391, 27.900568, 0.0], [86.527772, 27.900566, 0.0], [86.527771, 27.90087, 0.0], [86.527874, 27.901339, 0.0], [86.527978, 27.901807, 0.0], [86.528036, 27.902069, 0.0], [86.528148, 27.902041, 0.0], [86.528701, 27.901973, 0.0], [86.529333, 27.901975, 0.0], [86.529966, 27.901837, 0.0], [86.530598, 27.901839, 0.0], [86.53115, 27.901981, 0.0], [86.531703, 27.902053, 0.0], [86.531743, 27.902077, 0.0], [86.531721, 27.902097, 0.0], [86.531425, 27.90247, 0.0], [86.531255, 27.902918, 0.0], [86.531253, 27.903404, 0.0], [86.531335, 27.90389, 0.0], [86.531459, 27.90434, 0.0], [86.53171, 27.904752, 0.0], [86.532003, 27.905127, 0.0], [86.532549, 27.905353, 0.0], [86.533222, 27.905467, 0.0], [86.533425, 27.905516, 0.0], [86.533509, 27.905622, 0.0], [86.533947, 27.905858, 0.0], [86.53443, 27.906055, 0.0], [86.534869, 27.906291, 0.0], [86.535396, 27.90641, 0.0], [86.535923, 27.906529, 0.0], [86.536451, 27.906531, 0.0], [86.536979, 27.906532, 0.0], [86.537506, 27.906612, 0.0], [86.537989, 27.90677, 0.0], [86.538251, 27.907162, 0.0], [86.538249, 27.907631, 0.0], [86.538159, 27.908099, 0.0], [86.537982, 27.908528, 0.0], [86.537848, 27.908997, 0.0], [86.53767, 27.909465, 0.0], [86.537312, 27.909686, 0.0], [86.537243, 27.910043, 0.0], [86.536839, 27.909812, 0.0], [86.536781, 27.90978, 0.0], [86.536573, 27.909368, 0.0], [86.536322, 27.908955, 0.0], [86.536113, 27.908469, 0.0], [86.535863, 27.908056, 0.0], [86.535358, 27.90798, 0.0], [86.534853, 27.907903, 0.0], [86.534264, 27.907827, 0.0], [86.53376, 27.907713, 0.0], [86.533212, 27.907711, 0.0], [86.532793, 27.907448, 0.0], [86.532584, 27.907036, 0.0], [86.532122, 27.90681, 0.0], [86.531575, 27.906658, 0.0], [86.531113, 27.90647, 0.0], [86.530651, 27.906281, 0.0], [86.530189, 27.906055, 0.0], [86.529646, 27.905756, 0.0], [86.529645, 27.90593, 0.0], [86.529643, 27.906398, 0.0], [86.529641, 27.906866, 0.0], [86.529639, 27.907334, 0.0], [86.529532, 27.907802, 0.0], [86.529424, 27.908363, 0.0], [86.529211, 27.90883, 0.0], [86.528999, 27.909297, 0.0], [86.528891, 27.909765, 0.0], [86.528574, 27.910138, 0.0], [86.528361, 27.910605, 0.0], [86.528148, 27.911072, 0.0], [86.528146, 27.91154, 0.0], [86.528223, 27.911887, 0.0], [86.528359, 27.911978, 0.0], [86.528745, 27.912048, 0.0], [86.528896, 27.912076, 0.0], [86.529434, 27.912173, 0.0], [86.529862, 27.912461, 0.0], [86.530003, 27.912587, 0.0], [86.53007, 27.912623, 0.0], [86.530087, 27.9127, 0.0], [86.530401, 27.913169, 0.0], [86.530716, 27.913545, 0.0], [86.531136, 27.913827, 0.0], [86.531556, 27.914203, 0.0], [86.531885, 27.914321, 0.0], [86.531932, 27.914368, 0.0], [86.53237, 27.914682, 0.0], [86.532634, 27.914741, 0.0], [86.532754, 27.914831, 0.0], [86.533227, 27.915184, 0.0], [86.533858, 27.915396, 0.0], [86.53449, 27.915399, 0.0], [86.535043, 27.9154, 0.0], [86.535596, 27.915402, 0.0], [86.536229, 27.915404, 0.0], [86.536782, 27.915336, 0.0], [86.537335, 27.915338, 0.0], [86.537888, 27.91527, 0.0], [86.538442, 27.915201, 0.0], [86.538996, 27.915063, 0.0], [86.539549, 27.914924, 0.0], [86.540103, 27.914856, 0.0], [86.540655, 27.914928, 0.0], [86.541208, 27.915, 0.0], [86.541294, 27.915039, 0.0], [86.541559, 27.915377, 0.0], [86.541689, 27.915846, 0.0], [86.541775, 27.916315, 0.0], [86.541597, 27.916744, 0.0], [86.541069, 27.916821, 0.0], [86.540497, 27.916819, 0.0], [86.53997, 27.916778, 0.0], [86.539442, 27.916854, 0.0], [86.538913, 27.91697, 0.0], [86.538429, 27.917164, 0.0], [86.537854, 27.917904, 0.0], [86.537236, 27.918449, 0.0], [86.537234, 27.918918, 0.0], [86.537188, 27.919386, 0.0], [86.5372, 27.919434, 0.0], [86.536769, 27.919602, 0.0], [86.536231, 27.919744, 0.0], [86.535944, 27.919743, 0.0], [86.53556, 27.919685, 0.0], [86.535056, 27.919533, 0.0], [86.534552, 27.919345, 0.0], [86.53409, 27.919081, 0.0], [86.534029, 27.918972, 0.0], [86.533816, 27.918541, 0.0], [86.533441, 27.918206, 0.0], [86.533012, 27.91787, 0.0], [86.532529, 27.917677, 0.0], [86.532046, 27.917389, 0.0], [86.531563, 27.917101, 0.0], [86.53108, 27.916908, 0.0], [86.530713, 27.916579, 0.0], [86.530455, 27.916578, 0.0], [86.529823, 27.916576, 0.0], [86.52927, 27.916574, 0.0], [86.528866, 27.916573, 0.0], [86.528771, 27.916424, 0.0], [86.528651, 27.916689, 0.0], [86.528649, 27.917157, 0.0], [86.528647, 27.917625, 0.0], [86.528749, 27.918187, 0.0], [86.528958, 27.918656, 0.0], [86.529061, 27.919124, 0.0], [86.529165, 27.919592, 0.0], [86.528847, 27.919965, 0.0], [86.528754, 27.920047, 0.0], [86.528753, 27.920339, 0.0], [86.528708, 27.920458, 0.0], [86.529095, 27.920574, 0.0], [86.529568, 27.920857, 0.0], [86.529803, 27.921279, 0.0], [86.529485, 27.921699, 0.0], [86.528932, 27.921697, 0.0], [86.528379, 27.921695, 0.0], [86.527825, 27.921693, 0.0], [86.527413, 27.921744, 0.0], [86.527258, 27.921925, 0.0], [86.527045, 27.922392, 0.0], [86.526833, 27.92286, 0.0], [86.526515, 27.923233, 0.0], [86.52631, 27.923683, 0.0], [86.526318, 27.923723, 0.0], [86.526801, 27.923867, 0.0], [86.527339, 27.923822, 0.0], [86.527877, 27.923776, 0.0], [86.528362, 27.923634, 0.0], [86.528403, 27.923631, 0.0], [86.528529, 27.92352, 0.0], [86.529084, 27.923101, 0.0], [86.529557, 27.923313, 0.0], [86.529792, 27.923735, 0.0], [86.529948, 27.924227, 0.0], [86.529978, 27.924421, 0.0], [86.530025, 27.924719, 0.0], [86.530023, 27.92521, 0.0], [86.530202, 27.92553, 0.0], [86.530235, 27.925838, 0.0], [86.530256, 27.926031, 0.0], [86.530177, 27.926193, 0.0], [86.529937, 27.926754, 0.0], [86.529777, 27.927245, 0.0], [86.529617, 27.927735, 0.0], [86.529378, 27.928156, 0.0], [86.529218, 27.928646, 0.0], [86.529215, 27.929208, 0.0], [86.529213, 27.929699, 0.0], [86.529211, 27.930191, 0.0], [86.529209, 27.930682, 0.0], [86.529286, 27.931244, 0.0], [86.529375, 27.931527, 0.0], [86.529262, 27.931626, 0.0], [86.528777, 27.93182, 0.0], [86.528249, 27.931935, 0.0], [86.527727, 27.932005, 0.0], [86.527727, 27.93277, 0.0], [86.527805, 27.932832, 0.0], [86.528244, 27.933107, 0.0], [86.528504, 27.933495, 0.0], [86.528406, 27.933697, 0.0], [86.528324, 27.934188, 0.0], [86.528243, 27.934679, 0.0], [86.528241, 27.935171, 0.0], [86.528239, 27.935662, 0.0], [86.528395, 27.936154, 0.0], [86.528472, 27.936645, 0.0], [86.528628, 27.937137, 0.0], [86.528705, 27.937629, 0.0], [86.528702, 27.93812, 0.0], [86.5287, 27.938611, 0.0], [86.528619, 27.939102, 0.0], [86.52838, 27.939523, 0.0], [86.527984, 27.939872, 0.0], [86.527587, 27.940222, 0.0], [86.527822, 27.940644, 0.0], [86.528375, 27.940646, 0.0], [86.528929, 27.940648, 0.0], [86.529482, 27.94065, 0.0], [86.529751, 27.94077, 0.0], [86.529969, 27.9412, 0.0], [86.530098, 27.941669, 0.0], [86.530244, 27.942028, 0.0], [86.531538, 27.942028, 0.0], [86.531882, 27.941775, 0.0], [86.532333, 27.941445, 0.0], [86.532709, 27.941047, 0.0], [86.533085, 27.940716, 0.0], [86.533386, 27.940318, 0.0], [86.533687, 27.93992, 0.0], [86.534063, 27.939523, 0.0], [86.534364, 27.939125, 0.0], [86.534441, 27.93866, 0.0], [86.534816, 27.938329, 0.0], [86.535341, 27.938131, 0.0], [86.535801, 27.938016, 0.0], [86.535785, 27.937868, 0.0], [86.535777, 27.937799, 0.0], [86.536155, 27.937466, 0.0], [86.53664, 27.937324, 0.0], [86.537124, 27.937182, 0.0], [86.537166, 27.937183, 0.0], [86.537312, 27.937036, 0.0], [86.538146, 27.937036, 0.0], [86.538562, 27.93662, 0.0], [86.538979, 27.936204, 0.0], [86.538834, 27.935761, 0.0], [86.538792, 27.935292, 0.0], [86.538794, 27.934784, 0.0], [86.538796, 27.934315, 0.0], [86.538842, 27.933846, 0.0], [86.538888, 27.933378, 0.0], [86.539022, 27.932909, 0.0], [86.539199, 27.93248, 0.0], [86.539377, 27.932051, 0.0], [86.539555, 27.931583, 0.0], [86.539821, 27.931193, 0.0], [86.539839, 27.931157, 0.0], [86.540109, 27.930988, 0.0], [86.540511, 27.930811, 0.0], [86.540555, 27.930834, 0.0], [86.543748, 27.926451, 0.0], [86.543918, 27.926004, 0.0], [86.544088, 27.925558, 0.0], [86.544425, 27.925186, 0.0], [86.544762, 27.924815, 0.0], [86.545015, 27.924369, 0.0], [86.545352, 27.923997, 0.0], [86.54569, 27.923626, 0.0], [86.545943, 27.92318, 0.0], [86.546197, 27.922733, 0.0], [86.546534, 27.922213, 0.0], [86.546871, 27.921841, 0.0], [86.547125, 27.921395, 0.0], [86.547546, 27.921098, 0.0], [86.547967, 27.920727, 0.0], [86.548304, 27.920356, 0.0], [86.548641, 27.919984, 0.0], [86.548978, 27.919538, 0.0], [86.549315, 27.919167, 0.0], [86.549819, 27.91902, 0.0], [86.550323, 27.918872, 0.0], [86.550827, 27.918799, 0.0], [86.551414, 27.918801, 0.0], [86.552085, 27.918803, 0.0], [86.552672, 27.918805, 0.0], [86.552812, 27.918806, 0.0], [86.552825, 27.918758, 0.0], [86.553361, 27.91876, 0.0], [86.553915, 27.918692, 0.0], [86.554468, 27.918693, 0.0], [86.555021, 27.918695, 0.0], [86.555653, 27.918697, 0.0], [86.555772, 27.918682, 0.0], [86.555772, 27.918716, 0.0], [86.55577, 27.91919, 0.0], [86.55559, 27.919663, 0.0], [86.555351, 27.920136, 0.0], [86.555408, 27.92061, 0.0], [86.555942, 27.920559, 0.0], [86.55624, 27.920139, 0.0], [86.556656, 27.919877, 0.0], [86.557072, 27.919615, 0.0], [86.557547, 27.919406, 0.0], [86.557973, 27.919172, 0.0], [86.558022, 27.919145, 0.0], [86.558514, 27.919049, 0.0], [86.558556, 27.919041, 0.0], [86.55909, 27.918938, 0.0], [86.559388, 27.91857, 0.0], [86.559511, 27.918353, 0.0], [86.559626, 27.91815, 0.0], [86.559887, 27.917828, 0.0], [86.559911, 27.917798, 0.0], [86.56024, 27.917799, 0.0], [86.560715, 27.91752, 0.0], [86.56119, 27.917241, 0.0], [86.561666, 27.916892, 0.0], [86.561589, 27.9164, 0.0], [86.561035, 27.916468, 0.0], [86.560562, 27.916186, 0.0], [86.56088, 27.915766, 0.0], [86.560961, 27.915275, 0.0], [86.560407, 27.915414, 0.0], [86.560011, 27.915763, 0.0], [86.559693, 27.916183, 0.0], [86.559311, 27.916182, 0.0], [86.559279, 27.916096, 0.0], [86.559162, 27.915621, 0.0], [86.558747, 27.915883, 0.0], [86.558574, 27.916188, 0.0], [86.558508, 27.916304, 0.0], [86.558092, 27.916566, 0.0], [86.557558, 27.916564, 0.0], [86.55762, 27.91609, 0.0], [86.557917, 27.915795, 0.0], [86.557899, 27.915643, 0.0], [86.557901, 27.91517, 0.0], [86.557487, 27.9148, 0.0], [86.556954, 27.914745, 0.0], [86.556421, 27.914691, 0.0], [86.555769, 27.914742, 0.0], [86.555732, 27.914756, 0.0], [86.555401, 27.914696, 0.0], [86.555443, 27.914594, 0.0], [86.555255, 27.914556, 0.0], [86.555139, 27.914082, 0.0], [86.555437, 27.913714, 0.0], [86.555912, 27.913505, 0.0], [86.555933, 27.913502, 0.0], [86.556212, 27.913354, 0.0], [86.556899, 27.913108, 0.0], [86.557352, 27.913026, 0.0], [86.557648, 27.912653, 0.0], [86.557944, 27.91228, 0.0], [86.558198, 27.911869, 0.0], [86.5582, 27.911383, 0.0], [86.557865, 27.911008, 0.0], [86.557318, 27.910969, 0.0], [86.557145, 27.910945, 0.0], [86.55695, 27.91077, 0.0], [86.556714, 27.910348, 0.0], [86.556479, 27.909926, 0.0], [86.556244, 27.909504, 0.0], [86.556177, 27.909082, 0.0], [86.55619, 27.908946, 0.0], [86.556214, 27.908674, 0.0], [86.556011, 27.90831, 0.0], [86.556643, 27.908383, 0.0], [86.557197, 27.908244, 0.0], [86.557672, 27.908035, 0.0], [86.55774, 27.907915, 0.0], [86.557276, 27.907583, 0.0], [86.556872, 27.907221, 0.0], [86.556518, 27.906814, 0.0], [86.556164, 27.906453, 0.0], [86.555709, 27.906226, 0.0], [86.555355, 27.905864, 0.0], [86.555154, 27.905368, 0.0], [86.555054, 27.904917, 0.0], [86.555056, 27.904421, 0.0], [86.55516, 27.90397, 0.0], [86.555178, 27.903891, 0.0], [86.554982, 27.903649, 0.0], [86.554907, 27.903557, 0.0], [86.554445, 27.903331, 0.0], [86.554395, 27.903357, 0.0], [86.554362, 27.902957, 0.0], [86.55428, 27.902508, 0.0], [86.554071, 27.902096, 0.0], [86.553778, 27.901721, 0.0], [86.553358, 27.901458, 0.0], [86.552896, 27.901232, 0.0], [86.552476, 27.900932, 0.0], [86.552099, 27.900594, 0.0], [86.551806, 27.900219, 0.0], [86.551387, 27.899807, 0.0], [86.55084, 27.899693, 0.0], [86.550376, 27.899953, 0.0], [86.549954, 27.900325, 0.0], [86.549573, 27.900661, 0.0], [86.549235, 27.901034, 0.0], [86.54908, 27.901108, 0.0], [86.548561, 27.901106, 0.0], [86.548014, 27.901067, 0.0], [86.54751, 27.900953, 0.0], [86.547217, 27.900578, 0.0], [86.547092, 27.900129, 0.0], [86.546968, 27.89968, 0.0], [86.546717, 27.899268, 0.0], [86.546508, 27.898856, 0.0], [86.5463, 27.898444, 0.0], [86.546175, 27.897995, 0.0], [86.546093, 27.897546, 0.0], [86.545969, 27.896984, 0.0], [86.545887, 27.896461, 0.0], [86.545847, 27.895974, 0.0], [86.545849, 27.895451, 0.0], [86.545851, 27.894965, 0.0], [86.545853, 27.894441, 0.0], [86.545856, 27.89388, 0.0], [86.545857, 27.893633, 0.0], [86.545917, 27.893319, 0.0], [86.546051, 27.89285, 0.0], [86.546715, 27.891759, 0.0], [86.546916, 27.891559, 0.0], [86.546918, 27.891155, 0.0], [86.54692, 27.890663, 0.0], [86.547001, 27.890102, 0.0], [86.547161, 27.889541, 0.0], [86.547479, 27.889121, 0.0], [86.547693, 27.889122, 0.0], [86.548032, 27.889123, 0.0], [86.548584, 27.889265, 0.0], [86.549057, 27.889617, 0.0], [86.54961, 27.889619, 0.0], [86.549819, 27.889527, 0.0], [86.549846, 27.889542, 0.0], [86.550374, 27.889544, 0.0], [86.550858, 27.88935, 0.0], [86.551255, 27.889039, 0.0], [86.551696, 27.888806, 0.0], [86.552137, 27.888534, 0.0], [86.552621, 27.888379, 0.0], [86.553018, 27.888068, 0.0], [86.553415, 27.887756, 0.0], [86.553943, 27.887719, 0.0], [86.554398, 27.887619, 0.0], [86.554398, 27.886316, 0.0], [86.5546, 27.886079, 0.0], [86.554709, 27.885602, 0.0], [86.554926, 27.885172, 0.0], [86.555143, 27.884743, 0.0], [86.555306, 27.884266, 0.0], [86.555415, 27.883789, 0.0], [86.555471, 27.883263, 0.0], [86.555485, 27.883197, 0.0], [86.555602, 27.883208, 0.0], [86.555647, 27.883174, 0.0], [86.555535, 27.883075, 0.0], [86.555086, 27.882753, 0.0], [86.554636, 27.882511, 0.0], [86.554186, 27.882269, 0.0], [86.553736, 27.882028, 0.0], [86.553467, 27.881626, 0.0], [86.553469, 27.881145, 0.0], [86.553561, 27.880665, 0.0], [86.553744, 27.880185, 0.0], [86.553836, 27.879704, 0.0], [86.554018, 27.879224, 0.0], [86.554157, 27.878858, 0.0]], [[86.553505, 27.903038, 0.0], [86.553819, 27.90346, 0.0], [86.554133, 27.903882, 0.0], [86.554222, 27.904041, 0.0], [86.553737, 27.904162, 0.0], [86.553262, 27.904371, 0.0], [86.552709, 27.904369, 0.0], [86.552474, 27.903947, 0.0], [86.552476, 27.903456, 0.0], [86.552557, 27.902965, 0.0], [86.553032, 27.902756, 0.0], [86.553505, 27.903038, 0.0]], [[86.552279, 27.907961, 0.0], [86.552193, 27.90841, 0.0], [86.552065, 27.908858, 0.0], [86.552012, 27.908811, 0.0], [86.55196, 27.909018, 0.0], [86.551544, 27.909332, 0.0], [86.55113, 27.909015, 0.0], [86.551132, 27.908541, 0.0], [86.551371, 27.908068, 0.0], [86.551669, 27.907648, 0.0], [86.551712, 27.907623, 0.0], [86.551734, 27.907511, 0.0], [86.551988, 27.9071, 0.0], [86.552032, 27.906614, 0.0], [86.552151, 27.906197, 0.0], [86.552152, 27.905895, 0.0], [86.552208, 27.905418, 0.0], [86.552318, 27.904941, 0.0], [86.552318, 27.904912, 0.0], [86.55246, 27.90497, 0.0], [86.552922, 27.905234, 0.0], [86.553347, 27.905441, 0.0], [86.553342, 27.905459, 0.0], [86.553298, 27.905945, 0.0], [86.55338, 27.906432, 0.0], [86.553419, 27.906977, 0.0], [86.553378, 27.906992, 0.0], [86.552871, 27.907215, 0.0], [86.552653, 27.907408, 0.0], [86.552491, 27.90755, 0.0], [86.552279, 27.907961, 0.0]], [[86.553591, 27.916528, 0.0], [86.553337, 27.916939, 0.0], [86.552956, 27.917274, 0.0], [86.552589, 27.91745, 0.0], [86.552451, 27.917459, 0.0], [86.551819, 27.917495, 0.0], [86.551277, 27.917493, 0.0], [86.551314, 27.917362, 0.0], [86.55158, 27.916934, 0.0], [86.552065, 27.916623, 0.0], [86.552462, 27.916311, 0.0], [86.552815, 27.915961, 0.0], [86.55311, 27.91594, 0.0], [86.553186, 27.915978, 0.0], [86.553562, 27.916314, 0.0], [86.553604, 27.916382, 0.0], [86.553591, 27.916528, 0.0]], [[86.51895, 27.873723, 0.0], [86.518878, 27.873495, 0.0], [86.519048, 27.873647, 0.0], [86.519601, 27.873579, 0.0], [86.520155, 27.873441, 0.0], [86.520551, 27.873091, 0.0], [86.520771, 27.872897, 0.0], [86.52077, 27.872957, 0.0], [86.520768, 27.873449, 0.0], [86.520978, 27.873826, 0.0], [86.520733, 27.873977, 0.0], [86.520311, 27.874237, 0.0], [86.520177, 27.874407, 0.0], [86.520099, 27.87461, 0.0], [86.519971, 27.875134, 0.0], [86.519549, 27.875394, 0.0], [86.519044, 27.875243, 0.0], [86.518583, 27.874942, 0.0], [86.51853, 27.874909, 0.0], [86.51863, 27.874705, 0.0], [86.51879, 27.874214, 0.0], [86.51895, 27.873723, 0.0]], [[86.519715, 27.844462, 0.0], [86.519789, 27.844244, 0.0], [86.519858, 27.844259, 0.0], [86.520108, 27.844671, 0.0], [86.520321, 27.844805, 0.0], [86.520231, 27.845023, 0.0], [86.520141, 27.845491, 0.0], [86.520099, 27.845919, 0.0], [86.519892, 27.845905, 0.0], [86.519559, 27.845882, 0.0], [86.519561, 27.845393, 0.0], [86.519613, 27.844905, 0.0], [86.519715, 27.844462, 0.0]], [[86.538867, 27.833518, 0.0], [86.538868, 27.833292, 0.0], [86.538633, 27.83287, 0.0], [86.538477, 27.832378, 0.0], [86.538321, 27.831886, 0.0], [86.538086, 27.831464, 0.0], [86.537974, 27.831262, 0.0], [86.537975, 27.830912, 0.0], [86.53774, 27.83049, 0.0], [86.537347, 27.830138, 0.0], [86.536874, 27.829926, 0.0], [86.536402, 27.829573, 0.0], [86.536008, 27.829221, 0.0], [86.535545, 27.828944, 0.0], [86.535538, 27.828912, 0.0], [86.535639, 27.828824, 0.0], [86.535992, 27.828473, 0.0], [86.536188, 27.82832, 0.0], [86.536368, 27.828294, 0.0], [86.536894, 27.828202, 0.0], [86.537317, 27.827923, 0.0], [86.538055, 27.827644, 0.0], [86.538477, 27.827365, 0.0], [86.538559, 27.827184, 0.0], [86.538619, 27.827317, 0.0], [86.538675, 27.827896, 0.0], [86.538681, 27.82792, 0.0], [86.538224, 27.828035, 0.0], [86.538064, 27.828526, 0.0], [86.538378, 27.828948, 0.0], [86.538851, 27.82916, 0.0], [86.539324, 27.829372, 0.0], [86.539876, 27.829444, 0.0], [86.540429, 27.829306, 0.0], [86.54059, 27.828745, 0.0], [86.540828, 27.828324, 0.0], [86.541146, 27.827904, 0.0], [86.541448, 27.827637, 0.0], [86.541417, 27.827825, 0.0], [86.541415, 27.828317, 0.0], [86.541492, 27.828808, 0.0], [86.54149, 27.829299, 0.0], [86.541409, 27.829791, 0.0], [86.540935, 27.83, 0.0], [86.540381, 27.830138, 0.0], [86.540064, 27.830558, 0.0], [86.540061, 27.83112, 0.0], [86.540059, 27.831611, 0.0], [86.539978, 27.832172, 0.0], [86.539739, 27.832663, 0.0], [86.5395, 27.833083, 0.0], [86.539407, 27.83341, 0.0], [86.539285, 27.833482, 0.0], [86.538867, 27.833518, 0.0]], [[86.535755, 27.822542, 0.0], [86.53552, 27.82212, 0.0], [86.535285, 27.821698, 0.0], [86.53505, 27.821276, 0.0], [86.534827, 27.82074, 0.0], [86.534945, 27.820353, 0.0], [86.534947, 27.819885, 0.0], [86.534949, 27.819416, 0.0], [86.534852, 27.818947, 0.0], [86.534726, 27.818843, 0.0], [86.534727, 27.818658, 0.0], [86.534729, 27.81818, 0.0], [86.534694, 27.817861, 0.0], [86.534715, 27.817846, 0.0], [86.535268, 27.817707, 0.0], [86.535821, 27.817639, 0.0], [86.536138, 27.817219, 0.0], [86.536061, 27.816727, 0.0], [86.535589, 27.816515, 0.0], [86.535116, 27.816303, 0.0], [86.534486, 27.816132, 0.0], [86.534225, 27.816247, 0.0], [86.533692, 27.816298, 0.0], [86.533219, 27.816033, 0.0], [86.533162, 27.815559, 0.0], [86.533189, 27.815351, 0.0], [86.533068, 27.815243, 0.0], [86.532444, 27.815241, 0.0], [86.532394, 27.815188, 0.0], [86.531981, 27.814923, 0.0], [86.531508, 27.814711, 0.0], [86.531273, 27.814237, 0.0], [86.531275, 27.81371, 0.0], [86.531277, 27.813282, 0.0], [86.531419, 27.813132, 0.0], [86.531815, 27.812782, 0.0], [86.531849, 27.81268, 0.0], [86.532167, 27.812493, 0.0], [86.532402, 27.812915, 0.0], [86.532637, 27.813337, 0.0], [86.53303, 27.813759, 0.0], [86.533423, 27.814111, 0.0], [86.533896, 27.814324, 0.0], [86.53437, 27.814044, 0.0], [86.534609, 27.813554, 0.0], [86.534732, 27.813775, 0.0], [86.535204, 27.814057, 0.0], [86.535757, 27.814059, 0.0], [86.53631, 27.814061, 0.0], [86.536706, 27.813711, 0.0], [86.537102, 27.813291, 0.0], [86.537577, 27.813082, 0.0], [86.538052, 27.812733, 0.0], [86.538526, 27.812524, 0.0], [86.53884, 27.812946, 0.0], [86.538759, 27.813507, 0.0], [86.538599, 27.813998, 0.0], [86.538518, 27.814489, 0.0], [86.538437, 27.81498, 0.0], [86.538517, 27.81527, 0.0], [86.538373, 27.815419, 0.0], [86.538312, 27.815892, 0.0], [86.53831, 27.816366, 0.0], [86.538308, 27.81684, 0.0], [86.538365, 27.817314, 0.0], [86.538422, 27.817788, 0.0], [86.538495, 27.818121, 0.0], [86.53842, 27.818209, 0.0], [86.538004, 27.818523, 0.0], [86.537589, 27.818785, 0.0], [86.537291, 27.819153, 0.0], [86.537384, 27.81925, 0.0], [86.537313, 27.819469, 0.0], [86.537311, 27.81996, 0.0], [86.537309, 27.820451, 0.0], [86.537308, 27.820643, 0.0], [86.537117, 27.821064, 0.0], [86.537082, 27.821533, 0.0], [86.537047, 27.822001, 0.0], [86.537045, 27.82247, 0.0], [86.537043, 27.822939, 0.0], [86.53681, 27.823348, 0.0], [86.536405, 27.823596, 0.0], [86.536304, 27.823386, 0.0], [86.536069, 27.822964, 0.0], [86.535755, 27.822542, 0.0]], [[86.530555, 27.815971, 0.0], [86.530671, 27.816446, 0.0], [86.530847, 27.81692, 0.0], [86.53126, 27.817237, 0.0], [86.531446, 27.817238, 0.0], [86.531455, 27.817262, 0.0], [86.531722, 27.817693, 0.0], [86.531827, 27.818171, 0.0], [86.531987, 27.818601, 0.0], [86.532092, 27.819079, 0.0], [86.53209, 27.819557, 0.0], [86.532088, 27.820035, 0.0], [86.532032, 27.820512, 0.0], [86.532031, 27.820686, 0.0], [86.53201, 27.820724, 0.0], [86.531861, 27.821005, 0.0], [86.531421, 27.821133, 0.0], [86.531335, 27.821184, 0.0], [86.531126, 27.820922, 0.0], [86.530713, 27.820605, 0.0], [86.530418, 27.820235, 0.0], [86.530305, 27.820031, 0.0], [86.530322, 27.819908, 0.0], [86.530291, 27.81941, 0.0], [86.529927, 27.8192, 0.0], [86.529928, 27.819153, 0.0], [86.52993, 27.818662, 0.0], [86.529932, 27.818171, 0.0], [86.529934, 27.817679, 0.0], [86.529936, 27.817188, 0.0], [86.529938, 27.816697, 0.0], [86.530098, 27.816206, 0.0], [86.5301, 27.815714, 0.0], [86.530556, 27.815832, 0.0], [86.530555, 27.815971, 0.0]], [[86.52898, 27.819218, 0.0], [86.528808, 27.819258, 0.0], [86.528282, 27.819169, 0.0], [86.527921, 27.818816, 0.0], [86.527644, 27.818769, 0.0], [86.527721, 27.818303, 0.0], [86.527854, 27.817896, 0.0], [86.527941, 27.817963, 0.0], [86.528474, 27.818017, 0.0], [86.528744, 27.818018, 0.0], [86.528904, 27.818518, 0.0], [86.528981, 27.81901, 0.0], [86.52898, 27.819218, 0.0]]]}}]}