{
  "type": "FeatureCollection",
  "features": [
    {
      "type": "Feature",
      "properties": {
        "site_id": "south-lhonak",
        "glacier_id": "RGI2000-v7.0-G-15-07986",
        "observation_date": "2016-10-15",
        "area_km2": 14.26,
        "area_2016_km2": 14.26,
        "scale_factor": 1.0,
        "source": "Phase 2 GeoAI derived boundary (versioned, reviewed) \u2014 scaled from RGI 2000 baseline by measured area change; confidence + image-quality documented in measurements.ts",
        "source_id": "phase-2-geoai-v1.0",
        "processing_version": "phase-2-retreat-v1.0",
        "crs": "EPSG:4326",
        "status": "approved",
        "boundary_asset": "data/derived/phase2/boundaries/south-lhonak/2016-10-15.geojson"
      },
      "geometry": {
        "type": "Polygon",
        "coordinates": [
          [
            [
              88.134624,
              27.881947,
              0.0
            ],
            [
              88.134776,
              27.882275,
              0.0
            ],
            [
              88.135136,
              27.882796,
              0.0
            ],
            [
              88.135494,
              27.883212,
              0.0
            ],
            [
              88.135735,
              27.883734,
              0.0
            ],
            [
              88.136093,
              27.884151,
              0.0
            ],
            [
              88.136333,
              27.884568,
              0.0
            ],
            [
              88.136574,
              27.884985,
              0.0
            ],
            [
              88.136814,
              27.885402,
              0.0
            ],
            [
              88.136701,
              27.885927,
              0.0
            ],
            [
              88.136707,
              27.886451,
              0.0
            ],
            [
              88.136475,
              27.886872,
              0.0
            ],
            [
              88.136363,
              27.887397,
              0.0
            ],
            [
              88.136131,
              27.887818,
              0.0
            ],
            [
              88.136019,
              27.888343,
              0.0
            ],
            [
              88.136024,
              27.888867,
              0.0
            ],
            [
              88.135912,
              27.889391,
              0.0
            ],
            [
              88.135917,
              27.889915,
              0.0
            ],
            [
              88.135686,
              27.890336,
              0.0
            ],
            [
              88.135573,
              27.890861,
              0.0
            ],
            [
              88.135342,
              27.891282,
              0.0
            ],
            [
              88.135112,
              27.891808,
              0.0
            ],
            [
              88.134999,
              27.892333,
              0.0
            ],
            [
              88.134887,
              27.892858,
              0.0
            ],
            [
              88.134656,
              27.893384,
              0.0
            ],
            [
              88.134426,
              27.893909,
              0.0
            ],
            [
              88.134194,
              27.894331,
              0.0
            ],
            [
              88.133963,
              27.894752,
              0.0
            ],
            [
              88.133613,
              27.895174,
              0.0
            ],
            [
              88.133501,
              27.895698,
              0.0
            ],
            [
              88.133152,
              27.89612,
              0.0
            ],
            [
              88.13292,
              27.896542,
              0.0
            ],
            [
              88.132689,
              27.896963,
              0.0
            ],
            [
              88.132457,
              27.897384,
              0.0
            ],
            [
              88.132227,
              27.897909,
              0.0
            ],
            [
              88.131758,
              27.898228,
              0.0
            ],
            [
              88.131291,
              27.898651,
              0.0
            ],
            [
              88.130823,
              27.899074,
              0.0
            ],
            [
              88.130356,
              27.899497,
              0.0
            ],
            [
              88.129886,
              27.89971,
              0.0
            ],
            [
              88.129537,
              27.900132,
              0.0
            ],
            [
              88.129187,
              27.900554,
              0.0
            ],
            [
              88.128956,
              27.900975,
              0.0
            ],
            [
              88.128853,
              27.901068,
              0.0
            ],
            [
              88.128869,
              27.901226,
              0.0
            ],
            [
              88.128934,
              27.901796,
              0.0
            ],
            [
              88.128998,
              27.902418,
              0.0
            ],
            [
              88.129003,
              27.902885,
              0.0
            ],
            [
              88.129009,
              27.903404,
              0.0
            ],
            [
              88.128897,
              27.903872,
              0.0
            ],
            [
              88.128787,
              27.904548,
              0.0
            ],
            [
              88.128792,
              27.905015,
              0.0
            ],
            [
              88.128913,
              27.905481,
              0.0
            ],
            [
              88.12921,
              27.905893,
              0.0
            ],
            [
              88.12939,
              27.906359,
              0.0
            ],
            [
              88.129803,
              27.906771,
              0.0
            ],
            [
              88.130215,
              27.907079,
              0.0
            ],
            [
              88.130511,
              27.907491,
              0.0
            ],
            [
              88.131098,
              27.907746,
              0.0
            ],
            [
              88.131568,
              27.90795,
              0.0
            ],
            [
              88.132153,
              27.908049,
              0.0
            ],
            [
              88.132647,
              27.908124,
              0.0
            ],
            [
              88.132911,
              27.908421,
              0.0
            ],
            [
              88.133397,
              27.908608,
              0.0
            ],
            [
              88.133936,
              27.908699,
              0.0
            ],
            [
              88.134475,
              27.908838,
              0.0
            ],
            [
              88.135014,
              27.908929,
              0.0
            ],
            [
              88.135552,
              27.90902,
              0.0
            ],
            [
              88.136038,
              27.909159,
              0.0
            ],
            [
              88.136523,
              27.909298,
              0.0
            ],
            [
              88.137009,
              27.909533,
              0.0
            ],
            [
              88.137495,
              27.909673,
              0.0
            ],
            [
              88.137981,
              27.90986,
              0.0
            ],
            [
              88.138466,
              27.910047,
              0.0
            ],
            [
              88.138953,
              27.910329,
              0.0
            ],
            [
              88.139491,
              27.910373,
              0.0
            ],
            [
              88.140029,
              27.91032,
              0.0
            ],
            [
              88.140566,
              27.910316,
              0.0
            ],
            [
              88.141157,
              27.910263,
              0.0
            ],
            [
              88.141639,
              27.910116,
              0.0
            ],
            [
              88.142122,
              27.909969,
              0.0
            ],
            [
              88.142659,
              27.909916,
              0.0
            ],
            [
              88.143141,
              27.909769,
              0.0
            ],
            [
              88.143623,
              27.909574,
              0.0
            ],
            [
              88.144106,
              27.909427,
              0.0
            ],
            [
              88.144478,
              27.909089,
              0.0
            ],
            [
              88.144743,
              27.908657,
              0.0
            ],
            [
              88.144845,
              27.908179,
              0.0
            ],
            [
              88.145164,
              27.907794,
              0.0
            ],
            [
              88.145482,
              27.907409,
              0.0
            ],
            [
              88.145482,
              27.907361,
              0.0
            ],
            [
              88.146607,
              27.907018,
              0.0
            ],
            [
              88.14709,
              27.90687,
              0.0
            ],
            [
              88.147626,
              27.90677,
              0.0
            ],
            [
              88.148109,
              27.906623,
              0.0
            ],
            [
              88.148591,
              27.906476,
              0.0
            ],
            [
              88.149072,
              27.906185,
              0.0
            ],
            [
              88.149499,
              27.905895,
              0.0
            ],
            [
              88.150036,
              27.905795,
              0.0
            ],
            [
              88.150573,
              27.905791,
              0.0
            ],
            [
              88.151111,
              27.905786,
              0.0
            ],
            [
              88.151648,
              27.905782,
              0.0
            ],
            [
              88.152186,
              27.905777,
              0.0
            ],
            [
              88.152724,
              27.905773,
              0.0
            ],
            [
              88.153262,
              27.905816,
              0.0
            ],
            [
              88.153799,
              27.905811,
              0.0
            ],
            [
              88.154285,
              27.905998,
              0.0
            ],
            [
              88.154718,
              27.906281,
              0.0
            ],
            [
              88.155045,
              27.906661,
              0.0
            ],
            [
              88.155531,
              27.906895,
              0.0
            ],
            [
              88.155965,
              27.907178,
              0.0
            ],
            [
              88.156398,
              27.907461,
              0.0
            ],
            [
              88.156885,
              27.907744,
              0.0
            ],
            [
              88.157371,
              27.907931,
              0.0
            ],
            [
              88.157856,
              27.908118,
              0.0
            ],
            [
              88.158343,
              27.908352,
              0.0
            ],
            [
              88.158776,
              27.908635,
              0.0
            ],
            [
              88.159262,
              27.90887,
              0.0
            ],
            [
              88.159316,
              27.90887,
              0.0
            ],
            [
              88.160127,
              27.909245,
              0.0
            ],
            [
              88.160612,
              27.909384,
              0.0
            ],
            [
              88.161097,
              27.909523,
              0.0
            ],
            [
              88.161583,
              27.909663,
              0.0
            ],
            [
              88.162121,
              27.909706,
              0.0
            ],
            [
              88.162659,
              27.909749,
              0.0
            ],
            [
              88.163197,
              27.909745,
              0.0
            ],
            [
              88.163734,
              27.90974,
              0.0
            ],
            [
              88.164272,
              27.909735,
              0.0
            ],
            [
              88.16481,
              27.909731,
              0.0
            ],
            [
              88.165402,
              27.909774,
              0.0
            ],
            [
              88.165939,
              27.909769,
              0.0
            ],
            [
              88.166477,
              27.909765,
              0.0
            ],
            [
              88.167015,
              27.90976,
              0.0
            ],
            [
              88.167552,
              27.909755,
              0.0
            ],
            [
              88.16809,
              27.909751,
              0.0
            ],
            [
              88.168627,
              27.909746,
              0.0
            ],
            [
              88.169166,
              27.90979,
              0.0
            ],
            [
              88.169652,
              27.909976,
              0.0
            ],
            [
              88.170191,
              27.910115,
              0.0
            ],
            [
              88.170624,
              27.910398,
              0.0
            ],
            [
              88.17111,
              27.910633,
              0.0
            ],
            [
              88.171651,
              27.910867,
              0.0
            ],
            [
              88.172189,
              27.910958,
              0.0
            ],
            [
              88.172782,
              27.911048,
              0.0
            ],
            [
              88.173267,
              27.911188,
              0.0
            ],
            [
              88.173753,
              27.911375,
              0.0
            ],
            [
              88.174291,
              27.911418,
              0.0
            ],
            [
              88.174724,
              27.911701,
              0.0
            ],
            [
              88.17521,
              27.911888,
              0.0
            ],
            [
              88.175697,
              27.912122,
              0.0
            ],
            [
              88.176183,
              27.912357,
              0.0
            ],
            [
              88.17667,
              27.912592,
              0.0
            ],
            [
              88.177156,
              27.912778,
              0.0
            ],
            [
              88.177643,
              27.913061,
              0.0
            ],
            [
              88.178181,
              27.913104,
              0.0
            ],
            [
              88.17872,
              27.913243,
              0.0
            ],
            [
              88.179206,
              27.913382,
              0.0
            ],
            [
              88.179691,
              27.913521,
              0.0
            ],
            [
              88.18023,
              27.913612,
              0.0
            ],
            [
              88.180768,
              27.913655,
              0.0
            ],
            [
              88.181306,
              27.913698,
              0.0
            ],
            [
              88.181845,
              27.913789,
              0.0
            ],
            [
              88.182384,
              27.913928,
              0.0
            ],
            [
              88.182869,
              27.914067,
              0.0
            ],
            [
              88.183408,
              27.91411,
              0.0
            ],
            [
              88.183946,
              27.914153,
              0.0
            ],
            [
              88.184431,
              27.914292,
              0.0
            ],
            [
              88.184917,
              27.914479,
              0.0
            ],
            [
              88.185404,
              27.914714,
              0.0
            ],
            [
              88.185889,
              27.914853,
              0.0
            ],
            [
              88.186427,
              27.914896,
              0.0
            ],
            [
              88.186965,
              27.914939,
              0.0
            ],
            [
              88.187176,
              27.914843,
              0.0
            ],
            [
              88.187593,
              27.914843,
              0.0
            ],
            [
              88.188957,
              27.915113,
              0.0
            ],
            [
              88.189549,
              27.915156,
              0.0
            ],
            [
              88.190086,
              27.915151,
              0.0
            ],
            [
              88.190625,
              27.915194,
              0.0
            ],
            [
              88.191163,
              27.915285,
              0.0
            ],
            [
              88.191702,
              27.915328,
              0.0
            ],
            [
              88.192239,
              27.915324,
              0.0
            ],
            [
              88.192777,
              27.915319,
              0.0
            ],
            [
              88.19315,
              27.914981,
              0.0
            ],
            [
              88.193144,
              27.914504,
              0.0
            ],
            [
              88.193571,
              27.914213,
              0.0
            ],
            [
              88.194054,
              27.914066,
              0.0
            ],
            [
              88.194426,
              27.913728,
              0.0
            ],
            [
              88.194637,
              27.913297,
              0.0
            ],
            [
              88.194685,
              27.912819,
              0.0
            ],
            [
              88.194572,
              27.912342,
              0.0
            ],
            [
              88.194567,
              27.911864,
              0.0
            ],
            [
              88.194562,
              27.911387,
              0.0
            ],
            [
              88.194557,
              27.910909,
              0.0
            ],
            [
              88.19423,
              27.91053,
              0.0
            ],
            [
              88.193903,
              27.910151,
              0.0
            ],
            [
              88.19347,
              27.909868,
              0.0
            ],
            [
              88.192984,
              27.909681,
              0.0
            ],
            [
              88.192497,
              27.909446,
              0.0
            ],
            [
              88.192444,
              27.909447,
              0.0
            ],
            [
              88.191206,
              27.909362,
              0.0
            ],
            [
              88.190668,
              27.909367,
              0.0
            ],
            [
              88.190131,
              27.909371,
              0.0
            ],
            [
              88.189593,
              27.909376,
              0.0
            ],
            [
              88.189055,
              27.909333,
              0.0
            ],
            [
              88.188463,
              27.90929,
              0.0
            ],
            [
              88.187924,
              27.909199,
              0.0
            ],
            [
              88.187439,
              27.90906,
              0.0
            ],
            [
              88.186953,
              27.908921,
              0.0
            ],
            [
              88.186414,
              27.908782,
              0.0
            ],
            [
              88.185929,
              27.908643,
              0.0
            ],
            [
              88.185391,
              27.9086,
              0.0
            ],
            [
              88.184852,
              27.908461,
              0.0
            ],
            [
              88.184365,
              27.908227,
              0.0
            ],
            [
              88.183932,
              27.907944,
              0.0
            ],
            [
              88.183446,
              27.907805,
              0.0
            ],
            [
              88.182961,
              27.907666,
              0.0
            ],
            [
              88.182581,
              27.907335,
              0.0
            ],
            [
              88.182148,
              27.907052,
              0.0
            ],
            [
              88.181714,
              27.906721,
              0.0
            ],
            [
              88.181228,
              27.906534,
              0.0
            ],
            [
              88.180743,
              27.906395,
              0.0
            ],
            [
              88.180203,
              27.906209,
              0.0
            ],
            [
              88.180149,
              27.906209,
              0.0
            ],
            [
              88.178692,
              27.905648,
              0.0
            ],
            [
              88.178258,
              27.905366,
              0.0
            ],
            [
              88.177772,
              27.905131,
              0.0
            ],
            [
              88.177339,
              27.904848,
              0.0
            ],
            [
              88.177012,
              27.904469,
              0.0
            ],
            [
              88.176792,
              27.904041,
              0.0
            ],
            [
              88.176573,
              27.903613,
              0.0
            ],
            [
              88.176407,
              27.903184,
              0.0
            ],
            [
              88.176241,
              27.902756,
              0.0
            ],
            [
              88.176075,
              27.902327,
              0.0
            ],
            [
              88.17607,
              27.90185,
              0.0
            ],
            [
              88.175904,
              27.901421,
              0.0
            ],
            [
              88.175737,
              27.900945,
              0.0
            ],
            [
              88.175464,
              27.900517,
              0.0
            ],
            [
              88.17519,
              27.90009,
              0.0
            ],
            [
              88.175167,
              27.900063,
              0.0
            ],
            [
              88.175499,
              27.900011,
              0.0
            ],
            [
              88.176028,
              27.899849,
              0.0
            ],
            [
              88.176647,
              27.899844,
              0.0
            ],
            [
              88.177093,
              27.900155,
              0.0
            ],
            [
              88.177538,
              27.900387,
              0.0
            ],
            [
              88.178067,
              27.900225,
              0.0
            ],
            [
              88.17815,
              27.899753,
              0.0
            ],
            [
              88.178201,
              27.899462,
              0.0
            ],
            [
              88.178322,
              27.89928,
              0.0
            ],
            [
              88.178583,
              27.898885,
              0.0
            ],
            [
              88.178933,
              27.898489,
              0.0
            ],
            [
              88.179282,
              27.898093,
              0.0
            ],
            [
              88.179454,
              27.89762,
              0.0
            ],
            [
              88.179184,
              27.897229,
              0.0
            ],
            [
              88.179002,
              27.896759,
              0.0
            ],
            [
              88.178997,
              27.896288,
              0.0
            ],
            [
              88.178904,
              27.895817,
              0.0
            ],
            [
              88.178634,
              27.895426,
              0.0
            ],
            [
              88.178189,
              27.895194,
              0.0
            ],
            [
              88.177744,
              27.894962,
              0.0
            ],
            [
              88.177123,
              27.894732,
              0.0
            ],
            [
              88.176501,
              27.894501,
              0.0
            ],
            [
              88.176342,
              27.894422,
              0.0
            ],
            [
              88.176296,
              27.893952,
              0.0
            ],
            [
              88.17616,
              27.893489,
              0.0
            ],
            [
              88.17612,
              27.893412,
              0.0
            ],
            [
              88.176406,
              27.893154,
              0.0
            ],
            [
              88.176132,
              27.892726,
              0.0
            ],
            [
              88.175806,
              27.892347,
              0.0
            ],
            [
              88.175586,
              27.891919,
              0.0
            ],
            [
              88.175206,
              27.891588,
              0.0
            ],
            [
              88.174986,
              27.89116,
              0.0
            ],
            [
              88.174874,
              27.890683,
              0.0
            ],
            [
              88.174815,
              27.890206,
              0.0
            ],
            [
              88.174814,
              27.890158,
              0.0
            ],
            [
              88.174694,
              27.889013,
              0.0
            ],
            [
              88.174743,
              27.888535,
              0.0
            ],
            [
              88.174738,
              27.888057,
              0.0
            ],
            [
              88.174677,
              27.887798,
              0.0
            ],
            [
              88.17479,
              27.887652,
              0.0
            ],
            [
              88.175018,
              27.887469,
              0.0
            ],
            [
              88.174561,
              27.887472,
              0.0
            ],
            [
              88.173971,
              27.887477,
              0.0
            ],
            [
              88.173381,
              27.887378,
              0.0
            ],
            [
              88.172673,
              27.887384,
              0.0
            ],
            [
              88.171964,
              27.887285,
              0.0
            ],
            [
              88.171374,
              27.887185,
              0.0
            ],
            [
              88.1709,
              27.88698,
              0.0
            ],
            [
              88.17031,
              27.886985,
              0.0
            ],
            [
              88.169719,
              27.886885,
              0.0
            ],
            [
              88.169129,
              27.886785,
              0.0
            ],
            [
              88.168655,
              27.88658,
              0.0
            ],
            [
              88.168064,
              27.88648,
              0.0
            ],
            [
              88.167473,
              27.88638,
              0.0
            ],
            [
              88.166999,
              27.886174,
              0.0
            ],
            [
              88.166407,
              27.88597,
              0.0
            ],
            [
              88.165698,
              27.885766,
              0.0
            ],
            [
              88.165107,
              27.885666,
              0.0
            ],
            [
              88.164517,
              27.885671,
              0.0
            ],
            [
              88.163926,
              27.885467,
              0.0
            ],
            [
              88.163335,
              27.885367,
              0.0
            ],
            [
              88.162744,
              27.885267,
              0.0
            ],
            [
              88.162153,
              27.885167,
              0.0
            ],
            [
              88.161563,
              27.885068,
              0.0
            ],
            [
              88.160971,
              27.884863,
              0.0
            ],
            [
              88.160143,
              27.88466,
              0.0
            ],
            [
              88.159552,
              27.884561,
              0.0
            ],
            [
              88.159079,
              27.884355,
              0.0
            ],
            [
              88.158488,
              27.884255,
              0.0
            ],
            [
              88.157897,
              27.884155,
              0.0
            ],
            [
              88.157422,
              27.883845,
              0.0
            ],
            [
              88.156948,
              27.883639,
              0.0
            ],
            [
              88.156357,
              27.88354,
              0.0
            ],
            [
              88.155765,
              27.88323,
              0.0
            ],
            [
              88.155173,
              27.883026,
              0.0
            ],
            [
              88.154698,
              27.882715,
              0.0
            ],
            [
              88.154222,
              27.8823,
              0.0
            ],
            [
              88.153747,
              27.88199,
              0.0
            ],
            [
              88.153388,
              27.881574,
              0.0
            ],
            [
              88.152913,
              27.881263,
              0.0
            ],
            [
              88.152438,
              27.880953,
              0.0
            ],
            [
              88.151963,
              27.880642,
              0.0
            ],
            [
              88.151369,
              27.880228,
              0.0
            ],
            [
              88.150893,
              27.879813,
              0.0
            ],
            [
              88.150417,
              27.879398,
              0.0
            ],
            [
              88.149942,
              27.879087,
              0.0
            ],
            [
              88.149584,
              27.878671,
              0.0
            ],
            [
              88.149226,
              27.878255,
              0.0
            ],
            [
              88.148986,
              27.877838,
              0.0
            ],
            [
              88.148627,
              27.877422,
              0.0
            ],
            [
              88.148695,
              27.877107,
              0.0
            ],
            [
              88.148624,
              27.877108,
              0.0
            ],
            [
              88.148035,
              27.877112,
              0.0
            ],
            [
              88.147446,
              27.877222,
              0.0
            ],
            [
              88.146858,
              27.877332,
              0.0
            ],
            [
              88.146269,
              27.877441,
              0.0
            ],
            [
              88.1458,
              27.877655,
              0.0
            ],
            [
              88.145331,
              27.877973,
              0.0
            ],
            [
              88.144745,
              27.878292,
              0.0
            ],
            [
              88.144158,
              27.878507,
              0.0
            ],
            [
              88.14357,
              27.878721,
              0.0
            ],
            [
              88.142981,
              27.878726,
              0.0
            ],
            [
              88.142391,
              27.878731,
              0.0
            ],
            [
              88.141802,
              27.878736,
              0.0
            ],
            [
              88.141211,
              27.878636,
              0.0
            ],
            [
              88.14062,
              27.878536,
              0.0
            ],
            [
              88.14003,
              27.878436,
              0.0
            ],
            [
              88.139439,
              27.878336,
              0.0
            ],
            [
              88.138852,
              27.878551,
              0.0
            ],
            [
              88.138383,
              27.878869,
              0.0
            ],
            [
              88.137916,
              27.879292,
              0.0
            ],
            [
              88.137567,
              27.879714,
              0.0
            ],
            [
              88.137217,
              27.880136,
              0.0
            ],
            [
              88.13675,
              27.880559,
              0.0
            ],
            [
              88.136282,
              27.880877,
              0.0
            ],
            [
              88.135814,
              27.8813,
              0.0
            ],
            [
              88.135346,
              27.881619,
              0.0
            ],
            [
              88.134876,
              27.881832,
              0.0
            ],
            [
              88.134624,
              27.881947,
              0.0
            ]
          ]
        ]
      }
    }
  ],
  "properties": {
    "site_id": "south-lhonak",
    "observation_date": "2016-10-15",
    "version": "phase-2-retreat-v1.0"
  }
}