{
  "type": "FeatureCollection",
  "features": [
    {
      "type": "Feature",
      "properties": {
        "site_id": "south-lhonak",
        "glacier_id": "RGI2000-v7.0-G-15-07986",
        "observation_date": "2022-10-15",
        "area_km2": 13.422,
        "area_2016_km2": 14.26,
        "scale_factor": 0.9702,
        "source": "Phase 2 GeoAI derived boundary (versioned, reviewed) \u2014 scaled from RGI 2000 baseline by measured area change; confidence + image-quality documented in measurements.ts",
        "source_id": "phase-2-geoai-v1.0",
        "processing_version": "phase-2-retreat-v1.0",
        "crs": "EPSG:4326",
        "status": "approved",
        "boundary_asset": "data/derived/phase2/boundaries/south-lhonak/2022-10-15.geojson"
      },
      "geometry": {
        "type": "Polygon",
        "coordinates": [
          [
            [
              88.13539964980784,
              27.882470368570285,
              0.0
            ],
            [
              88.13554711599194,
              27.882788585072834,
              0.0
            ],
            [
              88.13589637800693,
              27.883294044822314,
              0.0
            ],
            [
              88.1362436996774,
              27.88369763648409,
              0.0
            ],
            [
              88.136477511193,
              27.884204066405836,
              0.0
            ],
            [
              88.13682483286347,
              27.88460862823987,
              0.0
            ],
            [
              88.13705767420679,
              27.88501319007391,
              0.0
            ],
            [
              88.13729148572239,
              27.885417751907948,
              0.0
            ],
            [
              88.13752432706572,
              27.885822313741983,
              0.0
            ],
            [
              88.13741469759991,
              27.88633165418052,
              0.0
            ],
            [
              88.13742051863349,
              27.886840024446794,
              0.0
            ],
            [
              88.13719543866827,
              27.887248466969886,
              0.0
            ],
            [
              88.13708677937471,
              27.88775780740842,
              0.0
            ],
            [
              88.1368616994095,
              27.888166249931512,
              0.0
            ],
            [
              88.13675304011595,
              27.88867559037005,
              0.0
            ],
            [
              88.13675789097726,
              27.889183960636323,
              0.0
            ],
            [
              88.1366492316837,
              27.889692330902594,
              0.0
            ],
            [
              88.13665408254504,
              27.890200701168865,
              0.0
            ],
            [
              88.13642997275207,
              27.89060914369196,
              0.0
            ],
            [
              88.13632034328624,
              27.891118484130494,
              0.0
            ],
            [
              88.13609623349329,
              27.891526926653587,
              0.0
            ],
            [
              88.1358730938726,
              27.89203723726439,
              0.0
            ],
            [
              88.13576346440678,
              27.892546577702923,
              0.0
            ],
            [
              88.13565480511323,
              27.89305591814146,
              0.0
            ],
            [
              88.13543069532028,
              27.89356622875226,
              0.0
            ],
            [
              88.13520755569958,
              27.894075569190797,
              0.0
            ],
            [
              88.13498247573436,
              27.894484981886155,
              0.0
            ],
            [
              88.1347583659414,
              27.894893424409247,
              0.0
            ],
            [
              88.13441880564905,
              27.8953028371046,
              0.0
            ],
            [
              88.13431014635549,
              27.895811207370873,
              0.0
            ],
            [
              88.1339715562354,
              27.89622062006623,
              0.0
            ],
            [
              88.13374647627018,
              27.89663003276159,
              0.0
            ],
            [
              88.13352236647722,
              27.89703847528468,
              0.0
            ],
            [
              88.133297286512,
              27.897446917807773,
              0.0
            ],
            [
              88.13307414689132,
              27.897956258246307,
              0.0
            ],
            [
              88.13261913609956,
              27.898265743198486,
              0.0
            ],
            [
              88.13216606565233,
              27.898676126066107,
              0.0
            ],
            [
              88.13171202503284,
              27.899086508933728,
              0.0
            ],
            [
              88.1312589545856,
              27.89949689180135,
              0.0
            ],
            [
              88.13080297362157,
              27.899703538493554,
              0.0
            ],
            [
              88.13046438350148,
              27.900112951188913,
              0.0
            ],
            [
              88.13012482320913,
              27.900522363884267,
              0.0
            ],
            [
              88.12990071341616,
              27.90093080640736,
              0.0
            ],
            [
              88.129800785673,
              27.9010210324279,
              0.0
            ],
            [
              88.1298163084292,
              27.901174319645595,
              0.0
            ],
            [
              88.12987936962637,
              27.901727317836006,
              0.0
            ],
            [
              88.12994146065125,
              27.90233076498414,
              0.0
            ],
            [
              88.12994631151257,
              27.90278383543137,
              0.0
            ],
            [
              88.12995213254615,
              27.90328735483632,
              0.0
            ],
            [
              88.12984347325259,
              27.903741395455818,
              0.0
            ],
            [
              88.12973675430358,
              27.904397231906195,
              0.0
            ],
            [
              88.1297416051649,
              27.904850302353427,
              0.0
            ],
            [
              88.12985899600882,
              27.905302402628397,
              0.0
            ],
            [
              88.13014713717119,
              27.905702113601112,
              0.0
            ],
            [
              88.13032176817869,
              27.906154213876082,
              0.0
            ],
            [
              88.13072244932367,
              27.9065539248488,
              0.0
            ],
            [
              88.1311221602964,
              27.906852737906075,
              0.0
            ],
            [
              88.13140933128649,
              27.907252448878793,
              0.0
            ],
            [
              88.13197882240539,
              27.907499842806082,
              0.0
            ],
            [
              88.13243480336942,
              27.90769775794791,
              0.0
            ],
            [
              88.13300235414378,
              27.907793805002036,
              0.0
            ],
            [
              88.13348161924215,
              27.90786656792183,
              0.0
            ],
            [
              88.1337377447198,
              27.9081547090842,
              0.0
            ],
            [
              88.13420924844006,
              27.908336131297546,
              0.0
            ],
            [
              88.13473217129028,
              27.908424416973556,
              0.0
            ],
            [
              88.1352550941405,
              27.908559270918236,
              0.0
            ],
            [
              88.13577801699074,
              27.90864755659425,
              0.0
            ],
            [
              88.13629996966871,
              27.908735842270264,
              0.0
            ],
            [
              88.13677147338895,
              27.90887069621494,
              0.0
            ],
            [
              88.13724200693693,
              27.90900555015962,
              0.0
            ],
            [
              88.13771351065719,
              27.909233540641633,
              0.0
            ],
            [
              88.13818501437743,
              27.909369364758575,
              0.0
            ],
            [
              88.13865651809766,
              27.90955078697192,
              0.0
            ],
            [
              88.13912705164564,
              27.909732209185265,
              0.0
            ],
            [
              88.13959952553816,
              27.91000579776368,
              0.0
            ],
            [
              88.14012147821613,
              27.91004848534329,
              0.0
            ],
            [
              88.14064343089409,
              27.909997066213304,
              0.0
            ],
            [
              88.1411644133998,
              27.90999318552425,
              0.0
            ],
            [
              88.14173778520775,
              27.909941766394265,
              0.0
            ],
            [
              88.14220540823894,
              27.90979915107147,
              0.0
            ],
            [
              88.14267400144239,
              27.909656535748685,
              0.0
            ],
            [
              88.14319498394809,
              27.909605116618696,
              0.0
            ],
            [
              88.14366260697928,
              27.90946250129591,
              0.0
            ],
            [
              88.14413023001048,
              27.90927331770445,
              0.0
            ],
            [
              88.14459882321391,
              27.909130702381663,
              0.0
            ],
            [
              88.1449597272961,
              27.90880278415647,
              0.0
            ],
            [
              88.14521682294603,
              27.908383669738477,
              0.0
            ],
            [
              88.14531578051694,
              27.907919927396343,
              0.0
            ],
            [
              88.1456252654691,
              27.907546411074748,
              0.0
            ],
            [
              88.14593378024902,
              27.907172894753156,
              0.0
            ],
            [
              88.14593378024902,
              27.90712632648449,
              0.0
            ],
            [
              88.14702522404589,
              27.90679355739798,
              0.0
            ],
            [
              88.14749381724934,
              27.906649971902926,
              0.0
            ],
            [
              88.14801382958278,
              27.90655295467654,
              0.0
            ],
            [
              88.14848242278623,
              27.906410339353744,
              0.0
            ],
            [
              88.14895004581741,
              27.906267724030958,
              0.0
            ],
            [
              88.14941669867635,
              27.905985403902168,
              0.0
            ],
            [
              88.14983096223303,
              27.905704053945644,
              0.0
            ],
            [
              88.15035194473873,
              27.905607036719257,
              0.0
            ],
            [
              88.15087292724442,
              27.9056031560302,
              0.0
            ],
            [
              88.15139487992239,
              27.90559830516888,
              0.0
            ],
            [
              88.15191586242808,
              27.905594424479823,
              0.0
            ],
            [
              88.15243781510607,
              27.905589573618506,
              0.0
            ],
            [
              88.15295976778404,
              27.90558569292945,
              0.0
            ],
            [
              88.153481720462,
              27.9056274103368,
              0.0
            ],
            [
              88.1540027029677,
              27.905622559475475,
              0.0
            ],
            [
              88.15447420668795,
              27.905803981688823,
              0.0
            ],
            [
              88.15489429127821,
              27.9060785404395,
              0.0
            ],
            [
              88.1552115376085,
              27.906447205899774,
              0.0
            ],
            [
              88.15568304132873,
              27.90667422620952,
              0.0
            ],
            [
              88.15610409609125,
              27.906948784960196,
              0.0
            ],
            [
              88.15652418068152,
              27.90722334371088,
              0.0
            ],
            [
              88.15699665457403,
              27.907497902461554,
              0.0
            ],
            [
              88.15746815829426,
              27.907679324674902,
              0.0
            ],
            [
              88.15793869184225,
              27.907860746888247,
              0.0
            ],
            [
              88.15841116573476,
              27.908087767197994,
              0.0
            ],
            [
              88.15883125032502,
              27.90836232594867,
              0.0
            ],
            [
              88.15930275404526,
              27.90859031643068,
              0.0
            ],
            [
              88.15935514334753,
              27.90859031643068,
              0.0
            ],
            [
              88.16014195305353,
              27.908954131029635,
              0.0
            ],
            [
              88.16061248660151,
              27.909088984974314,
              0.0
            ],
            [
              88.16108302014948,
              27.909223838918994,
              0.0
            ],
            [
              88.16155452386973,
              27.909359663035936,
              0.0
            ],
            [
              88.1620764765477,
              27.90940138044328,
              0.0
            ],
            [
              88.16259842922567,
              27.90944309785063,
              0.0
            ],
            [
              88.16312038190362,
              27.909439217161577,
              0.0
            ],
            [
              88.16364136440933,
              27.909434366300253,
              0.0
            ],
            [
              88.16416331708729,
              27.909429515438937,
              0.0
            ],
            [
              88.16468526976527,
              27.90942563474988,
              0.0
            ],
            [
              88.16525961174548,
              27.909467352157225,
              0.0
            ],
            [
              88.16578059425117,
              27.90946250129591,
              0.0
            ],
            [
              88.16630254692915,
              27.909458620606852,
              0.0
            ],
            [
              88.16682449960712,
              27.909453769745532,
              0.0
            ],
            [
              88.16734548211282,
              27.909448918884213,
              0.0
            ],
            [
              88.1678674347908,
              27.90944503819516,
              0.0
            ],
            [
              88.16838841729648,
              27.909440187333836,
              0.0
            ],
            [
              88.16891134014672,
              27.90948287491345,
              0.0
            ],
            [
              88.16938284386696,
              27.90966332695453,
              0.0
            ],
            [
              88.16990576671719,
              27.90979818089921,
              0.0
            ],
            [
              88.17032585130745,
              27.910072739649888,
              0.0
            ],
            [
              88.1707973550277,
              27.910300730131897,
              0.0
            ],
            [
              88.17132221822246,
              27.910527750441645,
              0.0
            ],
            [
              88.17184417090043,
              27.91061603611766,
              0.0
            ],
            [
              88.1724194830529,
              27.910703351621407,
              0.0
            ],
            [
              88.17289001660087,
              27.91083917573835,
              0.0
            ],
            [
              88.17336152032114,
              27.911020597951694,
              0.0
            ],
            [
              88.1738834729991,
              27.911062315359043,
              0.0
            ],
            [
              88.17430355758935,
              27.911336874109722,
              0.0
            ],
            [
              88.1747750613096,
              27.911518296323067,
              0.0
            ],
            [
              88.1752475352021,
              27.911745316632814,
              0.0
            ],
            [
              88.17571903892235,
              27.911973307114824,
              0.0
            ],
            [
              88.17619151281487,
              27.912201297596837,
              0.0
            ],
            [
              88.1766630165351,
              27.912381749637916,
              0.0
            ],
            [
              88.17713549042762,
              27.912656308388595,
              0.0
            ],
            [
              88.17765744310557,
              27.912698025795944,
              0.0
            ],
            [
              88.17818036595581,
              27.912832879740623,
              0.0
            ],
            [
              88.17865186967605,
              27.9129677336853,
              0.0
            ],
            [
              88.17912240322404,
              27.91310258762998,
              0.0
            ],
            [
              88.17964532607427,
              27.913190873305993,
              0.0
            ],
            [
              88.18016727875224,
              27.91323259071334,
              0.0
            ],
            [
              88.18068923143021,
              27.913274308120684,
              0.0
            ],
            [
              88.18121215428043,
              27.9133625937967,
              0.0
            ],
            [
              88.18173507713065,
              27.913497447741378,
              0.0
            ],
            [
              88.18220561067864,
              27.913632301686057,
              0.0
            ],
            [
              88.18272853352887,
              27.913674019093403,
              0.0
            ],
            [
              88.18325048620684,
              27.913715736500748,
              0.0
            ],
            [
              88.18372101975483,
              27.913850590445428,
              0.0
            ],
            [
              88.18419252347506,
              27.914032012658776,
              0.0
            ],
            [
              88.18466499736758,
              27.914260003140786,
              0.0
            ],
            [
              88.18513553091556,
              27.914394857085465,
              0.0
            ],
            [
              88.18565748359352,
              27.91443657449281,
              0.0
            ],
            [
              88.18617943627149,
              27.91447829190016,
              0.0
            ],
            [
              88.18638414261916,
              27.914385155362826,
              0.0
            ],
            [
              88.1867887044532,
              27.914385155362826,
              0.0
            ],
            [
              88.18811201942114,
              27.914647101874074,
              0.0
            ],
            [
              88.18868636140135,
              27.91468881928142,
              0.0
            ],
            [
              88.18920734390704,
              27.914683968420103,
              0.0
            ],
            [
              88.18973026675728,
              27.91472568582745,
              0.0
            ],
            [
              88.19025221943525,
              27.91481397150346,
              0.0
            ],
            [
              88.19077514228549,
              27.914855688910805,
              0.0
            ],
            [
              88.19129612479118,
              27.91485180822175,
              0.0
            ],
            [
              88.19181807746915,
              27.91484695736043,
              0.0
            ],
            [
              88.19217995172357,
              27.914519039135243,
              0.0
            ],
            [
              88.19217413068999,
              27.91405626696537,
              0.0
            ],
            [
              88.19258839424667,
              27.91377394683658,
              0.0
            ],
            [
              88.19305698745012,
              27.91363133151379,
              0.0
            ],
            [
              88.19341789153229,
              27.913303413288602,
              0.0
            ],
            [
              88.19362259787997,
              27.91288526904287,
              0.0
            ],
            [
              88.19366916614864,
              27.912421526700737,
              0.0
            ],
            [
              88.1935595366828,
              27.911958754530865,
              0.0
            ],
            [
              88.1935546858215,
              27.911495012188734,
              0.0
            ],
            [
              88.19354983496018,
              27.911032240018862,
              0.0
            ],
            [
              88.19354498409885,
              27.910568497676728,
              0.0
            ],
            [
              88.19322773776857,
              27.91020080238872,
              0.0
            ],
            [
              88.19291049143828,
              27.90983310710071,
              0.0
            ],
            [
              88.19249040684802,
              27.90955854835003,
              0.0
            ],
            [
              88.19201890312776,
              27.909377126136686,
              0.0
            ],
            [
              88.19154642923526,
              27.909149135654673,
              0.0
            ],
            [
              88.19149501010527,
              27.90915010582694,
              0.0
            ],
            [
              88.1902939368426,
              27.90906764118451,
              0.0
            ],
            [
              88.18977198416464,
              27.909072492045826,
              0.0
            ],
            [
              88.18925100165892,
              27.909076372734884,
              0.0
            ],
            [
              88.18872904898096,
              27.909081223596203,
              0.0
            ],
            [
              88.18820709630299,
              27.909039506188858,
              0.0
            ],
            [
              88.18763275432278,
              27.90899778878151,
              0.0
            ],
            [
              88.18710983147254,
              27.908909503105498,
              0.0
            ],
            [
              88.18663929792456,
              27.90877464916082,
              0.0
            ],
            [
              88.18616779420432,
              27.90863979521614,
              0.0
            ],
            [
              88.18564487135409,
              27.90850494127146,
              0.0
            ],
            [
              88.18517433780612,
              27.90837008732678,
              0.0
            ],
            [
              88.18465238512813,
              27.908328369919435,
              0.0
            ],
            [
              88.18412946227792,
              27.908193515974755,
              0.0
            ],
            [
              88.18365698838541,
              27.907966495665008,
              0.0
            ],
            [
              88.18323690379515,
              27.90769193691433,
              0.0
            ],
            [
              88.1827654000749,
              27.90755708296965,
              0.0
            ],
            [
              88.18229486652693,
              27.90742222902497,
              0.0
            ],
            [
              88.18192620106664,
              27.907101102005626,
              0.0
            ],
            [
              88.18150611647638,
              27.90682654325495,
              0.0
            ],
            [
              88.18108506171386,
              27.906505416235607,
              0.0
            ],
            [
              88.18061355799362,
              27.906323994022262,
              0.0
            ],
            [
              88.18014302444564,
              27.906189140077583,
              0.0
            ],
            [
              88.17961913142315,
              27.9060086880365,
              0.0
            ],
            [
              88.1795667421209,
              27.9060086880365,
              0.0
            ],
            [
              88.17815320113242,
              27.905464421396463,
              0.0
            ],
            [
              88.1777321463699,
              27.90519083281805,
              0.0
            ],
            [
              88.17726064264966,
              27.90496284233604,
              0.0
            ],
            [
              88.1768405580594,
              27.90468828358536,
              0.0
            ],
            [
              88.17652331172911,
              27.904320588297352,
              0.0
            ],
            [
              88.17630987383106,
              27.903905354568412,
              0.0
            ],
            [
              88.17609740610527,
              27.90349012083947,
              0.0
            ],
            [
              88.17593635750946,
              27.90307391693827,
              0.0
            ],
            [
              88.17577530891366,
              27.902658683209328,
              0.0
            ],
            [
              88.17561426031784,
              27.902242479308125,
              0.0
            ],
            [
              88.17560940945653,
              27.901779707138253,
              0.0
            ],
            [
              88.17544836086073,
              27.90136350323705,
              0.0
            ],
            [
              88.17528634209266,
              27.900901701239444,
              0.0
            ],
            [
              88.17502148506463,
              27.900486467510504,
              0.0
            ],
            [
              88.17475565786432,
              27.900072203953826,
              0.0
            ],
            [
              88.17473334390225,
              27.900046009302702,
              0.0
            ],
            [
              88.17505544109386,
              27.89999556034498,
              0.0
            ],
            [
              88.17556866222145,
              27.899838392438234,
              0.0
            ],
            [
              88.17616919885279,
              27.899833541576918,
              0.0
            ],
            [
              88.17660189568248,
              27.900135265150983,
              0.0
            ],
            [
              88.1770336223399,
              27.900360345116198,
              0.0
            ],
            [
              88.1775468434675,
              27.900203177209452,
              0.0
            ],
            [
              88.1776273677654,
              27.899745255900903,
              0.0
            ],
            [
              88.17767684655085,
              27.899462935772114,
              0.0
            ],
            [
              88.17779423739478,
              27.89928636442009,
              0.0
            ],
            [
              88.17804745235566,
              27.898903146375854,
              0.0
            ],
            [
              88.17838701264802,
              27.89851895815936,
              0.0
            ],
            [
              88.17872560276811,
              27.898134769942864,
              0.0
            ],
            [
              88.17889247239751,
              27.89767587846205,
              0.0
            ],
            [
              88.17863052588626,
              27.897296541106872,
              0.0
            ],
            [
              88.17845395453422,
              27.89684056014285,
              0.0
            ],
            [
              88.1784491036729,
              27.896383609006563,
              0.0
            ],
            [
              88.17835887765237,
              27.895926657870277,
              0.0
            ],
            [
              88.17809693114111,
              27.8955473205151,
              0.0
            ],
            [
              88.17766520448369,
              27.89532224054988,
              0.0
            ],
            [
              88.17723347782626,
              27.89509716058466,
              0.0
            ],
            [
              88.17663100085039,
              27.894874020963968,
              0.0
            ],
            [
              88.17602755370227,
              27.894649911171015,
              0.0
            ],
            [
              88.17587329631232,
              27.894573267562166,
              0.0
            ],
            [
              88.17582866838816,
              27.894117286598142,
              0.0
            ],
            [
              88.17569672496028,
              27.893668096839967,
              0.0
            ],
            [
              88.17565791806972,
              27.89359339357565,
              0.0
            ],
            [
              88.17593538733719,
              27.893343089131566,
              0.0
            ],
            [
              88.17566956013688,
              27.89292785540263,
              0.0
            ],
            [
              88.17535328397886,
              27.89256016011462,
              0.0
            ],
            [
              88.17513984608081,
              27.89214492638568,
              0.0
            ],
            [
              88.17477118062054,
              27.891823799366332,
              0.0
            ],
            [
              88.1745577427225,
              27.891408565637395,
              0.0
            ],
            [
              88.17444908342894,
              27.890945793467523,
              0.0
            ],
            [
              88.17439184326535,
              27.890483021297655,
              0.0
            ],
            [
              88.1743908730931,
              27.89043645302899,
              0.0
            ],
            [
              88.17427445242144,
              27.889325605786848,
              0.0
            ],
            [
              88.17432199086237,
              27.888861863444713,
              0.0
            ],
            [
              88.17431714000105,
              27.88839812110258,
              0.0
            ],
            [
              88.17425795949295,
              27.888146846486237,
              0.0
            ],
            [
              88.17436758895877,
              27.88800520133571,
              0.0
            ],
            [
              88.17458878823493,
              27.887827659811418,
              0.0
            ],
            [
              88.17414541951034,
              27.88783057032821,
              0.0
            ],
            [
              88.17357301787465,
              27.887835421189532,
              0.0
            ],
            [
              88.17300061623897,
              27.887739374135403,
              0.0
            ],
            [
              88.17231373427614,
              27.88774519516899,
              0.0
            ],
            [
              88.17162588214106,
              27.887649148114864,
              0.0
            ],
            [
              88.17105348050536,
              27.887552130888476,
              0.0
            ],
            [
              88.17059361885228,
              27.887353245574385,
              0.0
            ],
            [
              88.1700212172166,
              27.8873580964357,
              0.0
            ],
            [
              88.16944784540864,
              27.887261079209313,
              0.0
            ],
            [
              88.16887544377295,
              27.887164061982926,
              0.0
            ],
            [
              88.16841558211988,
              27.88696517666883,
              0.0
            ],
            [
              88.16784221031192,
              27.886868159442443,
              0.0
            ],
            [
              88.16726883850397,
              27.886771142216055,
              0.0
            ],
            [
              88.1668089768509,
              27.886571286729698,
              0.0
            ],
            [
              88.16623463487068,
              27.886373371587865,
              0.0
            ],
            [
              88.16554678273559,
              27.886175456446036,
              0.0
            ],
            [
              88.16497341092764,
              27.88607843921965,
              0.0
            ],
            [
              88.16440100929195,
              27.886083290080965,
              0.0
            ],
            [
              88.16382763748399,
              27.885885374939132,
              0.0
            ],
            [
              88.16325426567604,
              27.885788357712745,
              0.0
            ],
            [
              88.1626808938681,
              27.885691340486357,
              0.0
            ],
            [
              88.16210752206014,
              27.88559432325997,
              0.0
            ],
            [
              88.16153512042445,
              27.885498276205848,
              0.0
            ],
            [
              88.16096077844423,
              27.885299390891753,
              0.0
            ],
            [
              88.16015747580974,
              27.885102445922186,
              0.0
            ],
            [
              88.1595841040018,
              27.885006398868065,
              0.0
            ],
            [
              88.15912521252098,
              27.884806543381703,
              0.0
            ],
            [
              88.15855184071303,
              27.884709526155316,
              0.0
            ],
            [
              88.15797846890507,
              27.884612508928928,
              0.0
            ],
            [
              88.15751763707972,
              27.884311755527126,
              0.0
            ],
            [
              88.15705777542665,
              27.884111900040764,
              0.0
            ],
            [
              88.1564844036187,
              27.884015852986643,
              0.0
            ],
            [
              88.15591006163848,
              27.88371509958484,
              0.0
            ],
            [
              88.15533571965827,
              27.883517184443008,
              0.0
            ],
            [
              88.15487488783292,
              27.883215460868943,
              0.0
            ],
            [
              88.15441308583532,
              27.882812839379433,
              0.0
            ],
            [
              88.15395225400997,
              27.882512085977627,
              0.0
            ],
            [
              88.15360396216725,
              27.882108494315858,
              0.0
            ],
            [
              88.1531431303419,
              27.88180677074179,
              0.0
            ],
            [
              88.15268229851657,
              27.88150601733999,
              0.0
            ],
            [
              88.15222146669122,
              27.881204293765922,
              0.0
            ],
            [
              88.15164518436647,
              27.880802642448675,
              0.0
            ],
            [
              88.15118338236887,
              27.880400020959165,
              0.0
            ],
            [
              88.15072158037127,
              27.879997399469655,
              0.0
            ],
            [
              88.15026074854592,
              27.87969567589559,
              0.0
            ],
            [
              88.14991342687546,
              27.879292084233818,
              0.0
            ],
            [
              88.14956610520498,
              27.878888492572045,
              0.0
            ],
            [
              88.14933326386165,
              27.878483930738007,
              0.0
            ],
            [
              88.14898497201892,
              27.878080339076234,
              0.0
            ],
            [
              88.14905094373286,
              27.877774734813112,
              0.0
            ],
            [
              88.14898206150212,
              27.877775704985375,
              0.0
            ],
            [
              88.1484106300387,
              27.877779585674432,
              0.0
            ],
            [
              88.14783919857528,
              27.87788630462346,
              0.0
            ],
            [
              88.14726873728411,
              27.877993023572483,
              0.0
            ],
            [
              88.1466973058207,
              27.878098772349247,
              0.0
            ],
            [
              88.14624229502893,
              27.87830638921372,
              0.0
            ],
            [
              88.14578728423717,
              27.878614903993633,
              0.0
            ],
            [
              88.14521876329054,
              27.878924388945805,
              0.0
            ],
            [
              88.14464927217165,
              27.87913297598254,
              0.0
            ],
            [
              88.14407881088049,
              27.87934059284701,
              0.0
            ],
            [
              88.14350737941707,
              27.87934544370833,
              0.0
            ],
            [
              88.14293497778138,
              27.879350294569647,
              0.0
            ],
            [
              88.14236354631795,
              27.87935514543097,
              0.0
            ],
            [
              88.14179017450999,
              27.879258128204583,
              0.0
            ],
            [
              88.14121680270205,
              27.879161110978195,
              0.0
            ],
            [
              88.14064440106635,
              27.879064093751808,
              0.0
            ],
            [
              88.1400710292584,
              27.87896707652542,
              0.0
            ],
            [
              88.13950153813951,
              27.879175663562155,
              0.0
            ],
            [
              88.13904652734776,
              27.879484178342068,
              0.0
            ],
            [
              88.13859345690052,
              27.879894561209685,
              0.0
            ],
            [
              88.13825486678043,
              27.880303973905043,
              0.0
            ],
            [
              88.13791530648807,
              27.8807133866004,
              0.0
            ],
            [
              88.13746223604085,
              27.881123769468022,
              0.0
            ],
            [
              88.13700819542133,
              27.881432284247936,
              0.0
            ],
            [
              88.13655415480184,
              27.881842667115553,
              0.0
            ],
            [
              88.13610011418236,
              27.882152152067732,
              0.0
            ],
            [
              88.13564413321834,
              27.882358798759938,
              0.0
            ],
            [
              88.13539964980784,
              27.882470368570285,
              0.0
            ]
          ]
        ]
      }
    }
  ],
  "properties": {
    "site_id": "south-lhonak",
    "observation_date": "2022-10-15",
    "version": "phase-2-retreat-v1.0"
  }
}